"EntityNumber","TypeOfAddress","CountryNL","CountryFR","Zipcode","MunicipalityNL","MunicipalityFR","StreetNL","StreetFR","HouseNumber","Box","ExtraAddressInfo","DateStrikingOff"
"0200.065.765","REGO",,,"9070","Destelbergen","Destelbergen","Dendermondesteenweg","Dendermondesteenweg","430","","",
"0200.068.636","REGO",,,"9000","Gent","Gent","Stropstraat","Stropstraat","1","","",
"0200.171.970","REGO",,,"9000","Gent","Gent","Brabantdam","Brabantdam","101","","",
"0200.245.711","REGO",,,"9500","Geraardsbergen","Geraardsbergen","Hoge Buizemont","Hoge Buizemont","247","","",
"0200.305.493","REGO",,,"9420","Erpe-Mere","Erpe-Mere","Joseph Cardijnstraat","Joseph Cardijnstraat","60","","",
"0200.305.493","ABBR",,,"9300","Aalst","Aalst","Stationsstraat","Stationsstraat","31","","",
"0200.355.676","REGO",,,"9600","Ronse","Ronse","","","","","",
"0200.362.111","REGO",,,"1474","Genappe","Genappe","Rue Emile François","Rue Emile François","27","","",
"0200.362.210","REGO",,,"1400","Nivelles","Nivelles","Rue de la Religion","Rue de la Religion","10","","",
"0200.362.408","REGO",,,"1450","Chastre","Chastre","Rue de Gembloux","Rue de Gembloux","2","","",
"0200.420.410","REGO",,,"3290","Diest","Diest","Michel Theysstraat","Michel Theysstraat","18","","",
"0200.420.608","REGO",,,"8970","Poperinge","Poperinge","Gasthuisstraat","Gasthuisstraat","5","","",
"0200.448.421","REGO",,,"8500","Kortrijk","Kortrijk","Budastraat(Kor)","Budastraat(Kor)","37","","",
"0200.450.005","REGO",,,"8000","Brugge","Brugge","Woensdagmarkt","Woensdagmarkt","6","","",
"0200.762.878","REGO",,,"2850","Boom","Boom","Colonel Silvertopstraat","Colonel Silvertopstraat","15","","",
"0200.809.497","REGO",,,"2800","Mechelen","Mechelen","Grote Markt, 21 Stadhuis","Grote Markt, 21 Stadhuis","","","",
"0200.809.497","ABBR",,,"2800","Mechelen","Mechelen","Electriciteitsstraat","Electriciteitsstraat","68","","",
"0200.812.368","REGO",,,"2800","Mechelen","Mechelen","Grote Markt, 21 Stadhuis","Grote Markt, 21 Stadhuis","","","",
"0200.812.368","ABBR",,,"2800","Mechelen","Mechelen","Electriciteitsstraat","Electriciteitsstraat","68","","",
"0200.881.951","REGO",,,"1731","Asse","Asse","Brusselsesteenweg","Brusselsesteenweg","617","","",
"0200.882.050","REGO",,,"1000","Brussel","Bruxelles","Eikstraat","Rue du Chêne","16","","",
"0200.952.524","REGO",,,"3500","Hasselt","Hasselt","Willekensmolenstraat","Willekensmolenstraat","122","","",
"0201.105.843","REGO",,,"7000","Mons","Mons","Rue de Nimy","Rue de Nimy","53","","",
"0201.107.427","REGO",,,"7000","Mons","Mons","*Hôtel de Ville","*Hôtel de Ville","","","",
"0201.107.427","ABBR",,,"7000","Mons","Mons","rue Buisseret","rue Buisseret","2","","",
"0201.107.526","REGO",,,"7000","Mons","Mons","Grand-Place","Grand-Place","22","","Hôtel de Ville",
"0201.107.922","REGO",,,"7340","Colfontaine","Colfontaine","Place de Pâturages","Place de Pâturages","41","","",
"0201.183.146","REGO",,,"7860","Lessines","Lessines","*Hôtel de Ville","*Hôtel de Ville","","","",
"0201.183.146","ABBR",,,"6000","Charleroi","Charleroi","Boulevard de l'Yser","Boulevard de l'Yser","44","","",
"0201.183.245","REGO",,,"7060","Soignies","Soignies","Place Verte","Place Verte","33","","Hôtel de Ville",
"0201.183.245","ABBR",,,"7860","Lessines","Lessines","rue des Quatre Fils Aymon","rue des Quatre Fils Aymon","54","","",
"0201.258.172","REGO",,,"7700","Mouscron","Mouscron","Gasstraat","Rue du Gaz","16","","",
"0201.310.731","REGO",,,"3900","Overpelt","Overpelt","Oude Markt","Oude Markt","2","","",
"0201.310.929","REGO",,,"3600","Genk","Genk","Klotstraat","Klotstraat","125","","",
"0201.311.028","REGO",,,"3640","Kinrooi","Kinrooi","Maasdijk (Oph)","Maasdijk (Oph)","1","3","",
"0201.311.226","REGO",,,"3500","Hasselt","Hasselt","Trichterheideweg","Trichterheideweg","8","","",
"0201.339.039","REGO",,,"3500","Hasselt","Hasselt","Thonissenlaan","Thonissenlaan","15","","",
"0201.400.011","REGO",,,"5000","Namur","Namur","Avenue Sergent Vrithoff","Avenue Sergent Vrithoff","2","","",
"0201.400.011","ABBR",,,"5000","Namur","Namur","Avenue Sergent Vrithoff","Avenue Sergent Vrithoff","2","","",
"0201.400.110","REGO",,,"5361","Hamois","Hamois","Rue des Scyoux, Scy","Rue des Scyoux, Scy","20","","",
"0201.400.209","REGO",,,"5000","Namur","Namur","Avenue Sergent Vrithoff","Avenue Sergent Vrithoff","2","","",
"0201.400.209","ABBR",,,"5000","Namur","Namur","B.E.P.- Palais des Expositions,","B.E.P.- Palais des Expositions,","2","","",
"0201.456.924","REGO",,,"4577","Modave","Modave","Rue Surroyseux","Rue Surroyseux","51A","","",
"0201.543.234","REGO",,,"6010","Charleroi","Charleroi","Rue du Déversoir","Rue du Déversoir","1","","",
"0201.543.828","REGO",,,"7100","La Louvière","La Louvière","*Hôtel de Ville","*Hôtel de Ville","","","",
"0201.543.828","ABBR",,,"6000","Charleroi","Charleroi","Boulevard de l'Yser","Boulevard de l'Yser","44","","",
"0201.552.538","REGO",,,"6000","Charleroi","Charleroi","Boulevard Joseph II","Boulevard Joseph II","13","","",
"0201.568.473","REGO",,,"6000","Charleroi","Charleroi","Place Charles II","Place Charles II","SN","","Hôtel de ville",
"0201.645.281","REGO",,,"6060","Charleroi","Charleroi","Place Jules Destrée","Place Jules Destrée","SN","","",
"0201.645.281","ABBR",,,"6000","Charleroi","Charleroi","Boulevard Pierre Mayence","Boulevard Pierre Mayence","1","","",
"0201.704.471","REGO",,,"6460","Chimay","Chimay","Boulevard Louise(CH)","Boulevard Louise(CH)","18","","",
"0201.710.312","REGO",,,"6460","Chimay","Chimay","Rue Sainte-Monégonde(SAL)","Rue Sainte-Monégonde(SAL)","40","","",
"0201.712.587","REGO",,,"6460","Chimay","Chimay","Grand'Place(CH)","Grand'Place(CH)","SN","","",
"0201.712.587","ABBR",,,"6470","Sivry-Rance","Sivry-Rance","Rue du Commerce","Rue du Commerce","6","","",
"0201.717.438","REGO",,,"6530","Thuin","Thuin","Rue 't Serstevens(THN)","Rue 't Serstevens(THN)","28","","",
"0201.717.438","ABBR",,,"6530","Thuin","Thuin","Grand'Rue(THN)","Grand'Rue(THN)","39","","",
"0201.741.786","REGO",,,"6000","Charleroi","Charleroi","Boulevard Pierre Mayence","Boulevard Pierre Mayence","1","","",
"0201.760.592","REGO",,,"7110","La Louvière","La Louvière","Chaussée","Chaussée","65","","",
"0201.808.401","REGO",,,"7330","Saint-Ghislain","Saint-Ghislain","11e Rue(SG)","11e Rue(SG)","3+","","",
"0201.808.696","REGO",,,"7340","Colfontaine","Colfontaine","Rue Grande","Rue Grande","17","","",
"0201.847.991","REGO",,,"1210","Sint-Joost-ten-Node","Saint-Josse-ten-Noode","Queteletplein","Place Quetelet","3","","",
"0201.978.150","REGO",,,"1210","Sint-Joost-ten-Node","Saint-Josse-ten-Noode","Madouplein","Place Madou","1","","",
"0202.082.078","REGO",,,"1210","Sint-Joost-ten-Node","Saint-Josse-ten-Noode","Sterrenkundelaan","Avenue de l'Astronomie","13","","",
"0202.082.078","ABBR",,,"1000","Brussel","Bruxelles","Werkhuizenkaai","Quai des Usines","16","","",
"0202.082.177","REGO",,,"1210","Sint-Joost-ten-Node","Saint-Josse-ten-Noode","Sterrenkundelaan","Avenue de l'Astronomie","13","","",
"0202.082.177","ABBR",,,"1000","Brussel","Bruxelles","Werkhuizenkaai","Quai des Usines","16","","",
"0202.239.951","REGO",,,"1030","Schaarbeek","Schaerbeek","Koning AlbertII laan","Boulevard du Roi Albert II","27","","",
"0202.268.754","REGO",,,"4800","Verviers","Verviers","Chaussée de Heusy","Chaussée de Heusy","1/5","","",
"0202.320.224","REGO",,,"4780","Sankt Vith","Sankt Vith","","","","","",
"0202.329.033","REGO",,,"4720","Kelmis","Kelmis","Rue de l'Eglise","Rue de l'Eglise","31","","",
"0202.395.052","REGO",,,"4031","Liège","Liège","Rue Canal-de-l'Ourthe","Rue Canal-de-l'Ourthe","8","","",
"0202.414.452","REGO",,,"4000","Liège","Liège","Quai de Maestricht","Quai de Maestricht","14","","",
"0202.470.177","REGO",,,"4850","Plombières","Plombières","Rue de la Clinique","Rue de la Clinique","24","","",
"0202.470.177","ABBR",,,"4850","Plombières","Plombières","Rue du Calvaire","Rue du Calvaire","1","","",
"0202.492.151","REGO",,,"7321","Bernissart","Bernissart","*Maison Communale","*Maison Communale","","","",
"0202.492.151","ABBR",,,"6000","Charleroi","Charleroi","Boulevard de l'Yser","Boulevard de l'Yser","44","","",
"0202.500.267","REGO",,,"7500","Tournai","Tournai","Rue Saint-Jacques","Rue Saint-Jacques","11","","",
"0202.500.465","REGO",,,"7500","Tournai","Tournai","Rue de l'Enclos St. Martin(TOU)","Rue de l'Enclos St. Martin(TOU)","52H","","",
"0202.508.878","REGO",,,"7500","Tournai","Tournai","Rue du Viaduc(TOU)","Rue du Viaduc(TOU)","52","","",
"0202.554.113","REGO",,,"5070","Fosses-la-Ville","Fosses-la-Ville","Rue Sainte-Brigide","Rue Sainte-Brigide","43","","",
"0202.554.311","REGO",,,"5060","Sambreville","Sambreville","Rue de l'Abattoir(TAM)","Rue de l'Abattoir(TAM)","9","","",
"0202.554.608","REGO",,,"5640","Mettet","Mettet","Rue Estroit","Rue Estroit","39","","",
"0202.555.004","REGO",,,"5670","Viroinval","Viroinval","Parc Communal, Nismes","Parc Communal, Nismes","1","","Hôtel communal",
"0202.555.103","REGO",,,"5600","Philippeville","Philippeville","Place d'Armes","Place d'Armes","12","","",
"0202.555.103","ABBR",,,"5000","Namur","Namur","B.E.P.- Palais des Expositions,","B.E.P.- Palais des Expositions,","2","","",
"0202.718.122","REGO",,,"1200","Sint-Lambrechts-Woluwe","Woluwe-Saint-Lambert","Paul Hymanslaan","Avenue Paul Hymans","2","","",
"0202.819.476","REGO",,,"1040","Brussel","Bruxelles","Trierstraat","Rue de Trèves","82","","",
"0202.824.228","REGO",,,"1000","Brussel","Bruxelles","Pachecolaan","Boulevard Pachéco","34","","",
"0202.962.701","REGO",,,"1000","Brussel","Bruxelles","Keizerinlaan","Boulevard de l'Impératrice","17-19","","",
"0202.969.629","REGO",,,"1000","Brussel","Bruxelles","Trierstraat","Rue de Trèves","21","","",
"0203.071.973","REGO",,,"1000","Brussel","Bruxelles","Maalbeeklaan","Avenue du Maelbeek","3","","",
"0203.178.079","REGO",,,"1080","Sint-Jans-Molenbeek","Molenbeek-Saint-Jean","Graaf van Vlaanderenstraat","Rue du Comte de Flandre","SN","","",
"0203.178.079","ABBR",,,"1050","Elsene","Ixelles","Elsense Steenweg","Chaussée d'Ixelles","133","","",
"0203.201.340","REGO",,,"1000","Brussel","Bruxelles","de Berlaimontlaan","Boulevard de Berlaimont","14","","",
"0203.211.040","REGO",,,"1020","Brussel","Bruxelles","Sint-Annadreef","Drève Sainte-Anne","68B","","",
"0203.286.561","REGO",,,"1040","Brussel","Bruxelles","Wetstraat","Rue de la Loi","42","","",
"0203.286.759","REGO",,,"1000","Brussel","Bruxelles","Montoyerstraat","Rue Montoyer","3","","",
"0203.375.049","REGO",,,"1000","Brussel","Bruxelles","Wetstraat","Rue de la Loi","15","101","",
"0203.375.148","REGO",,,"1060","Sint-Gillis (bij-Brussel)","Saint-Gilles","Maurice Van Meenenplein","Place Maurice Van Meenen","39","","",
"0203.389.204","REGO",,,"1180","Ukkel","Uccle","Stillelaan","Avenue du Silence","61","","",
"0203.430.576","REGO",,,"1060","Sint-Gillis (bij-Brussel)","Saint-Gilles","Frankrijkstraat","Rue de France","56","","DIR.HUMAN RESOURCES BUR. H-HR.232 SEC.73",
"0203.563.111","REGO",,,"3210","Lubbeek","Lubbeek","Diestsesteenweg(LIN)","Diestsesteenweg(LIN)","126","","",
"0203.563.111","ABBR",,,"3000","Leuven","Leuven","Blijde-Inkomststraat","Blijde-Inkomststraat","105","","",
"0203.563.210","REGO",,,"1910","Kampenhout","Kampenhout","Frederik Wouterslaan","Frederik Wouterslaan","8","","",
"0203.563.210","ABBR",,,"1910","Kampenhout","Kampenhout","Tritsstraat","Tritsstraat","1","","",
"0203.683.766","REGO",,,"2630","Aartselaar","Aartselaar","Kontichsesteenweg","Kontichsesteenweg","17","","",
"0203.884.397","REGO",,,"4020","Liège","Liège","Rue Général-de-Gaulle","Rue Général-de-Gaulle","71","","",
"0203.949.131","REGO",,,"4420","Saint-Nicolas","Saint-Nicolas","Rue de la Digue","Rue de la Digue","25","","",
"0203.963.680","REGO",,,"4420","Saint-Nicolas","Saint-Nicolas","Rue de la Digue","Rue de la Digue","25","","",
"0203.971.303","REGO",,,"4130","Esneux","Esneux","Rue Grandfosse, 31-33","Rue Grandfosse, 31-33","","","",
"0203.978.726","REGO",,,"4000","Liège","Liège","Rue Sainte-Marie","Rue Sainte-Marie","5","","",
"0203.980.409","REGO",,,"4100","Seraing","Seraing","Rue Laplace","Rue Laplace","40","","",
"0203.989.614","REGO",,,"4550","Nandrin","Nandrin","Route du Condroz","Route du Condroz","319","","",
"0204.212.714","REGO",,,"2440","Geel","Geel","Antwerpseweg","Antwerpseweg","1","","",
"0204.245.277","REGO",,,"4000","Liège","Liège","Rue Louvrex","Rue Louvrex","95","","",
"0204.259.135","REGO",,,"4000","Liège","Liège","Rue du Vertbois","Rue du Vertbois","11","","Atrium Vertbois",
"0204.259.927","REGO",,,"4000","Liège","Liège","Place Notger","Place Notger","2","","",
"0204.259.927","ABBR",,,"1000","Brussel","Bruxelles","Archimedesstraat","Rue Archimède","17A","","",
"0204.260.125","REGO",,,"4800","Verviers","Verviers","Rue Jean Koch","Rue Jean Koch","6","","HÔTEL DE VILLE",
"0204.260.125","ABBR",,,"4020","Liège","Liège","Quai Godefroid-Kurth","Quai Godefroid-Kurth","100","","",
"0204.359.994","REGO",,,"6700","Arlon","Arlon","Schoppach,drève de l'Arc-en-Ciel","Schoppach,drève de l'Arc-en-Ciel","98","","",
"0200.068.636","REGO",,,"9000","Gent","Gent","Stropstraat","Stropstraat","1","","",
"0200.171.970","REGO",,,"9000","Gent","Gent","Brabantdam","Brabantdam","101","","",
"0200.245.711","REGO",,,"9500","Geraardsbergen","Geraardsbergen","Hoge Buizemont","Hoge Buizemont","247","","",
"0200.305.493","REGO",,,"9420","Erpe-Mere","Erpe-Mere","Joseph Cardijnstraat","Joseph Cardijnstraat","60","","",
"0200.305.493","ABBR",,,"9300","Aalst","Aalst","Stationsstraat","Stationsstraat","31","","",
"0200.355.676","REGO",,,"9600","Ronse","Ronse","","","","","",
"0200.362.111","REGO",,,"1474","Genappe","Genappe","Rue Emile François","Rue Emile François","27","","",
"0200.362.210","REGO",,,"1400","Nivelles","Nivelles","Rue de la Religion","Rue de la Religion","10","","",
"0200.362.408","REGO",,,"1450","Chastre","Chastre","Rue de Gembloux","Rue de Gembloux","2","","",
"0200.420.410","REGO",,,"3290","Diest","Diest","Michel Theysstraat","Michel Theysstraat","18","","",
"0200.420.608","REGO",,,"8970","Poperinge","Poperinge","Gasthuisstraat","Gasthuisstraat","5","","",
"0200.448.421","REGO",,,"8500","Kortrijk","Kortrijk","Budastraat(Kor)","Budastraat(Kor)","37","","",
"0200.450.005","REGO",,,"8000","Brugge","Brugge","Woensdagmarkt","Woensdagmarkt","6","","",
"0200.762.878","REGO",,,"2850","Boom","Boom","Colonel Silvertopstraat","Colonel Silvertopstraat","15","","",
"0200.809.497","REGO",,,"2800","Mechelen","Mechelen","Grote Markt, 21 Stadhuis","Grote Markt, 21 Stadhuis","","","",
"0200.809.497","ABBR",,,"2800","Mechelen","Mechelen","Electriciteitsstraat","Electriciteitsstraat","68","","",
"0200.812.368","REGO",,,"2800","Mechelen","Mechelen","Grote Markt, 21 Stadhuis","Grote Markt, 21 Stadhuis","","","",
"0200.812.368","ABBR",,,"2800","Mechelen","Mechelen","Electriciteitsstraat","Electriciteitsstraat","68","","",
"0200.881.951","REGO",,,"1731","Asse","Asse","Brusselsesteenweg","Brusselsesteenweg","617","","",
"0200.882.050","REGO",,,"1000","Brussel","Bruxelles","Eikstraat","Rue du Chêne","16","","",
"0200.952.524","REGO",,,"3500","Hasselt","Hasselt","Willekensmolenstraat","Willekensmolenstraat","122","","",
"0201.105.843","REGO",,,"7000","Mons","Mons","Rue de Nimy","Rue de Nimy","53","","",
"0201.107.427","REGO",,,"7000","Mons","Mons","*Hôtel de Ville","*Hôtel de Ville","","","",
"0201.107.427","ABBR",,,"7000","Mons","Mons","rue Buisseret","rue Buisseret","2","","",
"0201.107.526","REGO",,,"7000","Mons","Mons","Grand-Place","Grand-Place","22","","Hôtel de Ville",
"0201.107.922","REGO",,,"7340","Colfontaine","Colfontaine","Place de Pâturages","Place de Pâturages","41","","",
"0201.183.146","REGO",,,"7860","Lessines","Lessines","*Hôtel de Ville","*Hôtel de Ville","","","",
"0201.183.146","ABBR",,,"6000","Charleroi","Charleroi","Boulevard de l'Yser","Boulevard de l'Yser","44","","",
"0201.183.245","REGO",,,"7060","Soignies","Soignies","Place Verte","Place Verte","33","","Hôtel de Ville",
"0201.183.245","ABBR",,,"7860","Lessines","Lessines","rue des Quatre Fils Aymon","rue des Quatre Fils Aymon","54","","",
"0201.258.172","REGO",,,"7700","Mouscron","Mouscron","Gasstraat","Rue du Gaz","16","","",
"0201.310.731","REGO",,,"3900","Overpelt","Overpelt","Oude Markt","Oude Markt","2","","",
"0201.310.929","REGO",,,"3600","Genk","Genk","Klotstraat","Klotstraat","125","","",
"0201.311.028","REGO",,,"3640","Kinrooi","Kinrooi","Maasdijk (Oph)","Maasdijk (Oph)","1","3","",
"0201.311.226","REGO",,,"3500","Hasselt","Hasselt","Trichterheideweg","Trichterheideweg","8","","",
"0201.339.039","REGO",,,"3500","Hasselt","Hasselt","Thonissenlaan","Thonissenlaan","15","","",
"0201.400.011","REGO",,,"5000","Namur","Namur","Avenue Sergent Vrithoff","Avenue Sergent Vrithoff","2","","",
"0201.400.011","ABBR",,,"5000","Namur","Namur","Avenue Sergent Vrithoff","Avenue Sergent Vrithoff","2","","",
"0201.400.110","REGO",,,"5361","Hamois","Hamois","Rue des Scyoux, Scy","Rue des Scyoux, Scy","20","","",
"0201.400.209","REGO",,,"5000","Namur","Namur","Avenue Sergent Vrithoff","Avenue Sergent Vrithoff","2","","",
"0201.400.209","ABBR",,,"5000","Namur","Namur","B.E.P.- Palais des Expositions,","B.E.P.- Palais des Expositions,","2","","",
"0201.456.924","REGO",,,"4577","Modave","Modave","Rue Surroyseux","Rue Surroyseux","51A","","",
"0201.543.234","REGO",,,"6010","Charleroi","Charleroi","Rue du Déversoir","Rue du Déversoir","1","","",
"0201.543.828","REGO",,,"7100","La Louvière","La Louvière","*Hôtel de Ville","*Hôtel de Ville","","","",
"0201.543.828","ABBR",,,"6000","Charleroi","Charleroi","Boulevard de l'Yser","Boulevard de l'Yser","44","","",
"0201.552.538","REGO",,,"6000","Charleroi","Charleroi","Boulevard Joseph II","Boulevard Joseph II","13","","",
"0201.568.473","REGO",,,"6000","Charleroi","Charleroi","Place Charles II","Place Charles II","SN","","Hôtel de ville",
"0201.645.281","REGO",,,"6060","Charleroi","Charleroi","Place Jules Destrée","Place Jules Destrée","SN","","",
"0201.645.281","ABBR",,,"6000","Charleroi","Charleroi","Boulevard Pierre Mayence","Boulevard Pierre Mayence","1","","",
"0201.704.471","REGO",,,"6460","Chimay","Chimay","Boulevard Louise(CH)","Boulevard Louise(CH)","18","","",
"0201.710.312","REGO",,,"6460","Chimay","Chimay","Rue Sainte-Monégonde(SAL)","Rue Sainte-Monégonde(SAL)","40","","",
"0201.712.587","REGO",,,"6460","Chimay","Chimay","Grand'Place(CH)","Grand'Place(CH)","SN","","",
"0201.712.587","ABBR",,,"6470","Sivry-Rance","Sivry-Rance","Rue du Commerce","Rue du Commerce","6","","",
"0201.717.438","REGO",,,"6530","Thuin","Thuin","Rue 't Serstevens(THN)","Rue 't Serstevens(THN)","28","","",
"0201.717.438","ABBR",,,"6530","Thuin","Thuin","Grand'Rue(THN)","Grand'Rue(THN)","39","","",
"0201.741.786","REGO",,,"6000","Charleroi","Charleroi","Boulevard Pierre Mayence","Boulevard Pierre Mayence","1","","",
"0201.760.592","REGO",,,"7110","La Louvière","La Louvière","Chaussée","Chaussée","65","","",
"0201.808.401","REGO",,,"7330","Saint-Ghislain","Saint-Ghislain","11e Rue(SG)","11e Rue(SG)","3+","","",
"0201.808.696","REGO",,,"7340","Colfontaine","Colfontaine","Rue Grande","Rue Grande","17","","",
"0201.847.991","REGO",,,"1210","Sint-Joost-ten-Node","Saint-Josse-ten-Noode","Queteletplein","Place Quetelet","3","","",
"0201.978.150","REGO",,,"1210","Sint-Joost-ten-Node","Saint-Josse-ten-Noode","Madouplein","Place Madou","1","","",
"0202.082.078","REGO",,,"1210","Sint-Joost-ten-Node","Saint-Josse-ten-Noode","Sterrenkundelaan","Avenue de l'Astronomie","13","","",
"0202.082.078","ABBR",,,"1000","Brussel","Bruxelles","Werkhuizenkaai","Quai des Usines","16","","",
"0202.082.177","REGO",,,"1210","Sint-Joost-ten-Node","Saint-Josse-ten-Noode","Sterrenkundelaan","Avenue de l'Astronomie","13","","",
"0202.082.177","ABBR",,,"1000","Brussel","Bruxelles","Werkhuizenkaai","Quai des Usines","16","","",
"0202.239.951","REGO",,,"1030","Schaarbeek","Schaerbeek","Koning AlbertII laan","Boulevard du Roi Albert II","27","","",
"0202.268.754","REGO",,,"4800","Verviers","Verviers","Chaussée de Heusy","Chaussée de Heusy","1/5","","",
"0202.320.224","REGO",,,"4780","Sankt Vith","Sankt Vith","","","","","",
"0202.329.033","REGO",,,"4720","Kelmis","Kelmis","Rue de l'Eglise","Rue de l'Eglise","31","","",
"0202.395.052","REGO",,,"4031","Liège","Liège","Rue Canal-de-l'Ourthe","Rue Canal-de-l'Ourthe","8","","",
"0202.414.452","REGO",,,"4000","Liège","Liège","Quai de Maestricht","Quai de Maestricht","14","","",
"0202.470.177","REGO",,,"4850","Plombières","Plombières","Rue de la Clinique","Rue de la Clinique","24","","",
"0202.470.177","ABBR",,,"4850","Plombières","Plombières","Rue du Calvaire","Rue du Calvaire","1","","",
"0202.492.151","REGO",,,"7321","Bernissart","Bernissart","*Maison Communale","*Maison Communale","","","",
"0202.492.151","ABBR",,,"6000","Charleroi","Charleroi","Boulevard de l'Yser","Boulevard de l'Yser","44","","",
"0202.500.267","REGO",,,"7500","Tournai","Tournai","Rue Saint-Jacques","Rue Saint-Jacques","11","","",
"0202.500.465","REGO",,,"7500","Tournai","Tournai","Rue de l'Enclos St. Martin(TOU)","Rue de l'Enclos St. Martin(TOU)","52H","","",
"0202.508.878","REGO",,,"7500","Tournai","Tournai","Rue du Viaduc(TOU)","Rue du Viaduc(TOU)","52","","",
"0202.554.113","REGO",,,"5070","Fosses-la-Ville","Fosses-la-Ville","Rue Sainte-Brigide","Rue Sainte-Brigide","43","","",
"0202.554.311","REGO",,,"5060","Sambreville","Sambreville","Rue de l'Abattoir(TAM)","Rue de l'Abattoir(TAM)","9","","",
"0202.554.608","REGO",,,"5640","Mettet","Mettet","Rue Estroit","Rue Estroit","39","","",
"0202.555.004","REGO",,,"5670","Viroinval","Viroinval","Parc Communal, Nismes","Parc Communal, Nismes","1","","Hôtel communal",
"0202.555.103","REGO",,,"5600","Philippeville","Philippeville","Place d'Armes","Place d'Armes","12","","",
"0202.555.103","ABBR",,,"5000","Namur","Namur","B.E.P.- Palais des Expositions,","B.E.P.- Palais des Expositions,","2","","",
"0202.718.122","REGO",,,"1200","Sint-Lambrechts-Woluwe","Woluwe-Saint-Lambert","Paul Hymanslaan","Avenue Paul Hymans","2","","",
"0202.819.476","REGO",,,"1040","Brussel","Bruxelles","Trierstraat","Rue de Trèves","82","","",
"0202.824.228","REGO",,,"1000","Brussel","Bruxelles","Pachecolaan","Boulevard Pachéco","34","","",
"0202.962.701","REGO",,,"1000","Brussel","Bruxelles","Keizerinlaan","Boulevard de l'Impératrice","17-19","","",
"0202.969.629","REGO",,,"1000","Brussel","Bruxelles","Trierstraat","Rue de Trèves","21","","",
"0203.071.973","REGO",,,"1000","Brussel","Bruxelles","Maalbeeklaan","Avenue du Maelbeek","3","","",
"0203.178.079","REGO",,,"1080","Sint-Jans-Molenbeek","Molenbeek-Saint-Jean","Graaf van Vlaanderenstraat","Rue du Comte de Flandre","SN","","",
"0203.178.079","ABBR",,,"1050","Elsene","Ixelles","Elsense Steenweg","Chaussée d'Ixelles","133","","",
"0203.201.340","REGO",,,"1000","Brussel","Bruxelles","de Berlaimontlaan","Boulevard de Berlaimont","14","","",
"0203.211.040","REGO",,,"1020","Brussel","Bruxelles","Sint-Annadreef","Drève Sainte-Anne","68B","","",
"0203.286.561","REGO",,,"1040","Brussel","Bruxelles","Wetstraat","Rue de la Loi","42","","",
"0203.286.759","REGO",,,"1000","Brussel","Bruxelles","Montoyerstraat","Rue Montoyer","3","","",
"0203.375.049","REGO",,,"1000","Brussel","Bruxelles","Wetstraat","Rue de la Loi","15","101","",
"0203.375.148","REGO",,,"1060","Sint-Gillis (bij-Brussel)","Saint-Gilles","Maurice Van Meenenplein","Place Maurice Van Meenen","39","","",
"0203.389.204","REGO",,,"1180","Ukkel","Uccle","Stillelaan","Avenue du Silence","61","","",
"0203.430.576","REGO",,,"1060","Sint-Gillis (bij-Brussel)","Saint-Gilles","Frankrijkstraat","Rue de France","56","","DIR.HUMAN RESOURCES BUR. H-HR.232 SEC.73",
"0203.563.111","REGO",,,"3210","Lubbeek","Lubbeek","Diestsesteenweg(LIN)","Diestsesteenweg(LIN)","126","","",
"0203.563.111","ABBR",,,"3000","Leuven","Leuven","Blijde-Inkomststraat","Blijde-Inkomststraat","105","","",
"0203.563.210","REGO",,,"1910","Kampenhout","Kampenhout","Frederik Wouterslaan","Frederik Wouterslaan","8","","",
"0203.563.210","ABBR",,,"1910","Kampenhout","Kampenhout","Tritsstraat","Tritsstraat","1","","",
"0203.683.766","REGO",,,"2630","Aartselaar","Aartselaar","Kontichsesteenweg","Kontichsesteenweg","17","","",
"0203.884.397","REGO",,,"4020","Liège","Liège","Rue Général-de-Gaulle","Rue Général-de-Gaulle","71","","",
"0203.949.131","REGO",,,"4420","Saint-Nicolas","Saint-Nicolas","Rue de la Digue","Rue de la Digue","25","","",
"0203.963.680","REGO",,,"4420","Saint-Nicolas","Saint-Nicolas","Rue de la Digue","Rue de la Digue","25","","",
"0203.971.303","REGO",,,"4130","Esneux","Esneux","Rue Grandfosse, 31-33","Rue Grandfosse, 31-33","","","",
"0203.978.726","REGO",,,"4000","Liège","Liège","Rue Sainte-Marie","Rue Sainte-Marie","5","","",
"0203.980.409","REGO",,,"4100","Seraing","Seraing","Rue Laplace","Rue Laplace","40","","",
"0203.989.614","REGO",,,"4550","Nandrin","Nandrin","Route du Condroz","Route du Condroz","319","","",
"0204.212.714","REGO",,,"2440","Geel","Geel","Antwerpseweg","Antwerpseweg","1","","",
"0204.245.277","REGO",,,"4000","Liège","Liège","Rue Louvrex","Rue Louvrex","95","","",
"0204.259.135","REGO",,,"4000","Liège","Liège","Rue du Vertbois","Rue du Vertbois","11","","Atrium Vertbois",
"0204.259.927","REGO",,,"4000","Liège","Liège","Place Notger","Place Notger","2","","",
"0204.259.927","ABBR",,,"1000","Brussel","Bruxelles","Archimedesstraat","Rue Archimède","17A","","",
"0204.260.125","REGO",,,"4800","Verviers","Verviers","Rue Jean Koch","Rue Jean Koch","6","","HÔTEL DE VILLE",
"0204.260.125","ABBR",,,"4020","Liège","Liège","Quai Godefroid-Kurth","Quai Godefroid-Kurth","100","","",
"0204.359.994","REGO",,,"6700","Arlon","Arlon","Schoppach,drève de l'Arc-en-Ciel","Schoppach,drève de l'Arc-en-Ciel","98","","",
"2.161.267.688","BAET",,,"9000","Gent","Gent","Port Arthurlaan","Port Arthurlaan","11","","",
"2.161.268.183","BAET",,,"9000","Gent","Gent","Botermarkt","Botermarkt","1","","",
"2.158.292.758","BAET",,,"9000","Gent","Gent","Stropkaai","Stropkaai","14","","",
"2.175.916.569","BAET",,,"1730","Asse","Asse","Huinegem","Huinegem","47","","",
"2.175.916.866","BAET",,,"8310","Brugge","Brugge","Schaakstraat","Schaakstraat","100","","",
"2.175.916.965","BAET",,,"9600","Ronse","Ronse","Ninoofsesteenweg","Chaussée de Ninove","583","A","",
"2.207.103.356","BAET",,,"9000","Gent","Gent","Stropstraat","Stropstraat","31","","",
"2.207.103.653","BAET",,,"9000","Gent","Gent","Veermanplein","Veermanplein","1","","",
"2.207.105.039","BAET",,,"9032","Gent","Gent","Botestraat","Botestraat","100","","",
"2.207.105.138","BAET",,,"9000","Gent","Gent","Peerstraat","Peerstraat","1","","",
"2.207.105.336","BAET",,,"9000","Gent","Gent","Oudenaardsesteenweg","Oudenaardsesteenweg","74","","",
"2.207.106.623","BAET",,,"9030","Gent","Gent","Driepikkelstraat","Driepikkelstraat","30","","",
"2.207.106.821","BAET",,,"9050","Gent","Gent","Driebeekstraat","Driebeekstraat","22","","",
"2.207.107.613","BAET",,,"9052","Gent","Gent","Ter Linden","Ter Linden","29","","",
"2.207.108.108","BAET",,,"9031","Gent","Gent","Keiskantstraat","Keiskantstraat","3","","",
"2.207.108.405","BAET",,,"9032","Gent","Gent","Botestraat","Botestraat","98","","",
"2.207.115.531","BAET",,,"9000","Gent","Gent","Tolhuislaan","Tolhuislaan","77","","",
"2.207.115.630","BAET",,,"9041","Gent","Gent","Wolfputstraat","Wolfputstraat","92","","",
"2.207.115.828","BAET",,,"9000","Gent","Gent","Dracenastraat","Dracenastraat","8","","",
"2.207.116.125","BAET",,,"9041","Gent","Gent","Sint-Jozefstraat","Sint-Jozefstraat","8","","",
"2.207.116.323","BAET",,,"8730","Beernem","Beernem","Sportstraat","Sportstraat","1","","",
"2.207.116.422","BAET",,,"8730","Beernem","Beernem","C. Marichalstraat","C. Marichalstraat","3","","",
"2.207.117.511","BAET",,,"8370","Blankenberge","Blankenberge","Willem Tellstraat","Willem Tellstraat","32","","",
"2.207.117.808","BAET",,,"8370","Blankenberge","Blankenberge","Eric Jameslaan","Eric Jameslaan","16","","",
"2.207.118.501","BAET",,,"8420","De Haan","De Haan","Graaf Jansdijk","Graaf Jansdijk","18","","",
"2.207.118.994","BAET",,,"8420","De Haan","De Haan","Nieuwe Steenweg","Nieuwe Steenweg","74","","",
"2.207.180.956","BAET",,,"9910","Knesselare","Knesselare","Prinsengoeddreef","Prinsengoeddreef","33","","",
"2.207.181.847","BAET",,,"9910","Knesselare","Knesselare","Urselseweg","Urselseweg","185","","",
"2.207.183.827","BAET",,,"9280","Lebbeke","Lebbeke","Koning Albert I-straat","Koning Albert I-straat","124","","",
"2.207.184.916","BAET",,,"8370","Blankenberge","Blankenberge","Ach Van Ackersquare","Ach Van Ackersquare","1","","",
"2.207.185.114","BAET",,,"8370","Blankenberge","Blankenberge","Groenestraat","Groenestraat","117","","",
"2.207.187.587","BAET",,,"9280","Lebbeke","Lebbeke","Koning Albert I-straat","Koning Albert I-straat","124","*","",
"2.207.187.884","BAET",,,"1770","Liedekerke","Liedekerke","Sportlaan","Sportlaan","5","","",
"2.207.188.082","BAET",,,"8430","Middelkerke","Middelkerke","Populierenlaan","Populierenlaan","20","","",
"2.207.188.874","BAET",,,"8890","Moorslede","Moorslede","Iepersestraat","Iepersestraat","52","H","",
"2.207.192.042","BAET",,,"8890","Moorslede","Moorslede","Ledegemstraat","Ledegemstraat","40","","",
"2.207.194.616","BAET",,,"8400","Oostende","Oostende","Koninginnelaan","Koninginnelaan","1","","",
"2.207.195.309","BAET",,,"8020","Oostkamp","Oostkamp","Albrecht Rodenbachstraat","Albrecht Rodenbachstraat","42","","",
"2.207.195.705","BAET",,,"8020","Oostkamp","Oostkamp","Albrecht Rodenbachstraat","Albrecht Rodenbachstraat","42","*","",
"2.207.196.792","BAET",,,"8020","Oostkamp","Oostkamp","Sportstraat","Sportstraat","2","","",
"2.207.196.990","BAET",,,"1740","Ternat","Ternat","Van Cauwelaertstraat","Van Cauwelaertstraat","40","","",
"2.207.198.079","BAET",,,"1740","Ternat","Ternat","Van Cauwelaertstraat","Van Cauwelaertstraat","40","*","",
"2.207.214.808","BAET",,,"9060","Zelzate","Zelzate","Oostkade","Oostkade","1","","",
"2.207.215.204","BAET",,,"9930","Zomergem","Zomergem","Den Boer","Den Boer","17","","",
"2.207.215.796","BAET",,,"9930","Zomergem","Zomergem","Den Boer","Den Boer","17","*","",
"2.207.216.390","BAET",,,"9000","Gent","Gent","Vissersdijk","Vissersdijk","1","","",
"2.207.216.786","BAET",,,"9000","Gent","Gent","Gaspar de Craeyerstraat","Gaspar de Craeyerstraat","2","","",
"2.207.216.984","BAET",,,"1745","Opwijk","Opwijk","Heiveld","Heiveld","65","","",
"2.207.217.380","BAET",,,"9830","Sint-Martens-Latem","Sint-Martens-Latem","Hoge Heirweg","Hoge Heirweg","58","","",
"2.207.217.578","BAET",,,"9950","Waarschoot","Waarschoot","Sportstraat","Sportstraat","3","","",
"2.208.517.774","BAET",,,"1830","Machelen (Brab.)","Machelen (Brab.)","Heirbaan","Heirbaan","*","","",
"2.208.518.170","BAET",,,"8470","Gistel","Gistel","Sportstraat","Sportstraat","1","","",
"2.208.518.764","BAET",,,"8470","Gistel","Gistel","Sportstraat","Sportstraat","1","*","",
"2.208.519.160","BAET",,,"8470","Gistel","Gistel","Sportstraat","Sportstraat","1","°","",
"2.208.519.457","BAET",,,"8470","Gistel","Gistel","Dorpsstraat","Dorpsstraat","38","E","",
"2.208.519.853","BAET",,,"9900","Eeklo","Eeklo","Burg. Lionel Pussemierstraat","Burg. Lionel Pussemierstraat","157","","",
"2.208.520.348","BAET",,,"9900","Eeklo","Eeklo","Oostveldstraat","Oostveldstraat","162","","",
"2.208.521.140","BAET",,,"9950","Waarschoot","Waarschoot","Sportstraat","Sportstraat","3","*","",
"2.208.521.239","BAET",,,"8600","Diksmuide","Diksmuide","Pluimstraat(ESE)","Pluimstraat(ESE)","18","","",
"2.208.533.315","BAET",,,"8370","Blankenberge","Blankenberge","Ach Van Ackersquare","Ach Van Ackersquare","1","*","",
"2.208.533.612","BAET",,,"9040","Gent","Gent","Rozebroekslag","Rozebroekslag","28","","",
"2.208.533.810","BAET",,,"9040","Gent","Gent","Rozebroekslag","Rozebroekslag","28","*","",
"2.229.447.307","BAET",,,"8400","Oostende","Oostende","Leopold Van Tyghemlaan","Leopold Van Tyghemlaan","62","","",
"2.229.448.295","BAET",,,"9070","Destelbergen","Destelbergen","Koedreef","Koedreef","1","","",
"2.229.448.691","BAET",,,"9840","De Pinte","De Pinte","Nieuwstraat","Nieuwstraat",".","","",
"2.229.449.087","BAET",,,"8730","Beernem","Beernem","Wellingstraat","Wellingstraat","29","A","",
"2.229.449.582","BAET",,,"8810","Lichtervelde","Lichtervelde","Zandstraat","Zandstraat","15","","",
"2.229.719.303","BAET",,,"1770","Liedekerke","Liedekerke","Sportlaan","Sportlaan","3","","",
"2.229.719.796","BAET",,,"1830","Machelen (Brab.)","Machelen (Brab.)","Heirbaan","Heirbaan","10","","",
"2.229.720.489","BAET",,,"1830","Machelen (Brab.)","Machelen (Brab.)","Vuurkruisenlaan","Vuurkruisenlaan","28","","",
"2.229.720.984","BAET",,,"1831","Machelen (Brab.)","Machelen (Brab.)","Kosterstraat","Kosterstraat","70","","",
"2.229.721.380","BAET",,,"1831","Machelen (Brab.)","Machelen (Brab.)","Alfons De Cockplein","Alfons De Cockplein","10","","",
"2.229.721.578","BAET",,,"1830","Machelen (Brab.)","Machelen (Brab.)","Cornelis Peetersstraat","Cornelis Peetersstraat","39","","",
"2.229.721.875","BAET",,,"1830","Machelen (Brab.)","Machelen (Brab.)","Heirbaan","Heirbaan","10",".","",
"2.161.837.317","BAET",,,"9420","Erpe-Mere","Erpe-Mere","Joseph Cardijnstraat","Joseph Cardijnstraat","60","","",
"2.158.766.672","BAET",,,"1474","Genappe","Genappe","Rue Emile François","Rue Emile François","27","","",
"2.166.134.615","BAET",,,"1400","Nivelles","Nivelles","Rue de la Religion","Rue de la Religion","10","","",
"2.166.130.457","BAET",,,"1450","Chastre","Chastre","Rue de Gembloux","Rue de Gembloux","2","","",
"2.168.951.672","BAET",,,"1450","Chastre","Chastre","Avenue des Marronniers","Avenue des Marronniers","36","","",
"2.168.951.870","BAET",,,"1370","Jodoigne","Jodoigne","Marché aux Chevaux(Jod.)","Marché aux Chevaux(Jod.)","2","","",
"2.168.951.969","BAET",,,"1332","Rixensart","Rixensart","Rue de Rosières","Rue de Rosières","63","","",
"2.168.952.068","BAET",,,"1420","Braine-l'Alleud","Braine-l'Alleud","Rue des Trois Apôtres","Rue des Trois Apôtres","5","","",
"2.168.952.266","BAET",,,"1320","Jodoigne","Jodoigne","Place Saint-Martin,T.-la-G.","Place Saint-Martin,T.-la-G.","3","","",
"2.168.952.662","BAET",,,"1421","Braine-l'Alleud","Braine-l'Alleud","Rue du Cimetière","Rue du Cimetière","1","","",
"2.168.952.959","BAET",,,"1440","Braine-le-Château","Braine-le-Château","Chaussée de Tubize(W-B)","Chaussée de Tubize(W-B)","159","","",
"2.168.953.058","BAET",,,"1440","Braine-le-Château","Braine-le-Château","Rue des Ecoles(W-B)","Rue des Ecoles(W-B)","1","","",
"2.168.953.256","BAET",,,"1440","Braine-le-Château","Braine-le-Château","Rue Robert Ledecq(W-B)","Rue Robert Ledecq(W-B)","17","A","",
"2.168.955.533","BAET",,,"1440","Braine-le-Château","Braine-le-Château","Chaussée de Tubize(W-B)","Chaussée de Tubize(W-B)","11","","",
"2.168.955.830","BAET",,,"1315","Incourt","Incourt","Place","Place","8","","",
"2.168.956.127","BAET",,,"1315","Incourt","Incourt","Rue Ecole des Filles","Rue Ecole des Filles","5","","",
"2.168.956.325","BAET",,,"1472","Genappe","Genappe","Avenue Henri Semal","Avenue Henri Semal","19","","",
"2.168.956.721","BAET",,,"1340","Ottignies-Louvain-la-Neuve","Ottignies-Louvain-la-Neuve","Rue de l'Invasion","Rue de l'Invasion","119","A","",
"2.168.957.414","BAET",,,"1342","Ottignies-Louvain-la-Neuve","Ottignies-Louvain-la-Neuve","Avenue de Jassans","Avenue de Jassans","674","","",
"2.168.957.711","BAET",,,"1480","Tubize","Tubize","Rue de l'Ecole","Rue de l'Ecole","14","","",
"2.168.957.909","BAET",,,"1480","Tubize","Tubize","Chaussée d'Enghien","Chaussée d'Enghien","243","","",
"2.168.958.107","BAET",,,"1480","Tubize","Tubize","Place des Grées du Lou","Place des Grées du Lou","1","","",
"2.168.958.503","BAET",,,"1480","Tubize","Tubize","Rue de la Cure","Rue de la Cure","39","","",
"2.168.959.194","BAET",,,"1480","Tubize","Tubize","Avenue Gabrielle Petit","Avenue Gabrielle Petit","25","","",
"2.168.959.689","BAET",,,"1480","Tubize","Tubize","Grand'Place","Grand'Place","31","","",
"2.168.960.283","BAET",,,"1401","Nivelles","Nivelles","Rue de Dinant","Rue de Dinant","6","","",
"2.168.960.580","BAET",,,"1400","Nivelles","Nivelles","Square des Nations-Unies","Square des Nations-Unies","7","","",
"2.168.960.778","BAET",,,"1310","La Hulpe","La Hulpe","Rue des Combattants","Rue des Combattants","112","","",
"2.168.960.976","BAET",,,"1310","La Hulpe","La Hulpe","Rue Gaston Bary","Rue Gaston Bary","52","","",
"2.168.961.471","BAET",,,"1495","Villers-la-Ville","Villers-la-Ville","Rue du Berceau,Marbais","Rue du Berceau,Marbais","18","","",
"2.168.961.570","BAET",,,"1495","Villers-la-Ville","Villers-la-Ville","Rue du Culot,Tilly","Rue du Culot,Tilly","4","","",
"2.168.961.768","BAET",,,"1480","Tubize","Tubize","Square René Larcier","Square René Larcier","7","","",
"2.150.858.697","BAET",,,"3290","Diest","Diest","Michel Theysstraat","Michel Theysstraat","18","","",
"2.162.917.579","BAET",,,"2850","Boom","Boom","Colonel Silvertopstraat","Colonel Silvertopstraat","15","","",
"2.171.339.159","BAET",,,"2850","Boom","Boom","Industrieweg","Industrieweg","1","","",
"2.163.001.119","BAET",,,"1731","Asse","Asse","Brusselsesteenweg","Brusselsesteenweg","617","","",
"2.161.770.110","BAET",,,"3500","Hasselt","Hasselt","Willekensmolenstraat","Willekensmolenstraat","122","","",
"2.161.770.308","BAET",,,"3440","Zoutleeuw","Zoutleeuw","Ossenwegstraat","Ossenwegstraat","1","A","",
"2.162.852.253","BAET",,,"7000","Mons","Mons","Rue de Nimy","Rue de Nimy","53","","",
"2.162.853.342","BAET",,,"7390","Quaregnon","Quaregnon","Chasse des Prés","Chasse des Prés","1","","",
"2.162.853.540","BAET",,,"7180","Seneffe","Seneffe","Rue de Soudromont","Rue de Soudromont","1","","",
"2.162.853.639","BAET",,,"7110","La Louvière","La Louvière","Rue Grand Peuplier(H-A)","Rue Grand Peuplier(H-A)","20","","",
"2.162.853.936","BAET",,,"7100","La Louvière","La Louvière","Rue Hamoir(L.L)","Rue Hamoir(L.L)","30","","",
"2.162.854.629","BAET",,,"7000","Mons","Mons","Rue René Descartes","Rue René Descartes","2","","",
"2.162.854.926","BAET",,,"7130","Binche","Binche","Rue des Pastures(BIN)","Rue des Pastures(BIN)","95","","",
"2.165.787.195","BAET",,,"7110","La Louvière","La Louvière","Rue Athéna(H-G)","Rue Athéna(H-G)","-","","",
"2.227.021.515","BAET",,,"7033","Mons","Mons","Rue de Ciply (C.)","Rue de Ciply (C.)","265","B","",
"2.006.383.830","BAET",,,"7000","Mons","Mons","Chasse du Roeulx","Chasse du Roeulx","71","","",
"2.211.467.168","BAET",,,"7000","Mons","Mons","Rue Neuve","Rue Neuve","17","","",
"2.163.789.688","BAET",,,"7340","Colfontaine","Colfontaine","Place de Pâturages","Place de Pâturages","41","","",
"2.163.789.787","BAET",,,"7331","Saint-Ghislain","Saint-Ghislain","Rue des Hauts Monceaux(B)","Rue des Hauts Monceaux(B)","41","","",
"2.163.790.480","BAET",,,"7301","Boussu","Boussu","Rue Barbet(H)","Rue Barbet(H)","91","","",
"2.163.790.579","BAET",,,"7080","Frameries","Frameries","Rue du Parc","Rue du Parc","43","","",
"2.163.791.272","BAET",,,"7390","Quaregnon","Quaregnon","Rue Edouard Anseele","Rue Edouard Anseele","22","","",
"2.163.791.371","BAET",,,"7301","Boussu","Boussu","Rue Grande Campagne(H)","Rue Grande Campagne(H)","44","","",
"2.163.791.767","BAET",,,"7380","Quiévrain","Quiévrain","Rue de Bavay","Rue de Bavay","15","","",
"2.163.791.866","BAET",,,"7370","Dour","Dour","Rue Sainte Croix","Rue Sainte Croix","32","","",
"2.163.791.965","BAET",,,"7330","Saint-Ghislain","Saint-Ghislain","11e Rue(SG)","11e Rue(SG)","15","","",
"2.191.518.723","BAET",,,"7370","Dour","Dour","Rue Ferrer","Rue Ferrer","14","","",
"2.164.737.518","BAET",,,"7700","Mouscron","Mouscron","Gasstraat","Rue du Gaz","16","","hôtel de ville",
"2.162.441.982","BAET",,,"3900","Overpelt","Overpelt","Oude Markt","Oude Markt","2","","",
"2.154.177.186","BAET",,,"3600","Genk","Genk","Arbeidsstraat","Arbeidsstraat","66","","",
"2.154.177.285","BAET",,,"3600","Genk","Genk","Klotstraat","Klotstraat","125","","",
"2.163.385.555","BAET",,,"3600","Genk","Genk","Klotstraat","Klotstraat","125.","","",
"2.163.385.654","BAET",,,"3520","Zonhoven","Zonhoven","Jacob Lenaertsstraat","Jacob Lenaertsstraat","33","","",
"2.163.385.753","BAET",,,"3840","Borgloon","Borgloon","Brikhof","Brikhof","68","","",
"2.163.385.852","BAET",,,"3700","Tongeren","Tongeren","Baversstraat","Baversstraat","32","","",
"2.163.385.951","BAET",,,"3520","Zonhoven","Zonhoven","Boddenveldweg","Boddenveldweg","11","","",
"2.158.307.210","BAET",,,"3500","Hasselt","Hasselt","Trichterheideweg","Trichterheideweg","8","","",
"2.004.335.348","BAET",,,"5361","Hamois","Hamois","Rue du Moulin, Mohiville","Rue du Moulin, Mohiville","-","","",
"2.159.828.625","BAET",,,"5000","Namur","Namur","Avenue Sergent Vrithoff","Avenue Sergent Vrithoff","2","","",
"2.159.829.021","BAET",,,"5300","Andenne","Andenne","Chaussée d'Anton","Chaussée d'Anton","-","","",
"2.159.830.902","BAET",,,"5020","Namur","Namur","Chemin de Boninne(CH)","Chemin de Boninne(CH)","-","","",
"2.159.831.296","BAET",,,"5310","Eghezée","Eghezée","Route de Gembloux","Route de Gembloux","-","","",
"2.159.831.494","BAET",,,"5380","Fernelmont","Fernelmont","Rue Ernest Montellier, ZI, Nov.","Rue Ernest Montellier, ZI, Nov.","-","","",
"2.159.831.692","BAET",,,"5070","Fosses-la-Ville","Fosses-la-Ville","Rue de Falisolle,Vitrival","Rue de Falisolle,Vitrival","129","","",
"2.159.831.890","BAET",,,"5030","Gembloux","Gembloux","Rue du Stordoir, Sauv.","Rue du Stordoir, Sauv.","-","","",
"2.159.832.088","BAET",,,"4218","Héron","Héron","Rue Chavée","Rue Chavée","-","","",
"2.159.832.385","BAET",,,"5190","Jemeppe-sur-Sambre","Jemeppe-sur-Sambre","Route d'Eghezée,Onoz","Route d'Eghezée,Onoz","309","","",
"2.159.832.682","BAET",,,"5080","La Bruyère","La Bruyère","Rue de Gembloux, Rhisnes","Rue de Gembloux, Rhisnes","-","","",
"2.159.832.781","BAET",,,"5020","Namur","Namur","Chemin de la Vieille Sambre(ML)","Chemin de la Vieille Sambre(ML)","87","","",
"2.159.832.979","BAET",,,"5100","Namur","Namur","Chemin de Malpaire(NN)","Chemin de Malpaire(NN)","-","","",
"2.159.833.276","BAET",,,"5060","Sambreville","Sambreville","Rue Surmont(AUV)","Rue Surmont(AUV)","7","","",
"2.159.833.375","BAET",,,"5140","Sombreffe","Sombreffe","Rue de la Spinette, Boig.","Rue de la Spinette, Boig.","-","","",
"2.159.833.573","BAET",,,"5537","Anhée","Anhée","Rue de la Molignée, Warnant","Rue de la Molignée, Warnant","-","","",
"2.159.834.167","BAET",,,"5590","Ciney","Ciney","Happe","Happe","2","","",
"2.159.834.365","BAET",,,"5500","Dinant","Dinant","Rue Saint-Jacques","Rue Saint-Jacques","-","","",
"2.159.834.761","BAET",,,"5364","Hamois","Hamois","Rue des Papillons, Schaltin","Rue des Papillons, Schaltin","-","","",
"2.159.835.553","BAET",,,"5374","Havelange","Havelange","Route de Durbuy(MA)","Route de Durbuy(MA)","-","","",
"2.159.836.048","BAET",,,"5540","Hastière","Hastière","Av. Guy-Stinglhamber, H.-Lav.","Av. Guy-Stinglhamber, H.-Lav.","-","","",
"2.159.837.830","BAET",,,"5580","Rochefort","Rochefort","Rue de Ciney","Rue de Ciney","-","","",
"2.159.844.065","BAET",,,"5630","Cerfontaine","Cerfontaine","Rue des Valizes(Cer)","Rue des Valizes(Cer)","41","","",
"2.159.844.164","BAET",,,"5660","Couvin","Couvin","Rue du Lion, Fra.","Rue du Lion, Fra.","-","","",
"2.159.844.263","BAET",,,"5680","Doische","Doische","Rue du Marais","Rue du Marais","-","","",
"2.159.844.362","BAET",,,"5620","Florennes","Florennes","Rue Fort-Jaco, Morialmé","Rue Fort-Jaco, Morialmé","-","","",
"2.159.844.461","BAET",,,"5640","Mettet","Mettet","Rue de Somtet","Rue de Somtet","-","","",
"2.159.844.560","BAET",,,"5600","Philippeville","Philippeville","Rue de Vodecée(VOD)","Rue de Vodecée(VOD)","-","","",
"2.159.844.758","BAET",,,"5670","Viroinval","Viroinval","Chemin du Paradis, Vierves","Chemin du Paradis, Vierves","-","","",
"2.159.844.857","BAET",,,"5650","Walcourt","Walcourt","Rue du Jardinet(Wal)","Rue du Jardinet(Wal)","-","","",
"2.159.845.055","BAET",,,"5570","Beauraing","Beauraing","rue de Rochefort","rue de Rochefort","223","","",
"2.159.845.748","BAET",,,"5575","Gedinne","Gedinne","Rue de Bouillon, Malv.","Rue de Bouillon, Malv.","-","","",
"2.159.847.134","BAET",,,"5100","Namur","Namur","Chemin de Malpaire(NN)","Chemin de Malpaire(NN)","*","","",
"2.159.847.332","BAET",,,"5590","Ciney","Ciney","Rue du Marché couvert","Rue du Marché couvert","-","","",
"2.159.848.916","BAET",,,"5575","Gedinne","Gedinne","Rue de Bouillon, Malv.","Rue de Bouillon, Malv.","*","","",
"2.159.850.795","BAET",,,"5575","Gedinne","Gedinne","Rue de Bouillon, Malv.","Rue de Bouillon, Malv.","/","","",
"2.159.851.884","BAET",,,"5060","Sambreville","Sambreville","Pré des Haz(TAM)","Pré des Haz(TAM)","-","","",
"2.159.859.408","BAET",,,"5333","Assesse","Assesse","Rue du Bouly","Rue du Bouly","-","","",
"2.159.859.903","BAET",,,"5600","Philippeville","Philippeville","Rue de Vodecée(VOD)","Rue de Vodecée(VOD)","*","","",
"2.164.983.877","BAET",,,"5555","Bièvre","Bièvre","Rue Grande, Oizy","Rue Grande, Oizy","-","","",
"2.176.963.278","BAET",,,"5350","Ohey","Ohey","Rue de Ciney","Rue de Ciney","*","","",
"2.189.517.355","BAET",,,"5150","Floreffe","Floreffe","Route de la Lache, Floriffoux","Route de la Lache, Floriffoux","4","","",
"2.160.466.548","BAET",,,"6001","Charleroi","Charleroi","Rue de la Vieille Place","Rue de la Vieille Place","51","","",
"2.160.466.746","BAET",,,"6010","Charleroi","Charleroi","Rue du Déversoir","Rue du Déversoir","1","","",
"2.160.467.043","BAET",,,"6250","Aiseau-Presles","Aiseau-Presles","Lieu dit Port de la Praye(PL)","Lieu dit Port de la Praye(PL)","1","","",
"2.160.467.340","BAET",,,"6150","Anderlues","Anderlues","Rue du Terril","Rue du Terril","99","","",
"2.160.467.538","BAET",,,"7160","Chapelle-lez-Herlaimont","Chapelle-lez-Herlaimont","Allée de la Valériane","Allée de la Valériane","26","","",
"2.160.467.835","BAET",,,"6010","Charleroi","Charleroi","Rue de Marcinelle","Rue de Marcinelle","26","","",
"2.160.468.033","BAET",,,"6043","Charleroi","Charleroi","Rue Jules Destrée","Rue Jules Destrée","-","","",
"2.160.468.231","BAET",,,"6200","Châtelet","Châtelet","Coron du Gouffre","Coron du Gouffre","67","","",
"2.160.468.627","BAET",,,"6180","Courcelles","Courcelles","Rue de Binche(CO)","Rue de Binche(CO)","152","","",
"2.160.469.023","BAET",,,"6240","Farciennes","Farciennes","Rue Sifride Demoulin(FAR)","Rue Sifride Demoulin(FAR)","65","","",
"2.160.469.320","BAET",,,"6220","Fleurus","Fleurus","Route de Mellet(FL)","Route de Mellet(FL)","171","","",
"2.160.469.716","BAET",,,"6140","Fontaine-l'Evêque","Fontaine-l'Evêque","Rue du Pétria(F-E)","Rue du Pétria(F-E)","93","","",
"2.160.470.013","BAET",,,"6280","Gerpinnes","Gerpinnes","Rue Jean Joseph Piret(JON)","Rue Jean Joseph Piret(JON)","100","","",
"2.160.470.211","BAET",,,"6120","Ham-sur-Heure-Nalinnes","Ham-sur-Heure-Nalinnes","Chemin de Hameau(HSH)","Chemin de Hameau(HSH)","-","","",
"2.160.470.508","BAET",,,"6111","Montigny-le-Tilleul","Montigny-le-Tilleul","Rue du Cerisier","Rue du Cerisier","-","","",
"2.160.470.607","BAET",,,"6210","Les Bons Villers","Les Bons Villers","Rue Cadeau(FLG)","Rue Cadeau(FLG)","3","","",
"2.160.470.805","BAET",,,"6230","Pont-à-Celles","Pont-à-Celles","Rue de Luttre(VIE)","Rue de Luttre(VIE)","10","","",
"2.160.507.625","BAET",,,"6000","Charleroi","Charleroi","Boulevard Pierre Mayence","Boulevard Pierre Mayence","1","","",
"2.160.508.120","BAET",,,"6060","Charleroi","Charleroi","Place Jules Destrée","Place Jules Destrée","-","","",
"2.160.521.481","BAET",,,"6460","Chimay","Chimay","Boulevard Louise(CH)","Boulevard Louise(CH)","18","","",
"2.160.521.778","BAET",,,"6460","Chimay","Chimay","Avenue du Châlon(CH)","Avenue du Châlon(CH)","-","","",
"2.160.520.590","BAET",,,"6470","Sivry-Rance","Sivry-Rance","Rue du Commerce","Rue du Commerce","4","","",
"2.160.609.969","BAET",,,"6460","Chimay","Chimay","Grand'Place(CH)","Grand'Place(CH)","-","","",
"2.159.184.564","BAET",,,"6000","Charleroi","Charleroi","Boulevard Pierre Mayence","Boulevard Pierre Mayence","1","","",
"2.159.186.643","BAET",,,"6041","Charleroi","Charleroi","Avenue Georges Lemaitre","Avenue Georges Lemaitre","21","","",
"2.159.187.237","BAET",,,"6000","Charleroi","Charleroi","Avenue Général Michel","Avenue Général Michel","1","E","",
"2.159.187.435","BAET",,,"6061","Charleroi","Charleroi","Chaussée de Charleroi","Chaussée de Charleroi","401","","",
"2.159.187.732","BAET",,,"6250","Aiseau-Presles","Aiseau-Presles","Rue de Farciennes(RO)","Rue de Farciennes(RO)","35","","",
"2.165.538.262","BAET",,,"6041","Charleroi","Charleroi","Rue des Frères Wright","Rue des Frères Wright","29","","",
"2.186.298.539","BAET",,,"6220","Fleurus","Fleurus","Avenue de l'Espérance(F)","Avenue de l'Espérance(F)","41/4","","",
"2.186.298.638","BAET",,,"6030","Charleroi","Charleroi","Rue Georges Tourneur","Rue Georges Tourneur","SN","","",
"2.216.804.346","BAET",,,"6230","Pont-à-Celles","Pont-à-Celles","Rue Ecluse(PAC)","Rue Ecluse(PAC)","-","","",
"2.161.391.513","BAET",,,"7330","Saint-Ghislain","Saint-Ghislain","11e Rue(SG)","11e Rue(SG)","3 +","","",
"2.159.522.678","BAET",,,"7340","Colfontaine","Colfontaine","Rue Grande","Rue Grande","17","","",
"2.161.392.206","BAET",,,"1210","Sint-Joost-ten-Node","Saint-Josse-ten-Noode","Queteletplein","Place Quetelet","3","","",
"2.003.444.334","BAET",,,"1210","Sint-Joost-ten-Node","Saint-Josse-ten-Noode","1 P.MADOU TOUR MADOU","1 P.MADOU TOUR MADOU","","","",
"2.102.964.255","BAET",,,"1030","Schaarbeek","Schaerbeek","Koning AlbertII laan","Boulevard du Roi Albert II","27","","",
"2.102.964.354","BAET","Onbepaald","Indéterminé","****","Commerce ambulant","Commerce ambulant","Marches publics","Marches publics","","","",
"2.102.964.651","BAET",,,"1070","Anderlecht","Anderlecht","Sylvain Dupuislaan","Boulevard Sylvain Dupuis","433","","",
"2.102.964.750","BAET",,,"1160","Oudergem","Auderghem","Vorstlaan","Boulevard du Souverain","240","","",
"2.102.965.047","BAET",,,"1500","Halle","Halle","Basiliekstraat","Basiliekstraat","120","","",
"2.102.965.146","BAET",,,"1050","Elsene","Ixelles","Boondaalse Steenweg","Chaussée de Boondael","423","","",
"2.102.965.245","BAET",,,"1090","Jette","Jette","Jetse Laan","Avenue de Jette","214","","",
"2.102.965.344","BAET",,,"1030","Schaarbeek","Schaerbeek","Olmstraat","Rue de l'Orme","14","","",
"2.102.965.443","BAET",,,"1060","Sint-Gillis (bij-Brussel)","Saint-Gilles","Gulden-Vlieslaan","Avenue de la Toison d'Or","40","","",
"2.102.965.542","BAET",,,"1190","Vorst","Forest","Rodenbachstraat","Rue Rodenbach","133","","",
"2.102.965.641","BAET",,,"1800","Vilvoorde","Vilvoorde","Portaelsplein","Portaelsplein","68","","",
"2.102.965.740","BAET",,,"1200","Sint-Lambrechts-Woluwe","Woluwe-Saint-Lambert","Sint-Lambertusstraat","Rue Saint-Lambert","202","","",
"2.102.965.839","BAET",,,"9300","Aalst","Aalst","Grote Markt","Grote Markt","25","","AALST BIZZ CORNER",
"2.102.965.938","BAET",,,"9400","Ninove","Ninove","Graanmarkt","Graanmarkt","38","","",
"2.102.966.037","BAET",,,"2600","Antwerpen","Antwerpen","Roderveldlaan","Roderveldlaan","2","","",
"2.102.966.235","BAET",,,"2000","Antwerpen","Antwerpen","Lange Nieuwstraat","Lange Nieuwstraat","106","","",
"2.102.966.532","BAET",,,"2100","Antwerpen","Antwerpen","Van den Hautelei","Van den Hautelei","171","","",
"2.102.966.631","BAET",,,"2950","Kapellen","Kapellen","Antwerpsesteenweg","Antwerpsesteenweg","19","","",
"2.102.966.928","BAET",,,"2610","Antwerpen","Antwerpen","Bist","Bist","36","","",
"2.102.967.027","BAET",,,"2110","Wijnegem","Wijnegem","Turnhoutsebaan","Turnhoutsebaan","5","","",
"2.102.967.225","BAET",,,"2640","Mortsel","Mortsel","Statielei","Statielei","70","","",
"2.102.967.423","BAET",,,"2850","Boom","Boom","Antwerpsestraat","Antwerpsestraat","11","","",
"2.102.967.522","BAET",,,"6700","Arlon","Arlon","Avenue Jean-Baptiste-Nothomb","Avenue Jean-Baptiste-Nothomb","40","","",
"2.102.967.621","BAET",,,"6700","Arlon","Arlon","Rue Pietro-Ferrero","Rue Pietro-Ferrero","1","","",
"2.102.968.017","BAET",,,"8200","Brugge","Brugge","Rijselstraat","Rijselstraat","1","","",
"2.102.968.215","BAET",,,"8300","Knokke-Heist","Knokke-Heist","Lippenslaan","Lippenslaan","176","","",
"2.102.968.314","BAET",,,"8700","Tielt","Tielt","Kortrijkstraat","Kortrijkstraat","29","","",
"2.102.968.413","BAET",,,"6000","Charleroi","Charleroi","Rue de la Montagne","Rue de la Montagne","56","","",
"2.102.968.710","BAET",,,"6001","Charleroi","Charleroi","Avenue Eugène Mascaux","Avenue Eugène Mascaux","223","","",
"2.102.969.007","BAET",,,"6200","Châtelet","Châtelet","Rue du Trieu-Kaisin","Rue du Trieu-Kaisin","11","","",
"2.102.969.205","BAET",,,"9200","Dendermonde","Dendermonde","Oude Vest (DEN)","Oude Vest (DEN)","5/7","","",
"2.102.969.403","BAET",,,"5500","Dinant","Dinant","Rue Saint-Jacques","Rue Saint-Jacques","337","","",
"2.102.969.502","BAET",,,"9000","Gent","Gent","Keizer Karelstraat","Keizer Karelstraat","1","","",
"2.102.969.601","BAET",,,"9800","Deinze","Deinze","Tolpoortstraat","Tolpoortstraat","73","","91DTOA",
"2.102.969.797","BAET",,,"9900","Eeklo","Eeklo","Stationsstraat","Stationsstraat","36","","",
"2.102.969.896","BAET",,,"9000","Gent","Gent","Kortrijksesteenweg","Kortrijksesteenweg","543","","",
"2.102.969.995","BAET",,,"9000","Gent","Gent","Kouter","Kouter","1","","",
"2.102.970.094","BAET",,,"3500","Hasselt","Hasselt","Demerstraat","Demerstraat","65","","",
"2.102.970.193","BAET",,,"3910","Neerpelt","Neerpelt","Kerkstraat","Kerkstraat","22","","",
"2.102.970.292","BAET",,,"3800","Sint-Truiden","Sint-Truiden","Luikerstraat","Luikerstraat","23","","11STLA",
"2.102.970.490","BAET",,,"4500","Huy","Huy","Grand'Place","Grand'Place","26","","",
"2.102.970.589","BAET",,,"8900","Ieper","Ieper","Menenstraat","Menenstraat","14","","",
"2.102.970.688","BAET",,,"8500","Kortrijk","Kortrijk","Steenpoort(Kor)","Steenpoort(Kor)","2","","",
"2.102.970.787","BAET",,,"8800","Roeselare","Roeselare","Ooststraat","Ooststraat","23","","",
"2.102.970.985","BAET",,,"8500","Kortrijk","Kortrijk","Ringlaan(Kor)","Ringlaan(Kor)","34","","",
"2.102.971.183","BAET",,,"8790","Waregem","Waregem","Markt","Markt","21","","",
"2.102.971.282","BAET",,,"3000","Leuven","Leuven","Vismarkt","Vismarkt","17","","",
"2.102.971.381","BAET",,,"3200","Aarschot","Aarschot","Grote Markt","Grote Markt","23","","",
"2.102.971.480","BAET",,,"3290","Diest","Diest","Sint-Jan Berchmansstraat","Sint-Jan Berchmansstraat","3","","",
"2.102.971.579","BAET",,,"3000","Leuven","Leuven","Bondgenotenlaan","Bondgenotenlaan","55","","",
"2.102.971.777","BAET",,,"4101","Seraing","Seraing","Rue des Rhieux","Rue des Rhieux","1","","",
"2.102.971.876","BAET",,,"4000","Liège","Liège","Rue de la Sirène","Rue de la Sirène","7","","",
"2.102.971.975","BAET",,,"4020","Liège","Liège","Rue du Nord-Belge","Rue du Nord-Belge","6","","",
"2.102.972.173","BAET",,,"4000","Liège","Liège","Chaussée de Tongres","Chaussée de Tongres","269","","",
"2.102.972.272","BAET",,,"4020","Liège","Liège","Quai des Vennes","Quai des Vennes","1","","",
"2.102.972.470","BAET",,,"4300","Waremme","Waremme","Avenue Reine Astrid","Avenue Reine Astrid","10","","",
"2.102.972.668","BAET",,,"6900","Marche-en-Famenne","Marche-en-Famenne","Marche, Rue de la Pirire","Marche, Rue de la Pirire","3","","",
"2.102.972.866","BAET",,,"2500","Lier","Lier","Grote Markt","Grote Markt","9","","",
"2.102.972.965","BAET",,,"2800","Mechelen","Mechelen","Stationsstraat","Stationsstraat","58","","",
"2.102.973.064","BAET",,,"2800","Mechelen","Mechelen","Bruul","Bruul","13","","",
"2.102.973.262","BAET",,,"7100","La Louvière","La Louvière","Rue de la Franco-Belge(L.L)","Rue de la Franco-Belge(L.L)","28","","",
"2.102.973.361","BAET",,,"7000","Mons","Mons","Avenue des Bassins","Avenue des Bassins","64","","",
"2.102.973.460","BAET",,,"7000","Mons","Mons","Rue des Fossés","Rue des Fossés","7","","",
"2.102.973.559","BAET",,,"5000","Namur","Namur","Rue Marie Henriette","Rue Marie Henriette","60","","",
"2.102.973.658","BAET",,,"5060","Sambreville","Sambreville","Rue Saint Jean-Baptiste(TAM)","Rue Saint Jean-Baptiste(TAM)","1","","",
"2.102.973.757","BAET",,,"5030","Gembloux","Gembloux","Grand'Rue","Grand'Rue","18","","",
"2.102.973.856","BAET",,,"5100","Namur","Namur","Rue du Pont des Ardennes(JB)","Rue du Pont des Ardennes(JB)","6","14","",
"2.102.973.955","BAET",,,"5000","Namur","Namur","Rue de l'Ange","Rue de l'Ange","74","","",
"2.102.974.252","BAET",,,"6800","Libramont-Chevigny","Libramont-Chevigny","Libramont,Rue des Alliés","Libramont,Rue des Alliés","1","","",
"2.102.974.351","BAET",,,"1400","Nivelles","Nivelles","Rue de Namur","Rue de Namur","55/A","","67NNAA",
"2.102.974.549","BAET",,,"1300","Wavre","Wavre","Rue de la Limite","Rue de la Limite","2","","",
"2.102.974.648","BAET",,,"1420","Braine-l'Alleud","Braine-l'Alleud","Avenue Albert 1er","Avenue Albert 1er","117","","",
"2.102.974.846","BAET",,,"1400","Nivelles","Nivelles","Rue de la Technique","Rue de la Technique","11","","",
"2.102.974.945","BAET",,,"1410","La Hulpe","La Hulpe","Chaussée de Bruxelles","Chaussée de Bruxelles","219A","","",
"2.102.975.143","BAET",,,"9700","Oudenaarde","Oudenaarde","Markt","Markt","13","","",
"2.102.975.242","BAET",,,"9100","Sint-Niklaas","Sint-Niklaas","Passtraat","Passtraat","1C","","",
"2.102.975.341","BAET",,,"9160","Lokeren","Lokeren","Markt","Markt","56","","",
"2.102.975.440","BAET",,,"9100","Sint-Niklaas","Sint-Niklaas","Stationsstraat","Stationsstraat","36","","",
"2.102.975.539","BAET",,,"3600","Genk","Genk","Europalaan","Europalaan","27","","",
"2.102.975.737","BAET",,,"3600","Genk","Genk","Sint-Martinusplein","Sint-Martinusplein","25","","",
"2.102.975.836","BAET",,,"3700","Tongeren","Tongeren","Maastrichterstraat","Maastrichterstraat","94","","",
"2.102.975.935","BAET",,,"7500","Tournai","Tournai","Boulevard des Nerviens(TOU)","Boulevard des Nerviens(TOU)","1","","",
"2.102.976.034","BAET",,,"7800","Ath","Ath","Rue aux Gâdes","Rue aux Gâdes","10","","",
"2.102.976.133","BAET",,,"7700","Mouscron","Mouscron","Pater Damiaanstraat","Rue Père Damien","8","03","",
"2.102.976.232","BAET",,,"7500","Tournai","Tournai","Boulevard Walter de Marvis(TOU)","Boulevard Walter de Marvis(TOU)","22","","",
"2.102.976.430","BAET",,,"2300","Turnhout","Turnhout","Parklaan","Parklaan","34","","",
"2.102.976.529","BAET",,,"2200","Herentals","Herentals","Zandstraat(HRT)","Zandstraat(HRT)","27","","",
"2.102.976.628","BAET",,,"2400","Mol","Mol","Statiestraat","Statiestraat","38 A","","",
"2.102.976.727","BAET",,,"2300","Turnhout","Turnhout","Victoriestraat","Victoriestraat","14","","",
"2.102.976.925","BAET",,,"4800","Verviers","Verviers","Crapaurue","Crapaurue","126","","",
"2.102.977.024","BAET",,,"4960","Malmedy","Malmedy","Place du Châtelet","Place du Châtelet","1","","",
"2.102.977.123","BAET",,,"8630","Veurne","Veurne","Pannestraat","Pannestraat","1","","",
"2.102.977.222","BAET",,,"4700","Eupen","Eupen","Rue de la Montagne","Rue de la Montagne","14","","",
"2.133.609.525","BAET",,,"1300","Wavre","Wavre","Place Cardinal Mercier","Place Cardinal Mercier","1","","",
"2.133.610.020","BAET",,,"7000","Mons","Mons","Rue de la Chaussée","Rue de la Chaussée","42","","",
"2.133.610.812","BAET",,,"8000","Brugge","Brugge","Noordzandstraat","Noordzandstraat","60","","",
"2.133.611.208","BAET",,,"9000","Gent","Gent","Veldstraat","Veldstraat","9-11","","",
"2.133.611.703","BAET",,,"9400","Ninove","Ninove","Vuurkruisersstraat","Vuurkruisersstraat","10","5","",
"2.133.612.196","BAET",,,"1040","Etterbeek","Etterbeek","Tongerenstraat","Rue des Tongres","63","65","",
"2.133.612.394","BAET",,,"1000","Brussel","Bruxelles","Munt","Place de la Monnaie","9","","",
"2.133.612.790","BAET",,,"1082","Sint-Agatha-Berchem","Berchem-Sainte-Agathe","Keizer Karellaan","Avenue Charles-Quint","420","","",
"2.133.613.087","BAET",,,"1180","Ukkel","Uccle","Xavier De Buestraat","Rue Xavier De Bue","52","","",
"2.134.034.246","BAET",,,"8400","Oostende","Oostende","Marie-Joséplein","Marie-Joséplein","12","","Res. Bouchery",
"2.153.240.048","BAET",,,"1070","Anderlecht","Anderlecht","Tweestationsstraat","Rue des Deux Gares","84","","",
"2.153.240.147","BAET",,,"1080","Sint-Jans-Molenbeek","Molenbeek-Saint-Jean","Birminghamstraat","Rue de Birmingham","66","","",
"2.153.240.642","BAET",,,"1140","Evere","Evere","Carlistraat","Rue Carli","4","","",
"2.153.240.741","BAET",,,"1500","Halle","Halle","Jacminstraat (Jean)","Jacminstraat (Jean)","14","","",
"2.153.240.840","BAET",,,"1050","Brussel","Bruxelles","Borrensstraat","Rue Borrens","16","","",
"2.153.240.939","BAET",,,"1800","Vilvoorde","Vilvoorde","Leuvensestraat","Leuvensestraat","7-9","","",
"2.153.241.137","BAET",,,"1000","Brussel","Bruxelles","Lebeaustraat","Rue Lebeau","2","","",
"2.153.241.434","BAET",,,"2600","Antwerpen","Antwerpen","Uitbreidingstraat","Uitbreidingstraat","325","","",
"2.153.241.533","BAET",,,"2500","Lier","Lier","Bollaarstraat","Bollaarstraat","8A+B","","",
"2.153.241.632","BAET",,,"2930","Brasschaat","Brasschaat","Leopoldslei","Leopoldslei","13","","",
"2.153.241.731","BAET",,,"2040","Antwerpen","Antwerpen","Antwerpsebaan","Antwerpsebaan","105","","",
"2.153.241.830","BAET",,,"2640","Mortsel","Mortsel","Hendrik Consciencelaan","Hendrik Consciencelaan","62","","",
"2.153.241.929","BAET",,,"3500","Hasselt","Hasselt","Paardsdemerstraat","Paardsdemerstraat","8-10","","",
"2.153.242.127","BAET",,,"3500","Hasselt","Hasselt","Hendrik van Veldekesingel","Hendrik van Veldekesingel","39","","",
"2.153.242.226","BAET",,,"3900","Overpelt","Overpelt","Koning Albertlaan","Koning Albertlaan","1","","",
"2.153.242.325","BAET",,,"3800","Sint-Truiden","Sint-Truiden","Rijschoolstraat","Rijschoolstraat","49","","",
"2.153.242.424","BAET",,,"3290","Diest","Diest","Ferdinand Allenstraat","Ferdinand Allenstraat","38","","",
"2.153.242.523","BAET",,,"2800","Mechelen","Mechelen","Dellingstraat","Dellingstraat","52","","",
"2.153.242.622","BAET",,,"2800","Mechelen","Mechelen","Oscar Van Kesbeeckstraat","Oscar Van Kesbeeckstraat","2","","",
"2.153.242.721","BAET",,,"3200","Aarschot","Aarschot","Nieuwlandlaan","Nieuwlandlaan","31","","",
"2.153.242.820","BAET",,,"3010","Leuven","Leuven","Lolanden","Lolanden","1","","",
"2.153.242.919","BAET",,,"4000","Liège","Liège","Impasse Jonckeu","Impasse Jonckeu","12","","",
"2.153.243.018","BAET",,,"4040","Herstal","Herstal","Rue Pépin de Herstal","Rue Pépin de Herstal","16","","",
"2.153.243.117","BAET",,,"8310","Brugge","Brugge","Matmeers","Matmeers","2","","",
"2.153.243.315","BAET",,,"8800","Roeselare","Roeselare","Beversesteenweg","Beversesteenweg","189","","",
"2.153.243.612","BAET",,,"8800","Roeselare","Roeselare","Hendrik Consciencestraat","Hendrik Consciencestraat","3-5","","",
"2.153.243.810","BAET",,,"9200","Dendermonde","Dendermonde","Noordlaan (DEN)","Noordlaan (DEN)","25","","",
"2.153.243.909","BAET",,,"9300","Aalst","Aalst","De Ridderstraat","De Ridderstraat","41","","",
"2.153.244.107","BAET",,,"1770","Liedekerke","Liedekerke","Ed. Schelfhoutstraat","Ed. Schelfhoutstraat","232","","",
"2.153.244.206","BAET",,,"9600","Ronse","Ronse","Politiekegevangenenstraat","Rue des Prisonniers-Politiques","14","","",
"2.153.244.305","BAET",,,"8500","Kortrijk","Kortrijk","Tuinstraat(Kor)","Tuinstraat(Kor)","6","","",
"2.153.244.602","BAET",,,"7700","Mouscron","Mouscron","Keizer Karelstraat","Rue Charles-Quint","90","","",
"2.153.245.293","BAET",,,"8900","Ieper","Ieper","Vooruitgangstraat","Vooruitgangstraat","1","","",
"2.153.245.392","BAET",,,"8470","Gistel","Gistel","Nieuwpoortse Steenweg","Nieuwpoortse Steenweg","15","","",
"2.153.245.491","BAET",,,"8400","Oostende","Oostende","Wittenonnenstraat","Wittenonnenstraat","44","","",
"2.153.245.590","BAET",,,"6700","Arlon","Arlon","Place Didier","Place Didier","39","1","",
"2.153.245.689","BAET",,,"7100","La Louvière","La Louvière","Rue Anatole France(L.L)","Rue Anatole France(L.L)","16","","",
"2.153.245.986","BAET",,,"1400","Nivelles","Nivelles","Place Albert-Ier","Place Albert-Ier","3-5","","",
"2.153.246.085","BAET",,,"7800","Ath","Ath","Rue Jean Jaurès","Rue Jean Jaurès","11","","",
"2.153.246.283","BAET",,,"6000","Charleroi","Charleroi","Rue de la Science","Rue de la Science","2","","",
"2.153.246.580","BAET",,,"6041","Charleroi","Charleroi","Rue du Carrosse","Rue du Carrosse","2","","",
"2.153.246.778","BAET",,,"4970","Stavelot","Stavelot","Cour de l'Hôtel de ville","Cour de l'Hôtel de ville","3","","",
"2.153.246.877","BAET",,,"5020","Namur","Namur","Rue Tir de Ronet(FW)","Rue Tir de Ronet(FW)","5","","",
"2.153.247.174","BAET",,,"5580","Rochefort","Rochefort","Rue Joseph-Wauters,Jemelle","Rue Joseph-Wauters,Jemelle","S/N","","",
"2.153.247.273","BAET",,,"6900","Marche-en-Famenne","Marche-en-Famenne","On, Rue Delvigne","On, Rue Delvigne","102","","",
"2.153.247.570","BAET",,,"5580","Rochefort","Rochefort","Rue de l'Antenne,Lessive","Rue de l'Antenne,Lessive","63","","",
"2.153.247.768","BAET",,,"4500","Huy","Huy","Rue du Vieux-Pont","Rue du Vieux-Pont","16","","",
"2.153.248.164","BAET",,,"4800","Verviers","Verviers","Rue Thil Lorrain","Rue Thil Lorrain","6","","",
"2.153.248.263","BAET",,,"9800","Deinze","Deinze","Ommegangstraat","Ommegangstraat","24","","",
"2.153.248.659","BAET",,,"9900","Eeklo","Eeklo","Euerardstraat","Euerardstraat","39","","",
"2.153.248.758","BAET",,,"9080","Lochristi","Lochristi","Dekenijstraat","Dekenijstraat","11","","",
"2.153.249.055","BAET",,,"9230","Wetteren","Wetteren","Stationsplein","Stationsplein","10","","",
"2.153.249.352","BAET",,,"4780","Sankt Vith","Sankt Vith","Malmedyer Strasse","Malmedyer Strasse","22","","",
"2.153.258.458","BAET",,,"2200","Herentals","Herentals","Molenvest(HRT)","Molenvest(HRT)","13","","",
"2.160.609.474","BAET",,,"4700","Eupen","Eupen","Klötzerbahn","Klötzerbahn","24","","",
"2.174.815.917","BAET",,,"3001","Leuven","Leuven","Geldenaaksebaan","Geldenaaksebaan","335","","",
"2.174.823.142","BAET",,,"7000","Mons","Mons","Place des Grands Prés","Place des Grands Prés","1","30","",
"2.174.824.528","BAET",,,"9000","Gent","Gent","Zwijnaardsesteenweg","Zwijnaardsesteenweg","314","","",
"2.177.924.667","BAET",,,"1070","Anderlecht","Anderlecht","Researchdreef","Allée de la Recherche","20","","",
"2.181.462.494","BAET",,,"8750","Wingene","Wingene","Rakestraat","Rakestraat","27A","","",
"2.186.642.096","BAET",,,"6600","Bastogne","Bastogne","Rue du Sablon","Rue du Sablon","125-127","","62GS1A",
"2.186.643.779","BAET",,,"6800","Libramont-Chevigny","Libramont-Chevigny","Libramont,Avenue de Bouillon","Libramont,Avenue de Bouillon","5","","61GS1A",
"2.187.794.913","BAET",,,"8800","Roeselare","Roeselare","Wijnendalestraat","Wijnendalestraat","160","","51ROWA",
"2.209.570.522","BAET",,,"8200","Brugge","Brugge","Koningin Astridlaan","Koningin Astridlaan","97","6","50BKOA",
"2.210.681.072","BAET",,,"6180","Courcelles","Courcelles","Rue de Liège(CO)","Rue de Liège(CO)","70","","71LOGA",
"2.210.681.864","BAET",,,"8630","Veurne","Veurne","Ooststraat","Ooststraat","19","","",
"2.210.722.050","BAET",,,"1030","Brussel","Bruxelles","Koning AlbertII laan","Boulevard du Roi Albert II","27 GLV","","",
"2.210.722.149","BAET",,,"1030","Brussel","Bruxelles","Koning AlbertII laan","Boulevard du Roi Albert II","27",".","Verdieping 28U",
"2.211.072.339","BAET",,,"8560","Wevelgem","Wevelgem","Oostlaan","Oostlaan","6","","56GOOA",
"2.039.108.957","BAET",,,"4800","Verviers","Verviers","Rue Peltzer de Clermont","Rue Peltzer de Clermont","60","","",
"2.006.580.404","BAET",,,"4720","Kelmis","Kelmis","Rue de l'Eglise","Rue de l'Eglise","31","","",
"2.004.189.254","BAET",,,"4031","Liège","Liège","Rue Canal-de-l'Ourthe","Rue Canal-de-l'Ourthe","8","","",
"2.182.180.987","BAET",,,"4180","Hamoir","Hamoir","Hameau de Rennes","Hameau de Rennes","1","","",
"2.182.181.284","BAET",,,"4500","Huy","Huy","Quai de Compiègne","Quai de Compiègne","14-15","","",
"2.182.181.680","BAET",,,"4032","Liège","Liège","Quai des Ardennes","Quai des Ardennes","127","","",
"2.206.355.763","BAET",,,"4000","Liège","Liège","Quai de Maestricht","Quai de Maestricht","14","","",
"2.001.171.663","BAET",,,"4850","PLOMBIERES","PLOMBIERES","Rue de la Clinique","Rue de la Clinique","24","","",
"2.159.816.549","BAET",,,"4850","Plombières","Plombières","Rue de la Clinique","Rue de la Clinique","24","-","",
"2.159.816.945","BAET",,,"4850","Plombières","Plombières","Rue du Calvaire","Rue du Calvaire","1","","",
"2.159.817.242","BAET",,,"4880","Aubel","Aubel","Rue de la Kan","Rue de la Kan","79","","",
"2.158.812.204","BAET",,,"7500","Tournai","Tournai","Rue du Viaduc(TOU)","Rue du Viaduc(TOU)","52","","",
"2.158.813.687","BAET",,,"7600","Péruwelz","Péruwelz","Rue de la Verte Chasse(PER)","Rue de la Verte Chasse(PER)","7","","",
"2.160.263.343","BAET",,,"5640","Mettet","Mettet","Rue de la Marchauderie, Biesme","Rue de la Marchauderie, Biesme","7","A","",
"2.160.263.541","BAET",,,"5070","Fosses-la-Ville","Fosses-la-Ville","Rue Sainte-Brigide","Rue Sainte-Brigide","43","","",
"2.166.131.744","BAET",,,"5060","Sambreville","Sambreville","Rue de l'Abattoir(TAM)","Rue de l'Abattoir(TAM)","9","","",
"2.160.519.996","BAET",,,"5640","Mettet","Mettet","Rue Estroit","Rue Estroit","39","","",
"2.164.080.886","BAET",,,"5020","Namur","Namur","Rue Fernand Marchand(FW)","Rue Fernand Marchand(FW)","44","","",
"2.172.249.969","BAET",,,"1040","Etterbeek","Etterbeek","Trierstraat","Rue de Trèves","82","","",
"2.159.997.483","BAET",,,"1000","Brussel","Bruxelles","Keizerinlaan","Boulevard de l'Impératrice","17-19","","",
"2.159.997.582","BAET",,,"1040","Brussel","Bruxelles","Linthoutstraat","Rue de Linthout","41","","",
"2.159.997.780","BAET",,,"1070","Brussel","Bruxelles","Birminghamstraat","Rue de Birmingham","120","","",
"2.159.997.978","BAET",,,"1180","Ukkel","Uccle","Sint-Jobsesteenweg","Chaussée de Saint-Job","516","","",
"2.159.998.176","BAET",,,"1180","Ukkel","Uccle","Waterloosesteenweg","Chaussée de Waterloo","764","","",
"2.159.998.572","BAET",,,"1420","Braine-l'Alleud","Braine-l'Alleud","Chemin des Eglantiers","Chemin des Eglantiers","3","","",
"2.159.998.968","BAET",,,"5170","Profondeville","Profondeville","Rue Rochers de Frène(LU)","Rue Rochers de Frène(LU)","*","","",
"2.159.999.166","BAET",,,"5003","Namur","Namur","Al'Tchôde Ewe(SM)","Al'Tchôde Ewe(SM)","15","","",
"2.159.999.562","BAET",,,"5140","Sombreffe","Sombreffe","Rue Emile Vandervelde","Rue Emile Vandervelde","2","","",
"2.159.999.661","BAET",,,"5530","Yvoir","Yvoir","Rue des Carrières, Spontin","Rue des Carrières, Spontin","7","","",
"2.160.299.767","BAET",,,"4500","Huy","Huy","Avenue de Beaufort","Avenue de Beaufort","7","","",
"2.160.300.361","BAET",,,"7021","Mons","Mons","Rue des Cheminots","Rue des Cheminots","22","","",
"2.160.301.450","BAET",,,"7190","Ecaussinnes","Ecaussinnes","Rue de l'Avedelle","Rue de l'Avedelle","2","","",
"2.160.301.945","BAET",,,"7190","Ecaussinnes","Ecaussinnes","Chemin du Long Spinois","Chemin du Long Spinois","1","","",
"2.160.302.242","BAET",,,"1180","Ukkel","Uccle","Wilderoselaarslaan","Avenue des Eglantiers","43","","",
"2.160.302.836","BAET",,,"1180","Ukkel","Uccle","Vergaarbakweg","Chemin du Réservoir","1","","",
"2.160.315.011","BAET",,,"5530","Yvoir","Yvoir","Avenue de Champalle","Avenue de Champalle","/","","",
"2.160.315.803","BAET",,,"1472","Genappe","Genappe","Moulin Tas","Moulin Tas","22","","",
"2.160.316.494","BAET",,,"1428","Braine-l'Alleud","Braine-l'Alleud","Ch.Maison du Roi","Ch.Maison du Roi","184","","",
"2.160.316.692","BAET",,,"7070","Le Roeulx","Le Roeulx","Rue des Ecaussinnes(R)","Rue des Ecaussinnes(R)","12","","",
"2.160.317.484","BAET",,,"5170","Profondeville","Profondeville","Rue Georges Marchal(B.V.)","Rue Georges Marchal(B.V.)","10","","",
"2.160.317.979","BAET",,,"5032","Gembloux","Gembloux","Chaussée de Nivelles, Bothey","Chaussée de Nivelles, Bothey","69","","",
"2.160.318.177","BAET",,,"5300","Andenne","Andenne","Beau Boing","Beau Boing","547","B","",
"2.160.318.573","BAET",,,"5020","Namur","Namur","Rue du Bas-Daussoulx(DX)","Rue du Bas-Daussoulx(DX)","/","","",
"2.160.318.771","BAET",,,"1050","Elsene","Ixelles","Kloosterstraat","Rue du Couvent","2","","",
"2.160.319.860","BAET",,,"1040","Etterbeek","Etterbeek","Generaal Lemanstraat","Rue Général Leman","44","","",
"2.160.320.553","BAET",,,"1020","Brussel","Bruxelles","Rode Kruislaan","Avenue de la Croix-Rouge","81","","",
"2.160.321.048","BAET",,,"5170","Profondeville","Profondeville","Chemin des Mésanges","Chemin des Mésanges","/","","",
"2.160.321.147","BAET",,,"1640","Sint-Genesius-Rode","Sint-Genesius-Rode","Brassinelaan","Avenue Brassine","/","","",
"2.160.321.444","BAET",,,"1640","Sint-Genesius-Rode","Sint-Genesius-Rode","Grote Hutsesteenweg","Chaussée de la Grande Espinette","/","","",
"2.160.322.335","BAET",,,"1070","Anderlecht","Anderlecht","Bollinckxstraat","Rue Bollinckx","319-325","","",
"2.160.322.731","BAET",,,"1200","Sint-Lambrechts-Woluwe","Woluwe-Saint-Lambert","Driesstraat","Rue Dries","34","","",
"2.160.323.424","BAET",,,"1190","Vorst","Forest","Lusambostraat","Rue de Lusambo","21-23","","",
"2.160.323.721","BAET",,,"1600","Sint-Pieters-Leeuw","Sint-Pieters-Leeuw","Alsembergsesteenweg","Alsembergsesteenweg","5-7","","",
"2.160.323.820","BAET",,,"1930","Zaventem","Zaventem","J.B. Devlemincklaan","J.B. Devlemincklaan","59","","",
"2.160.323.919","BAET",,,"7011","Mons","Mons","Rue de l'Aulnoye (G.)","Rue de l'Aulnoye (G.)","24","","",
"2.160.324.018","BAET",,,"1420","Braine-l'Alleud","Braine-l'Alleud","Av Alph Allard","Av Alph Allard","288","","",
"2.161.098.434","BAET",,,"4577","Modave","Modave","Rouche aux Corbeaux","Rouche aux Corbeaux","-","","",
"2.161.100.414","BAET",,,"1472","Genappe","Genappe","Rue du Jeune Piou","Rue du Jeune Piou","-","","",
"2.161.439.419","BAET",,,"5380","Fernelmont","Fernelmont","Rue de Bierwart, Forv.","Rue de Bierwart, Forv.","-","","",
"2.160.284.129","BAET",,,"1000","Brussel","Bruxelles","Maalbeeklaan","Avenue du Maelbeek","3","","",
"2.104.471.814","BAET",,,"1000","Brussel","Bruxelles","de Berlaimontlaan","Boulevard de Berlaimont","14","","",
"2.104.472.903","BAET",,,"3500","Hasselt","Hasselt","Eurostraat","Eurostraat","4","","",
"2.104.473.002","BAET",,,"8500","Kortrijk","Kortrijk","President Kennedypark(Kor)","President Kennedypark(Kor)","43","","",
"2.104.473.495","BAET",,,"4000","Liège","Liège","Place Saint-Paul","Place Saint-Paul","14","","",
"2.104.473.792","BAET",,,"7000","Mons","Mons","Avenue Frère Orban","Avenue Frère Orban","26","","",
"2.128.041.626","BAET",,,"1000","Brussel","Bruxelles","Bankstraat","Rue de la Banque","7","","",
"2.072.525.457","BAET",,,"1040","Brussel","Bruxelles","Wetstraat","Rue de la Loi","42","","",
"2.151.301.533","BAET",,,"1000","Brussel","Bruxelles","Montoyerstraat","Rue Montoyer","3","","",
"2.009.956.596","BAET",,,"1180","Ukkel","Uccle","Stillelaan","Avenue du Silence","61","","",
"2.143.271.418","BAET",,,"1000","Brussel","Bruxelles","Kantersteen","Cantersteen","10","","",
"2.143.272.111","BAET",,,"1000","Brussel","Bruxelles","Keizerinlaan","Boulevard de l'Impératrice","5","","",
"2.143.272.408","BAET",,,"1000","Brussel","Bruxelles","Koloniënstraat","Rue des Colonies","2","","",
"2.143.273.594","BAET",,,"1030","Schaarbeek","Schaerbeek","Prinses Elisabethplein","Place Princesse Elisabeth","5","","",
"2.143.273.693","BAET",,,"1030","Schaarbeek","Schaerbeek","Prinses Elisabethplein","Place Princesse Elisabeth","6","","",
"2.143.273.792","BAET",,,"1030","Schaarbeek","Schaerbeek","Prinses Elisabethplein","Place Princesse Elisabeth","7","","",
"2.143.273.891","BAET",,,"1030","Schaarbeek","Schaerbeek","Vooruitgangstraat","Rue du Progrès","76","","",
"2.143.273.990","BAET",,,"1030","Schaarbeek","Schaerbeek","Vooruitgangstraat","Rue du Progrès","86","","",
"2.143.274.584","BAET",,,"1060","Sint-Gillis (bij-Brussel)","Saint-Gilles","Fonsnylaan","Avenue Fonsny","47B","","",
"2.143.274.683","BAET",,,"1060","Sint-Gillis (bij-Brussel)","Saint-Gilles","Frankrijkstraat","Rue de France","40","","",
"2.143.274.782","BAET",,,"1060","Sint-Gillis (bij-Brussel)","Saint-Gilles","Frankrijkstraat","Rue de France","52-5","5-6","",
"2.143.274.980","BAET",,,"1060","Sint-Gillis (bij-Brussel)","Saint-Gilles","Frankrijkstraat","Rue de France","56-5","","",
"2.143.275.079","BAET",,,"1060","Sint-Gillis (bij-Brussel)","Saint-Gilles","Frankrijkstraat","Rue de France","85","","",
"2.143.275.178","BAET",,,"1060","Sint-Gillis (bij-Brussel)","Saint-Gilles","Frankrijkstraat","Rue de France","89","","",
"2.143.275.475","BAET",,,"1060","Sint-Gillis (bij-Brussel)","Saint-Gilles","Onderwijsstraat","Rue de l'Instruction","157","","",
"2.143.275.574","BAET",,,"1070","Anderlecht","Anderlecht","Barastraat","Rue Bara","110","Et.5","",
"2.143.275.772","BAET",,,"1070","Anderlecht","Anderlecht","Barastraat","Rue Bara","114","","",
"2.143.275.871","BAET",,,"1070","Anderlecht","Anderlecht","Barastraat","Rue Bara","134","","",
"2.143.276.069","BAET",,,"1070","Anderlecht","Anderlecht","Charles Parentéstraat","Rue Charles Parenté","28","","",
"2.143.276.366","BAET",,,"1070","Anderlecht","Anderlecht","Frankrijkstraat","Rue de France","97","","",
"2.143.276.564","BAET",,,"1070","Anderlecht","Anderlecht","Tweestationsstraat","Rue des Deux Gares","128","","",
"2.143.277.356","BAET",,,"1190","Vorst","Forest","Gerijstraat","Rue du Charroi","20","","",
"2.143.277.653","BAET",,,"1000","Brussel","Bruxelles","Havenlaan","Avenue du Port","100","","",
"2.143.278.049","BAET",,,"1340","Ottignies-Louvain-la-Neuve","Ottignies-Louvain-la-Neuve","Avenue des Combattants","Avenue des Combattants","s/n","","",
"2.143.280.722","BAET",,,"2000","Antwerpen","Antwerpen","Noorderplaats","Noorderplaats","2","","",
"2.143.280.821","BAET",,,"2018","Antwerpen","Antwerpen","Anneessensstraat","Anneessensstraat","1-3","","",
"2.143.281.118","BAET",,,"2018","Antwerpen","Antwerpen","Koningin Astridplein","Koningin Astridplein","27","","",
"2.143.281.712","BAET",,,"2030","Antwerpen","Antwerpen","Noorderlaan","Noorderlaan","630","","",
"2.143.284.581","BAET",,,"2800","Mechelen","Mechelen","Koning Albertplein","Koning Albertplein","2","","",
"2.143.284.680","BAET",,,"2800","Mechelen","Mechelen","Leuvensesteenweg","Leuvensesteenweg","1","","",
"2.143.284.779","BAET",,,"2800","Mechelen","Mechelen","Leuvensesteenweg","Leuvensesteenweg","30","","",
"2.143.286.165","BAET",,,"3000","Leuven","Leuven","Martelarenplein","Martelarenplein","16","","",
"2.143.286.264","BAET",,,"3000","Leuven","Leuven","Martelarenplein","Martelarenplein","20","","",
"2.143.286.363","BAET",,,"3010","Leuven","Leuven","Diestsesteenweg","Diestsesteenweg","3","","",
"2.143.286.660","BAET",,,"3200","Aarschot","Aarschot","Statiestraat","Statiestraat","2","","",
"2.143.286.957","BAET",,,"3300","Tienen","Tienen","Vierde Lansierslaan","Vierde Lansierslaan","z/n","","",
"2.143.287.155","BAET",,,"3500","Hasselt","Hasselt","de Schiervellaan","de Schiervellaan","26","","",
"2.143.287.254","BAET",,,"3500","Hasselt","Hasselt","Koningin Astridlaan","Koningin Astridlaan","68","","",
"2.143.287.452","BAET",,,"3500","Hasselt","Hasselt","Stationsplein","Stationsplein","2-6","","",
"2.143.287.551","BAET",,,"3511","Hasselt","Hasselt","Kuringersteenweg","Kuringersteenweg","324","","",
"2.143.288.937","BAET",,,"4000","Liège","Liège","Place des Guillemins","Place des Guillemins","2","","",
"2.143.289.333","BAET",,,"4000","Liège","Liège","Rue du Plan-Incliné","Rue du Plan-Incliné","145","","",
"2.143.289.432","BAET",,,"4000","Liège","Liège","Rue Varin","Rue Varin","2","","",
"2.143.289.531","BAET",,,"4020","Liège","Liège","Rue de la Lèche","Rue de la Lèche","33","","",
"2.143.290.026","BAET",,,"4031","Liège","Liège","Rue de Chênée","Rue de Chênée","3","","",
"2.143.291.907","BAET",,,"4800","Verviers","Verviers","Place de la Victoire","Place de la Victoire","1","","",
"2.143.292.204","BAET",,,"4800","Verviers","Verviers","Rue d' Ensival","Rue d' Ensival","1","","",
"2.143.293.390","BAET",,,"5000","Namur","Namur","Boulevard du Nord","Boulevard du Nord","60","","",
"2.143.293.489","BAET",,,"5000","Namur","Namur","Boulevard du Nord","Boulevard du Nord","62","","",
"2.143.293.588","BAET",,,"5000","Namur","Namur","Boulevard Ernest Mélot","Boulevard Ernest Mélot","23","","",
"2.143.293.687","BAET",,,"5000","Namur","Namur","Place de la Station","Place de la Station","s/n","","",
"2.143.293.984","BAET",,,"5000","Namur","Namur","Rue des Bas Prés","Rue des Bas Prés","s/n","","",
"2.143.294.083","BAET",,,"5020","Namur","Namur","Rue Jean-Joseph Gaillard(FW)","Rue Jean-Joseph Gaillard(FW)","2","","",
"2.143.296.558","BAET",,,"5580","Rochefort","Rochefort","Rue Joseph-Wauters,Jemelle","Rue Joseph-Wauters,Jemelle","s/n","","",
"2.143.297.251","BAET",,,"6000","Charleroi","Charleroi","Quai de la Gare du Sud","Quai de la Gare du Sud","s/n","","",
"2.143.297.548","BAET",,,"6000","Charleroi","Charleroi","Square des Martyrs","Square des Martyrs","s/n","","",
"2.143.297.647","BAET",,,"6001","Charleroi","Charleroi","Rue Cambier Dupret","Rue Cambier Dupret","61","","",
"2.143.298.340","BAET",,,"6200","Châtelet","Châtelet","Place de la Station","Place de la Station","1","","",
"2.143.299.528","BAET",,,"6700","Arlon","Arlon","Avenue de la Gare","Avenue de la Gare","32","","",
"2.143.299.627","BAET",,,"6700","Arlon","Arlon","Avenue de la Gare","Avenue de la Gare","61","","",
"2.143.299.825","BAET",,,"6700","Arlon","Arlon","Heinsch, route de Neufchâteau","Heinsch, route de Neufchâteau","s/n","","",
"2.143.300.617","BAET",,,"6800","Libramont-Chevigny","Libramont-Chevigny","Li.,Rue de la Gare(R. Chanteroy)","Li.,Rue de la Gare(R. Chanteroy)","s/n","","",
"2.143.301.508","BAET",,,"7000","Mons","Mons","Avenue Joseph Wauters (C.)","Avenue Joseph Wauters (C.)","124","","",
"2.143.301.607","BAET",,,"7000","Mons","Mons","Chemin de l'Inquiétude","Chemin de l'Inquiétude","1","1","",
"2.143.301.805","BAET",,,"7000","Mons","Mons","Place Léopold","Place Léopold","2","","",
"2.143.301.904","BAET",,,"7000","Mons","Mons","Place Léopold","Place Léopold","s/n","","",
"2.143.302.102","BAET",,,"7000","Mons","Mons","Square Franklin Delano Roosevelt","Square Franklin Delano Roosevelt","14","","",
"2.143.302.991","BAET",,,"7100","La Louvière","La Louvière","Boulevard du Roi Baudouin","Boulevard du Roi Baudouin","s/n","","",
"2.143.303.486","BAET",,,"7160","Chapelle-lez-Herlaimont","Chapelle-lez-Herlaimont","Rue d'Anderlues","Rue d'Anderlues","187","","",
"2.143.303.981","BAET",,,"7330","Saint-Ghislain","Saint-Ghislain","Place Albert-Elisabeth(SG)","Place Albert-Elisabeth(SG)","56","","",
"2.143.304.377","BAET",,,"7500","Tournai","Tournai","Place Crombez(TOU)","Place Crombez(TOU)","s/n","","",
"2.143.305.763","BAET",,,"8000","Brugge","Brugge","Stationsplein","Stationsplein","3","","",
"2.143.305.862","BAET",,,"8000","Brugge","Brugge","Stationsplein","Stationsplein","5","","",
"2.143.306.951","BAET",,,"8400","Oostende","Oostende","Mispelplein","Mispelplein","1","","",
"2.143.307.050","BAET",,,"8400","Oostende","Oostende","Sloepenstraat","Sloepenstraat","3","","",
"2.143.307.248","BAET",,,"8500","Kortrijk","Kortrijk","Marksesteenweg(Kor)","Marksesteenweg(Kor)","59A","","",
"2.143.307.446","BAET",,,"8500","Kortrijk","Kortrijk","Stationsplein(Kor)","Stationsplein(Kor)","8","","",
"2.143.308.337","BAET",,,"8730","Beernem","Beernem","Stationsplein","Stationsplein","3","","",
"2.143.309.822","BAET",,,"9000","Gent","Gent","Prinses Clementinalaan","Prinses Clementinalaan","31","","",
"2.143.310.020","BAET",,,"9000","Gent","Gent","Koningin Maria Hendrikaplein","Koningin Maria Hendrikaplein","2","","",
"2.143.310.119","BAET",,,"9000","Gent","Gent","Meersstraat","Meersstraat","138","C","",
"2.143.310.218","BAET",,,"9000","Gent","Gent","Meersstraat","Meersstraat","138","","",
"2.143.310.416","BAET",,,"9000","Gent","Gent","Noordveenakkerstraat","Noordveenakkerstraat","1","","",
"2.143.310.812","BAET",,,"9050","Gent","Gent","Brusselsesteenweg","Brusselsesteenweg","602","","",
"2.143.310.911","BAET",,,"9050","Gent","Gent","Gontrodestraat","Gontrodestraat","222","","",
"2.143.313.087","BAET",,,"9300","Aalst","Aalst","Statieplein","Statieplein","9","","",
"2.143.313.879","BAET",,,"9470","Denderleeuw","Denderleeuw","Stationsplein","Stationsplein","z/n","","",
"2.143.563.606","BAET",,,"7100","La Louvière","La Louvière","Rue de l'Esplanade","Rue de l'Esplanade","SN","","",
"2.143.609.136","BAET",,,"9200","Dendermonde","Dendermonde","Statieplein (DEN)","Statieplein (DEN)","ZN","","",
"2.182.832.669","BAET",,,"9620","Zottegem","Zottegem","Stationsplein","Stationsplein","12","","",
"2.182.832.768","BAET",,,"9100","Sint-Niklaas","Sint-Niklaas","Leopold II-laan","Leopold II-laan","2","","",
"2.182.832.966","BAET",,,"8400","Oostende","Oostende","Natiënkaai","Natiënkaai","1","","",
"2.182.833.164","BAET",,,"1400","Nivelles","Nivelles","Rue de Namur","Rue de Namur","185","","",
"2.182.833.461","BAET",,,"7800","Ath","Ath","Rue de la Station","Rue de la Station","1","","",
"2.182.833.956","BAET",,,"9000","Gent","Gent","Koningin Fabiolalaan","Koningin Fabiolalaan","S/N","","",
"2.182.834.550","BAET",,,"2018","Antwerpen","Antwerpen","De Keyserlei","De Keyserlei","56/60132","","",
"2.182.834.748","BAET",,,"1070","Anderlecht","Anderlecht","Tweestationsstraat","Rue des Deux Gares","82","","",
"2.182.834.847","BAET",,,"6001","Charleroi","Charleroi","Rue de la Villette","Rue de la Villette","51","","",
"2.182.835.045","BAET",,,"4000","Liège","Liège","Rue des Guillemins","Rue des Guillemins","26","","",
"2.182.835.243","BAET",,,"1070","Anderlecht","Anderlecht","Barastraat","Rue Bara","135","","",
"2.182.835.441","BAET",,,"1070","Anderlecht","Anderlecht","Tweestationsstraat","Rue des Deux Gares","80","","",
"2.183.961.136","BAET",,,"9000","Gent","Gent","Kortrijksesteenweg","Kortrijksesteenweg","398","","",
"2.183.961.235","BAET",,,"5030","Gembloux","Gembloux","Avenue de la Station","Avenue de la Station","1","","",
"2.183.961.334","BAET",,,"1800","Vilvoorde","Vilvoorde","Stationplein","Stationplein","9","","",
"2.184.437.822","BAET",,,"1060","Sint-Gillis (bij-Brussel)","Saint-Gilles","Hallepoortlaan","Avenue de la Porte de Hal","40","","",
"2.184.438.020","BAET",,,"8400","Oostende","Oostende","Konterdamkaai","Konterdamkaai","1","","",
"2.184.438.218","BAET",,,"9000","Gent","Gent","Kortrijksesteenweg","Kortrijksesteenweg","400","","",
"2.184.438.317","BAET",,,"2600","Antwerpen","Antwerpen","Burgemeester E. Ryckaertsplein","Burgemeester E. Ryckaertsplein","1","","",
"2.189.894.269","BAET",,,"4500","Huy","Huy","Place Zénobe Gramme","Place Zénobe Gramme","4","","",
"2.193.255.518","BAET",,,"1130","Brussel","Bruxelles","Ganzenweidestraat","Rue du Pré aux Oies","301","","",
"2.206.089.410","BAET",,,"5000","Namur","Namur","Rue Léanne","Rue Léanne","15","","",
"2.214.138.727","BAET",,,"4000","Liège","Liège","Rue Varin","Rue Varin","4","A","",
"2.214.208.112","BAET",,,"5000","Namur","Namur","Rue Léanne","Rue Léanne","1","","",
"2.158.896.831","BAET",,,"3210","Lubbeek","Lubbeek","Diestsesteenweg(LIN)","Diestsesteenweg(LIN)","126","","",
"2.117.423.787","BAET",,,"4020","Liège","Liège","MAIS.COM.A.BRESSOUX","MAIS.COM.A.BRESSOUX","","","",
"2.149.664.708","BAET",,,"4420","Saint-Nicolas","Saint-Nicolas","Rue de la Digue","Rue de la Digue","25","","",
"2.005.831.029","BAET",,,"4420","Saint-Nicolas","Saint-Nicolas","Rue Saint-Nicolas","Rue Saint-Nicolas","219","","",
"2.152.229.466","BAET",,,"4100","Seraing","Seraing","Rue Laplace","Rue Laplace","40","","",
"2.161.218.792","BAET",,,"4300","Waremme","Waremme","Avenue de la Résistance","Avenue de la Résistance","2","","",
"2.161.219.188","BAET",,,"4300","Waremme","Waremme","Avenue de la Résistance","Avenue de la Résistance","4","","",
"2.161.219.485","BAET",,,"4100","Seraing","Seraing","Rue Laplace","Rue Laplace","40.","","",
"2.161.219.881","BAET",,,"4100","Seraing","Seraing","Rue Laplace","Rue Laplace","40","*","",
"2.161.220.079","BAET",,,"4420","Saint-Nicolas","Saint-Nicolas","Rue Chantraine","Rue Chantraine","51","","",
"2.161.221.069","BAET",,,"4400","Flémalle","Flémalle","Grand'Route(FLG)","Grand'Route(FLG)","418","","",
"2.158.977.203","BAET",,,"4557","Tinlot","Tinlot","Rue de Dinant","Rue de Dinant","51","","",
"2.158.307.111","BAET",,,"2440","Geel","Geel","Antwerpseweg","Antwerpseweg","1","","",
"2.178.144.403","BAET",,,"2440","Geel","Geel","Lammerdries","Lammerdries","9A","","",
"2.194.140.097","BAET",,,"2440","Geel","Geel","Dr.-Van de Perrestraat","Dr.-Van de Perrestraat","218","A","",
"2.213.663.031","BAET",,,"2460","Kasterlee","Kasterlee","Ossengoor","Ossengoor","12","","",
"2.003.168.675","BAET",,,"4000","LIEGE","LIEGE","Rue Louvrex","Rue Louvrex","95","","",
"2.004.572.504","BAET",,,"4000","LIEGE","LIEGE","Rue Louvrex","Rue Louvrex","55","","",
"2.159.875.046","BAET",,,"4000","Liège","Liège","Rue Louvrex","Rue Louvrex","95","-","",
"2.159.875.244","BAET",,,"4040","Herstal","Herstal","Parc Ind. des Hauts Sarts, 2e av","Parc Ind. des Hauts Sarts, 2e av","30","","",
"2.159.875.343","BAET",,,"4100","Seraing","Seraing","Rue du Pont du Val","Rue du Pont du Val","2","","",
"2.159.875.739","BAET",,,"4400","Flémalle","Flémalle","Place de la Centrale(FLG)","Place de la Centrale(FLG)","11","","",
"2.159.876.036","BAET",,,"4430","Ans","Ans","Rue Jean Jaurès","Rue Jean Jaurès","46","","",
"2.160.459.422","BAET",,,"4000","Liège","Liège","Rue Sainte-Marie","Rue Sainte-Marie","11","","",
"2.160.459.818","BAET",,,"4020","Liège","Liège","Rue de Visé","Rue de Visé","23","","",
"2.160.460.016","BAET",,,"4100","Seraing","Seraing","Rue du Molinay","Rue du Molinay","60","","",
"2.160.460.412","BAET",,,"4040","Herstal","Herstal","Rue Ernest Solvay","Rue Ernest Solvay","31","","",
"2.160.460.610","BAET",,,"4700","Eupen","Eupen","Oestrasse","Oestrasse","3","","",
"2.160.460.907","BAET",,,"4820","Dison","Dison","Rue d'Andrimont","Rue d'Andrimont","52","","",
"2.186.085.337","BAET",,,"7110","La Louvière","La Louvière","Rue Grand Peuplier(H-A)","Rue Grand Peuplier(H-A)","20","","",
"2.186.087.119","BAET",,,"7000","Mons","Mons","Rue de Nimy","Rue de Nimy","53","","",
"2.186.087.713","BAET",,,"7100","La Louvière","La Louvière","Rue Hamoir(L.L)","Rue Hamoir(L.L)","30","","",
"2.186.088.208","BAET",,,"6041","Charleroi","Charleroi","Avenue Georges Lemaitre","Avenue Georges Lemaitre","21","","",
"2.186.088.901","BAET",,,"1348","Ottignies-Louvain-la-Neuve","Ottignies-Louvain-la-Neuve","Avenue Jean Monnet","Avenue Jean Monnet","2","","",
"2.186.089.196","BAET",,,"6900","Marche-en-Famenne","Marche-en-Famenne","Marche, Rue du Parc Industriel","Marche, Rue du Parc Industriel","6","","",
"2.186.089.988","BAET",,,"7500","Tournai","Tournai","Rue de la Lys(TOU)","Rue de la Lys(TOU)","10","","",
"2.186.090.285","BAET",,,"6700","Arlon","Arlon","Avenue du Général-Patton","Avenue du Général-Patton","237","","",
"2.186.090.582","BAET",,,"4800","Verviers","Verviers","Rue Jean Koch","Rue Jean Koch","12","","",
"2.186.090.681","BAET",,,"6041","Charleroi","Charleroi","Rue Clément Ader","Rue Clément Ader","12","","",
"2.186.090.978","BAET",,,"6240","Farciennes","Farciennes","Rue de Lambusart(FAR)","Rue de Lambusart(FAR)","56","","",
"2.186.091.077","BAET",,,"5060","Sambreville","Sambreville","Rue du Bosquet(AUV)","Rue du Bosquet(AUV)","16","","",
"2.197.070.685","BAET",,,"4041","Herstal","Herstal","Rue des Alouettes","Rue des Alouettes","96","","",
"2.158.810.719","BAET",,,"4000","Liège","Liège","Rue du Vertbois","Rue du Vertbois","11","","",
"2.161.386.365","BAET",,,"4020","Liège","Liège","Quai Godefroid-Kurth","Quai Godefroid-Kurth","100","","",
"2.182.384.984","BAET",,,"4800","Verviers","Verviers","Rue Jean Koch","Rue Jean Koch","6","","",
"2.004.188.660","BAET",,,"6700","Arlon","Arlon","Schoppach,drève de l'Arc-en-Ciel","Schoppach,drève de l'Arc-en-Ciel","98","","",
"2.160.541.970","BAET",,,"6600","Bastogne","Bastogne","Rue de Clervaux","Rue de Clervaux","100","","",
"2.160.542.861","BAET",,,"6700","Arlon","Arlon","Rue de Neufchâteau","Rue de Neufchâteau","324","","",
"2.160.543.158","BAET",,,"6800","Libramont-Chevigny","Libramont-Chevigny","Libramont,Rue du Serpont","Libramont,Rue du Serpont","-","","",
"2.160.543.257","BAET",,,"6840","Neufchâteau","Neufchâteau","La Plate des Prés,WARM","La Plate des Prés,WARM","18","","",
"2.160.544.148","BAET",,,"6880","Bertrix","Bertrix","Rue des Munos","Rue des Munos","-","","",
"2.160.544.445","BAET",,,"6900","Marche-en-Famenne","Marche-en-Famenne","Marche, Chaussée de Liège","Marche, Chaussée de Liège","100","","",
"2.160.544.742","BAET",,,"6920","Wellin","Wellin","Rue Fond-des-Vaulx","Rue Fond-des-Vaulx","-","","",
"2.182.299.070","BAET",,,"4780","Sankt Vith","Sankt Vith","John-Cockerill-Straße","John-Cockerill-Straße","5-7","","",
"2.182.300.951","BAET",,,"6720","Habay","Habay","Les Coeuvins","Les Coeuvins","C","","",
"2.182.301.149","BAET",,,"4760","Büllingen","Büllingen","Merlscheid","Merlscheid","17","b","",
"2.182.301.743","BAET",,,"4791","Burg-Reuland","Burg-Reuland","Oudler","Oudler","SN","","",
"2.182.302.337","BAET",,,"4950","Waimes","Waimes","Rue du Château","Rue du Château","12","","",
"2.182.302.733","BAET",,,"4950","Waimes","Waimes","Rue de Bosfagne,Sourbrodt","Rue de Bosfagne,Sourbrodt","SN","","",
"2.182.303.426","BAET",,,"4960","Malmedy","Malmedy","Avenue de Norvège","Avenue de Norvège","SN","","",
"2.182.303.723","BAET",,,"4970","Stavelot","Stavelot","Rue Saint Laurent","Rue Saint Laurent","SN","","",
"2.182.304.119","BAET",,,"4980","Trois-Ponts","Trois-Ponts","Place de la Gare","Place de la Gare","SN","","",
"2.182.304.614","BAET",,,"4987","Stoumont","Stoumont","Gare de la Gleize","Gare de la Gleize","SN","","",
"2.182.305.010","BAET",,,"6690","Vielsalm","Vielsalm","Ville-du-Bois","Ville-du-Bois","174","","",
"2.182.305.604","BAET",,,"6671","Gouvy","Gouvy","Courtil","Courtil","SN","","",
"2.182.306.097","BAET",,,"4750","Bütgenbach","Bütgenbach","Auf dem Mühlenberg","Auf dem Mühlenberg","SN","","",
"2.182.306.196","BAET",,,"4770","Amel","Amel","Medell,Auf der Leu","Medell,Auf der Leu","SN","","",
"2.182.306.592","BAET",,,"4780","Sankt Vith","Sankt Vith","Zoning Industriel","Zoning Industriel","2","","",
"2.182.306.889","BAET",,,"6660","Houffalize","Houffalize","Route de Liège","Route de Liège","6","c","",
"2.182.307.087","BAET",,,"6960","Manhay","Manhay","Route de Lierneux, Vx-Ch.","Route de Lierneux, Vx-Ch.","SN","","",
"2.182.307.285","BAET",,,"6600","Bastogne","Bastogne","Zoning Industriel","Zoning Industriel","SN","","",
"2.182.307.780","BAET",,,"6600","Bastogne","Bastogne","Cobru","Cobru","12","","",
"2.182.308.077","BAET",,,"6680","Sainte-Ode","Sainte-Ode","Barrière-Hinck","Barrière-Hinck","SN","","",
"2.182.308.572","BAET",,,"6941","Durbuy","Durbuy","Rue de Tohogne","Rue de Tohogne","SN","","",
"2.182.308.770","BAET",,,"6997","Erezée","Erezée","Rue du Pont-d'Erezée, Fisenne","Rue du Pont-d'Erezée, Fisenne","SN","","",
"2.182.318.371","BAET",,,"6990","Hotton","Hotton","Rue de Barvaux, Hotton","Rue de Barvaux, Hotton","SN","","",
"2.182.318.569","BAET",,,"6983","La Roche-en-Ardenne","La Roche-en-Ardenne","Roupage","Roupage","632","","",
"2.182.319.361","BAET",,,"6890","Libin","Libin","Rue de Villance","Rue de Villance","SN","","",
"2.182.319.757","BAET",,,"6800","Libramont-Chevigny","Libramont-Chevigny","Route de Libramont","Route de Libramont","SN","","",
"2.182.323.717","BAET",,,"6900","Marche-en-Famenne","Marche-en-Famenne","Waha, Rue Saint-Etienne","Waha, Rue Saint-Etienne","SN","","",
"2.183.209.286","BAET",,,"6900","Marche-en-Famenne","Marche-en-Famenne","Marloie, Rue du Carmel","Marloie, Rue du Carmel","SN","","",
"2.183.209.682","BAET",,,"6950","Nassogne","Nassogne","Rue de Lahaut","Rue de Lahaut","SN","","",
"2.183.210.177","BAET",,,"6870","Saint-Hubert","Saint-Hubert","Route de Grupont","Route de Grupont","SN","","",
"2.183.210.771","BAET",,,"6927","Tellin","Tellin","Rue de Tellin,Bure","Rue de Tellin,Bure","SN","","",
"2.183.210.870","BAET",,,"6970","Tenneville","Tenneville","Au-Gris-Han","Au-Gris-Han","13","","",
"2.183.211.068","BAET",,,"6640","Vaux-sur-Sûre","Vaux-sur-Sûre","Route de Vaux-sur-Sûre","Route de Vaux-sur-Sûre","SN","","",
"2.183.211.662","BAET",,,"6790","Aubange","Aubange","ZONING INDUSTRIEL AUBANGE","ZONING INDUSTRIEL AUBANGE","SN","","",
"2.183.211.860","BAET",,,"6810","Chiny","Chiny","Route de Bertrix,Moyen","Route de Bertrix,Moyen","SN","","",
"2.183.212.553","BAET",,,"6637","Fauvillers","Fauvillers","Warnach","Warnach","SN","","",
"2.183.217.404","BAET",,,"6720","Habay","Habay","Les Coeuvins","Les Coeuvins","SN","","",
"2.183.217.996","BAET",,,"6860","Léglise","Léglise","Rue du Léry,Wittimont","Rue du Léry,Wittimont","1","","",
"2.183.218.194","BAET",,,"6780","Messancy","Messancy","Rue de Krebling","Rue de Krebling","15","","",
"2.183.218.293","BAET",,,"6750","Musson","Musson","Rue Marcel-Niessen, Baranzy","Rue Marcel-Niessen, Baranzy","SN","","",
"2.183.218.392","BAET",,,"6767","Rouvroy","Rouvroy","Rue Sainte-Anne,Dampicourt","Rue Sainte-Anne,Dampicourt","SN","","",
"2.183.218.590","BAET",,,"6747","Saint-Léger (Lux.)","Saint-Léger (Lux.)","Voie des Mines","Voie des Mines","SN","","",
"2.183.218.788","BAET",,,"6730","Tintigny","Tintigny","Haut-des-Fagots,Breuvanne","Haut-des-Fagots,Breuvanne","SN","","",
"2.183.219.085","BAET",,,"6880","Bertrix","Bertrix","Route de Recogne","Route de Recogne","SN","","",
"2.183.219.481","BAET",,,"6830","Bouillon","Bouillon","Route de Bellevaux","Route de Bellevaux","SN","","",
"2.183.219.976","BAET",,,"6929","Daverdisse","Daverdisse","La Briqueterie","La Briqueterie","SN","","",
"2.183.220.372","BAET",,,"6887","Herbeumont","Herbeumont","Le Bois-Chaban, St-Médard","Le Bois-Chaban, St-Médard","1","","",
"2.183.220.570","BAET",,,"6840","Neufchâteau","Neufchâteau","Blanc Caillou,NEU","Blanc Caillou,NEU","SN","","",
"2.183.220.867","BAET",,,"6850","Paliseul","Paliseul","Rue d'Opont","Rue d'Opont","SN","","",
"2.183.221.164","BAET",,,"6920","Wellin","Wellin","Rue Paul-Dubois","Rue Paul-Dubois","SN","","",
"2.183.221.461","BAET",,,"6971","Tenneville","Tenneville","Route de Beausaint, Champlon","Route de Beausaint, Champlon","SN","","",
"2.183.222.451","BAET",,,"6960","Manhay","Manhay","Parc Industriel, Dochamps","Parc Industriel, Dochamps","SN","","",
"2.183.265.706","BAET",,,"6820","Florenville","Florenville","Chemin du Clument","Chemin du Clument","SN","","",
"2.183.265.805","BAET",,,"6987","Rendeux","Rendeux","Rue de La-Roche, Rendeux","Rue de La-Roche, Rendeux","16A","","",
"2.183.266.102","BAET",,,"6717","Attert","Attert","Schadeck","Schadeck","SN","","",
"2.183.295.103","BAET",,,"6767","Rouvroy","Rouvroy","Rue de l'Usine,Dampicourt","Rue de l'Usine,Dampicourt","SN","","",
"2.183.435.059","BAET",,,"6720","Habay","Habay","Les Coeuvins","Les Coeuvins","A","","",
"2.183.435.257","BAET",,,"6720","Habay","Habay","Les Coeuvins","Les Coeuvins","B","","",
"2.183.435.554","BAET",,,"6971","Tenneville","Tenneville","Route de Beausaint, Champlon","Route de Beausaint, Champlon","A","","",
"2.183.435.950","BAET",,,"6880","Bertrix","Bertrix","Route de Recogne","Route de Recogne","A","","",
"2.185.704.463","BAET",,,"6791","Aubange","Aubange","Rue de Rodange - ATHUS","Rue de Rodange - ATHUS","90","","",
"2.185.704.760","BAET",,,"6880","Bertrix","Bertrix","Rue Al-Paul","Rue Al-Paul","2","","",
"2.185.725.546","BAET",,,"6660","Houffalize","Houffalize","Rue de La-Roche","Rue de La-Roche","57","","",
"2.185.726.338","BAET",,,"6830","Bouillon","Bouillon","Cordemois","Cordemois","3","","",
"2.200.119.356","BAET",,,"6700","Arlon","Arlon","Heinsch, route de Neufchâteau","Heinsch, route de Neufchâteau","258","","",
"2.222.740.449","BAET",,,"6838","Bouillon","Bouillon","Rue du Tambour,Corbion","Rue du Tambour,Corbion","SN","","",
"2.158.292.758","BAET",,,"9000","Gent","Gent","Stropkaai","Stropkaai","14","","",
"2.175.916.569","BAET",,,"1730","Asse","Asse","Huinegem","Huinegem","47","","",
"2.175.916.866","BAET",,,"8310","Brugge","Brugge","Schaakstraat","Schaakstraat","100","","",
"2.175.916.965","BAET",,,"9600","Ronse","Ronse","Ninoofsesteenweg","Chaussée de Ninove","583","A","",
"2.207.103.356","BAET",,,"9000","Gent","Gent","Stropstraat","Stropstraat","31","","",
"2.207.103.653","BAET",,,"9000","Gent","Gent","Veermanplein","Veermanplein","1","","",
"2.207.105.039","BAET",,,"9032","Gent","Gent","Botestraat","Botestraat","100","","",
"2.207.105.138","BAET",,,"9000","Gent","Gent","Peerstraat","Peerstraat","1","","",
"2.207.105.336","BAET",,,"9000","Gent","Gent","Oudenaardsesteenweg","Oudenaardsesteenweg","74","","",
"2.207.106.623","BAET",,,"9030","Gent","Gent","Driepikkelstraat","Driepikkelstraat","30","","",
"2.207.106.821","BAET",,,"9050","Gent","Gent","Driebeekstraat","Driebeekstraat","22","","",
"2.207.107.613","BAET",,,"9052","Gent","Gent","Ter Linden","Ter Linden","29","","",
"2.207.108.108","BAET",,,"9031","Gent","Gent","Keiskantstraat","Keiskantstraat","3","","",
"2.207.108.405","BAET",,,"9032","Gent","Gent","Botestraat","Botestraat","98","","",
"2.207.115.531","BAET",,,"9000","Gent","Gent","Tolhuislaan","Tolhuislaan","77","","",
"2.207.115.630","BAET",,,"9041","Gent","Gent","Wolfputstraat","Wolfputstraat","92","","",
"2.207.115.828","BAET",,,"9000","Gent","Gent","Dracenastraat","Dracenastraat","8","","",
"2.207.116.125","BAET",,,"9041","Gent","Gent","Sint-Jozefstraat","Sint-Jozefstraat","8","","",
"2.207.116.323","BAET",,,"8730","Beernem","Beernem","Sportstraat","Sportstraat","1","","",
"2.207.116.422","BAET",,,"8730","Beernem","Beernem","C. Marichalstraat","C. Marichalstraat","3","","",
"2.207.117.511","BAET",,,"8370","Blankenberge","Blankenberge","Willem Tellstraat","Willem Tellstraat","32","","",
"2.207.117.808","BAET",,,"8370","Blankenberge","Blankenberge","Eric Jameslaan","Eric Jameslaan","16","","",
"2.207.118.501","BAET",,,"8420","De Haan","De Haan","Graaf Jansdijk","Graaf Jansdijk","18","","",
"2.207.118.994","BAET",,,"8420","De Haan","De Haan","Nieuwe Steenweg","Nieuwe Steenweg","74","","",
"2.207.180.956","BAET",,,"9910","Knesselare","Knesselare","Prinsengoeddreef","Prinsengoeddreef","33","","",
"2.207.181.847","BAET",,,"9910","Knesselare","Knesselare","Urselseweg","Urselseweg","185","","",
"2.207.183.827","BAET",,,"9280","Lebbeke","Lebbeke","Koning Albert I-straat","Koning Albert I-straat","124","","",
"2.207.184.916","BAET",,,"8370","Blankenberge","Blankenberge","Ach Van Ackersquare","Ach Van Ackersquare","1","","",
"2.207.185.114","BAET",,,"8370","Blankenberge","Blankenberge","Groenestraat","Groenestraat","117","","",
"2.207.187.587","BAET",,,"9280","Lebbeke","Lebbeke","Koning Albert I-straat","Koning Albert I-straat","124","*","",
"2.207.187.884","BAET",,,"1770","Liedekerke","Liedekerke","Sportlaan","Sportlaan","5","","",
"2.207.188.082","BAET",,,"8430","Middelkerke","Middelkerke","Populierenlaan","Populierenlaan","20","","",
"2.207.188.874","BAET",,,"8890","Moorslede","Moorslede","Iepersestraat","Iepersestraat","52","H","",
"2.207.192.042","BAET",,,"8890","Moorslede","Moorslede","Ledegemstraat","Ledegemstraat","40","","",
"2.207.194.616","BAET",,,"8400","Oostende","Oostende","Koninginnelaan","Koninginnelaan","1","","",
"2.207.195.309","BAET",,,"8020","Oostkamp","Oostkamp","Albrecht Rodenbachstraat","Albrecht Rodenbachstraat","42","","",
"2.207.195.705","BAET",,,"8020","Oostkamp","Oostkamp","Albrecht Rodenbachstraat","Albrecht Rodenbachstraat","42","*","",
"2.207.196.792","BAET",,,"8020","Oostkamp","Oostkamp","Sportstraat","Sportstraat","2","","",
"2.207.196.990","BAET",,,"1740","Ternat","Ternat","Van Cauwelaertstraat","Van Cauwelaertstraat","40","","",
"2.207.198.079","BAET",,,"1740","Ternat","Ternat","Van Cauwelaertstraat","Van Cauwelaertstraat","40","*","",
"2.207.214.808","BAET",,,"9060","Zelzate","Zelzate","Oostkade","Oostkade","1","","",
"2.207.215.204","BAET",,,"9930","Zomergem","Zomergem","Den Boer","Den Boer","17","","",
"2.207.215.796","BAET",,,"9930","Zomergem","Zomergem","Den Boer","Den Boer","17","*","",
"2.207.216.390","BAET",,,"9000","Gent","Gent","Vissersdijk","Vissersdijk","1","","",
"2.207.216.786","BAET",,,"9000","Gent","Gent","Gaspar de Craeyerstraat","Gaspar de Craeyerstraat","2","","",
"2.207.216.984","BAET",,,"1745","Opwijk","Opwijk","Heiveld","Heiveld","65","","",
"2.207.217.380","BAET",,,"9830","Sint-Martens-Latem","Sint-Martens-Latem","Hoge Heirweg","Hoge Heirweg","58","","",
"2.207.217.578","BAET",,,"9950","Waarschoot","Waarschoot","Sportstraat","Sportstraat","3","","",
"2.208.517.774","BAET",,,"1830","Machelen (Brab.)","Machelen (Brab.)","Heirbaan","Heirbaan","*","","",
"2.208.518.170","BAET",,,"8470","Gistel","Gistel","Sportstraat","Sportstraat","1","","",
"2.208.518.764","BAET",,,"8470","Gistel","Gistel","Sportstraat","Sportstraat","1","*","",
"2.208.519.160","BAET",,,"8470","Gistel","Gistel","Sportstraat","Sportstraat","1","°","",
"2.208.519.457","BAET",,,"8470","Gistel","Gistel","Dorpsstraat","Dorpsstraat","38","E","",
"2.208.519.853","BAET",,,"9900","Eeklo","Eeklo","Burg. Lionel Pussemierstraat","Burg. Lionel Pussemierstraat","157","","",
"2.208.520.348","BAET",,,"9900","Eeklo","Eeklo","Oostveldstraat","Oostveldstraat","162","","",
"2.208.521.140","BAET",,,"9950","Waarschoot","Waarschoot","Sportstraat","Sportstraat","3","*","",
"2.208.521.239","BAET",,,"8600","Diksmuide","Diksmuide","Pluimstraat(ESE)","Pluimstraat(ESE)","18","","",
"2.208.533.315","BAET",,,"8370","Blankenberge","Blankenberge","Ach Van Ackersquare","Ach Van Ackersquare","1","*","",
"2.208.533.612","BAET",,,"9040","Gent","Gent","Rozebroekslag","Rozebroekslag","28","","",
"2.208.533.810","BAET",,,"9040","Gent","Gent","Rozebroekslag","Rozebroekslag","28","*","",
"2.229.447.307","BAET",,,"8400","Oostende","Oostende","Leopold Van Tyghemlaan","Leopold Van Tyghemlaan","62","","",
"2.229.448.295","BAET",,,"9070","Destelbergen","Destelbergen","Koedreef","Koedreef","1","","",
"2.229.448.691","BAET",,,"9840","De Pinte","De Pinte","Nieuwstraat","Nieuwstraat",".","","",
"2.229.449.087","BAET",,,"8730","Beernem","Beernem","Wellingstraat","Wellingstraat","29","A","",
"2.229.449.582","BAET",,,"8810","Lichtervelde","Lichtervelde","Zandstraat","Zandstraat","15","","",
"2.229.719.303","BAET",,,"1770","Liedekerke","Liedekerke","Sportlaan","Sportlaan","3","","",
"2.229.719.796","BAET",,,"1830","Machelen (Brab.)","Machelen (Brab.)","Heirbaan","Heirbaan","10","","",
"2.229.720.489","BAET",,,"1830","Machelen (Brab.)","Machelen (Brab.)","Vuurkruisenlaan","Vuurkruisenlaan","28","","",
"2.229.720.984","BAET",,,"1831","Machelen (Brab.)","Machelen (Brab.)","Kosterstraat","Kosterstraat","70","","",
"2.229.721.380","BAET",,,"1831","Machelen (Brab.)","Machelen (Brab.)","Alfons De Cockplein","Alfons De Cockplein","10","","",
"2.229.721.578","BAET",,,"1830","Machelen (Brab.)","Machelen (Brab.)","Cornelis Peetersstraat","Cornelis Peetersstraat","39","","",
"2.229.721.875","BAET",,,"1830","Machelen (Brab.)","Machelen (Brab.)","Heirbaan","Heirbaan","10",".","",
"2.161.837.317","BAET",,,"9420","Erpe-Mere","Erpe-Mere","Joseph Cardijnstraat","Joseph Cardijnstraat","60","","",
"2.158.766.672","BAET",,,"1474","Genappe","Genappe","Rue Emile François","Rue Emile François","27","","",
"2.166.134.615","BAET",,,"1400","Nivelles","Nivelles","Rue de la Religion","Rue de la Religion","10","","",
"2.166.130.457","BAET",,,"1450","Chastre","Chastre","Rue de Gembloux","Rue de Gembloux","2","","",
"2.168.951.672","BAET",,,"1450","Chastre","Chastre","Avenue des Marronniers","Avenue des Marronniers","36","","",
"2.168.951.870","BAET",,,"1370","Jodoigne","Jodoigne","Marché aux Chevaux(Jod.)","Marché aux Chevaux(Jod.)","2","","",
"2.168.951.969","BAET",,,"1332","Rixensart","Rixensart","Rue de Rosières","Rue de Rosières","63","","",
"2.168.952.068","BAET",,,"1420","Braine-l'Alleud","Braine-l'Alleud","Rue des Trois Apôtres","Rue des Trois Apôtres","5","","",
"2.168.952.266","BAET",,,"1320","Jodoigne","Jodoigne","Place Saint-Martin,T.-la-G.","Place Saint-Martin,T.-la-G.","3","","",
"2.168.952.662","BAET",,,"1421","Braine-l'Alleud","Braine-l'Alleud","Rue du Cimetière","Rue du Cimetière","1","","",
"2.168.952.959","BAET",,,"1440","Braine-le-Château","Braine-le-Château","Chaussée de Tubize(W-B)","Chaussée de Tubize(W-B)","159","","",
"2.168.953.058","BAET",,,"1440","Braine-le-Château","Braine-le-Château","Rue des Ecoles(W-B)","Rue des Ecoles(W-B)","1","","",
"2.168.953.256","BAET",,,"1440","Braine-le-Château","Braine-le-Château","Rue Robert Ledecq(W-B)","Rue Robert Ledecq(W-B)","17","A","",
"2.168.955.533","BAET",,,"1440","Braine-le-Château","Braine-le-Château","Chaussée de Tubize(W-B)","Chaussée de Tubize(W-B)","11","","",
"2.168.955.830","BAET",,,"1315","Incourt","Incourt","Place","Place","8","","",
"2.168.956.127","BAET",,,"1315","Incourt","Incourt","Rue Ecole des Filles","Rue Ecole des Filles","5","","",
"2.168.956.325","BAET",,,"1472","Genappe","Genappe","Avenue Henri Semal","Avenue Henri Semal","19","","",
"2.168.956.721","BAET",,,"1340","Ottignies-Louvain-la-Neuve","Ottignies-Louvain-la-Neuve","Rue de l'Invasion","Rue de l'Invasion","119","A","",
"2.168.957.414","BAET",,,"1342","Ottignies-Louvain-la-Neuve","Ottignies-Louvain-la-Neuve","Avenue de Jassans","Avenue de Jassans","674","","",
"2.168.957.711","BAET",,,"1480","Tubize","Tubize","Rue de l'Ecole","Rue de l'Ecole","14","","",
"2.168.957.909","BAET",,,"1480","Tubize","Tubize","Chaussée d'Enghien","Chaussée d'Enghien","243","","",
"2.168.958.107","BAET",,,"1480","Tubize","Tubize","Place des Grées du Lou","Place des Grées du Lou","1","","",
"2.168.958.503","BAET",,,"1480","Tubize","Tubize","Rue de la Cure","Rue de la Cure","39","","",
"2.168.959.194","BAET",,,"1480","Tubize","Tubize","Avenue Gabrielle Petit","Avenue Gabrielle Petit","25","","",
"2.168.959.689","BAET",,,"1480","Tubize","Tubize","Grand'Place","Grand'Place","31","","",
"2.168.960.283","BAET",,,"1401","Nivelles","Nivelles","Rue de Dinant","Rue de Dinant","6","","",
"2.168.960.580","BAET",,,"1400","Nivelles","Nivelles","Square des Nations-Unies","Square des Nations-Unies","7","","",
"2.168.960.778","BAET",,,"1310","La Hulpe","La Hulpe","Rue des Combattants","Rue des Combattants","112","","",
"2.168.960.976","BAET",,,"1310","La Hulpe","La Hulpe","Rue Gaston Bary","Rue Gaston Bary","52","","",
"2.168.961.471","BAET",,,"1495","Villers-la-Ville","Villers-la-Ville","Rue du Berceau,Marbais","Rue du Berceau,Marbais","18","","",
"2.168.961.570","BAET",,,"1495","Villers-la-Ville","Villers-la-Ville","Rue du Culot,Tilly","Rue du Culot,Tilly","4","","",
"2.168.961.768","BAET",,,"1480","Tubize","Tubize","Square René Larcier","Square René Larcier","7","","",
"2.150.858.697","BAET",,,"3290","Diest","Diest","Michel Theysstraat","Michel Theysstraat","18","","",
"2.162.917.579","BAET",,,"2850","Boom","Boom","Colonel Silvertopstraat","Colonel Silvertopstraat","15","","",
"2.171.339.159","BAET",,,"2850","Boom","Boom","Industrieweg","Industrieweg","1","","",
"2.163.001.119","BAET",,,"1731","Asse","Asse","Brusselsesteenweg","Brusselsesteenweg","617","","",
"2.161.770.110","BAET",,,"3500","Hasselt","Hasselt","Willekensmolenstraat","Willekensmolenstraat","122","","",
"2.161.770.308","BAET",,,"3440","Zoutleeuw","Zoutleeuw","Ossenwegstraat","Ossenwegstraat","1","A","",
"2.162.852.253","BAET",,,"7000","Mons","Mons","Rue de Nimy","Rue de Nimy","53","","",
"2.162.853.342","BAET",,,"7390","Quaregnon","Quaregnon","Chasse des Prés","Chasse des Prés","1","","",
"2.162.853.540","BAET",,,"7180","Seneffe","Seneffe","Rue de Soudromont","Rue de Soudromont","1","","",
"2.162.853.639","BAET",,,"7110","La Louvière","La Louvière","Rue Grand Peuplier(H-A)","Rue Grand Peuplier(H-A)","20","","",
"2.162.853.936","BAET",,,"7100","La Louvière","La Louvière","Rue Hamoir(L.L)","Rue Hamoir(L.L)","30","","",
"2.162.854.629","BAET",,,"7000","Mons","Mons","Rue René Descartes","Rue René Descartes","2","","",
"2.162.854.926","BAET",,,"7130","Binche","Binche","Rue des Pastures(BIN)","Rue des Pastures(BIN)","95","","",
"2.165.787.195","BAET",,,"7110","La Louvière","La Louvière","Rue Athéna(H-G)","Rue Athéna(H-G)","-","","",
"2.227.021.515","BAET",,,"7033","Mons","Mons","Rue de Ciply (C.)","Rue de Ciply (C.)","265","B","",
"2.006.383.830","BAET",,,"7000","Mons","Mons","Chasse du Roeulx","Chasse du Roeulx","71","","",
"2.211.467.168","BAET",,,"7000","Mons","Mons","Rue Neuve","Rue Neuve","17","","",
"2.163.789.688","BAET",,,"7340","Colfontaine","Colfontaine","Place de Pâturages","Place de Pâturages","41","","",
"2.163.789.787","BAET",,,"7331","Saint-Ghislain","Saint-Ghislain","Rue des Hauts Monceaux(B)","Rue des Hauts Monceaux(B)","41","","",
"2.163.790.480","BAET",,,"7301","Boussu","Boussu","Rue Barbet(H)","Rue Barbet(H)","91","","",
"2.163.790.579","BAET",,,"7080","Frameries","Frameries","Rue du Parc","Rue du Parc","43","","",
"2.163.791.272","BAET",,,"7390","Quaregnon","Quaregnon","Rue Edouard Anseele","Rue Edouard Anseele","22","","",
"2.163.791.371","BAET",,,"7301","Boussu","Boussu","Rue Grande Campagne(H)","Rue Grande Campagne(H)","44","","",
"2.163.791.767","BAET",,,"7380","Quiévrain","Quiévrain","Rue de Bavay","Rue de Bavay","15","","",
"2.163.791.866","BAET",,,"7370","Dour","Dour","Rue Sainte Croix","Rue Sainte Croix","32","","",
"2.163.791.965","BAET",,,"7330","Saint-Ghislain","Saint-Ghislain","11e Rue(SG)","11e Rue(SG)","15","","",
"2.191.518.723","BAET",,,"7370","Dour","Dour","Rue Ferrer","Rue Ferrer","14","","",
"2.164.737.518","BAET",,,"7700","Mouscron","Mouscron","Gasstraat","Rue du Gaz","16","","hôtel de ville",
"2.162.441.982","BAET",,,"3900","Overpelt","Overpelt","Oude Markt","Oude Markt","2","","",
"2.154.177.186","BAET",,,"3600","Genk","Genk","Arbeidsstraat","Arbeidsstraat","66","","",
"2.154.177.285","BAET",,,"3600","Genk","Genk","Klotstraat","Klotstraat","125","","",
"2.163.385.555","BAET",,,"3600","Genk","Genk","Klotstraat","Klotstraat","125.","","",
"2.163.385.654","BAET",,,"3520","Zonhoven","Zonhoven","Jacob Lenaertsstraat","Jacob Lenaertsstraat","33","","",
"2.163.385.753","BAET",,,"3840","Borgloon","Borgloon","Brikhof","Brikhof","68","","",
"2.163.385.852","BAET",,,"3700","Tongeren","Tongeren","Baversstraat","Baversstraat","32","","",
"2.163.385.951","BAET",,,"3520","Zonhoven","Zonhoven","Boddenveldweg","Boddenveldweg","11","","",
"2.158.307.210","BAET",,,"3500","Hasselt","Hasselt","Trichterheideweg","Trichterheideweg","8","","",
"2.004.335.348","BAET",,,"5361","Hamois","Hamois","Rue du Moulin, Mohiville","Rue du Moulin, Mohiville","-","","",
"2.159.828.625","BAET",,,"5000","Namur","Namur","Avenue Sergent Vrithoff","Avenue Sergent Vrithoff","2","","",
"2.159.829.021","BAET",,,"5300","Andenne","Andenne","Chaussée d'Anton","Chaussée d'Anton","-","","",
"2.159.830.902","BAET",,,"5020","Namur","Namur","Chemin de Boninne(CH)","Chemin de Boninne(CH)","-","","",
"2.159.831.296","BAET",,,"5310","Eghezée","Eghezée","Route de Gembloux","Route de Gembloux","-","","",
"2.159.831.494","BAET",,,"5380","Fernelmont","Fernelmont","Rue Ernest Montellier, ZI, Nov.","Rue Ernest Montellier, ZI, Nov.","-","","",
"2.159.831.692","BAET",,,"5070","Fosses-la-Ville","Fosses-la-Ville","Rue de Falisolle,Vitrival","Rue de Falisolle,Vitrival","129","","",
"2.159.831.890","BAET",,,"5030","Gembloux","Gembloux","Rue du Stordoir, Sauv.","Rue du Stordoir, Sauv.","-","","",
"2.159.832.088","BAET",,,"4218","Héron","Héron","Rue Chavée","Rue Chavée","-","","",
"2.159.832.385","BAET",,,"5190","Jemeppe-sur-Sambre","Jemeppe-sur-Sambre","Route d'Eghezée,Onoz","Route d'Eghezée,Onoz","309","","",
"2.159.832.682","BAET",,,"5080","La Bruyère","La Bruyère","Rue de Gembloux, Rhisnes","Rue de Gembloux, Rhisnes","-","","",
"2.159.832.781","BAET",,,"5020","Namur","Namur","Chemin de la Vieille Sambre(ML)","Chemin de la Vieille Sambre(ML)","87","","",
"2.159.832.979","BAET",,,"5100","Namur","Namur","Chemin de Malpaire(NN)","Chemin de Malpaire(NN)","-","","",
"2.159.833.276","BAET",,,"5060","Sambreville","Sambreville","Rue Surmont(AUV)","Rue Surmont(AUV)","7","","",
"2.159.833.375","BAET",,,"5140","Sombreffe","Sombreffe","Rue de la Spinette, Boig.","Rue de la Spinette, Boig.","-","","",
"2.159.833.573","BAET",,,"5537","Anhée","Anhée","Rue de la Molignée, Warnant","Rue de la Molignée, Warnant","-","","",
"2.159.834.167","BAET",,,"5590","Ciney","Ciney","Happe","Happe","2","","",
"2.159.834.365","BAET",,,"5500","Dinant","Dinant","Rue Saint-Jacques","Rue Saint-Jacques","-","","",
"2.159.834.761","BAET",,,"5364","Hamois","Hamois","Rue des Papillons, Schaltin","Rue des Papillons, Schaltin","-","","",
"2.159.835.553","BAET",,,"5374","Havelange","Havelange","Route de Durbuy(MA)","Route de Durbuy(MA)","-","","",
"2.159.836.048","BAET",,,"5540","Hastière","Hastière","Av. Guy-Stinglhamber, H.-Lav.","Av. Guy-Stinglhamber, H.-Lav.","-","","",
"2.159.837.830","BAET",,,"5580","Rochefort","Rochefort","Rue de Ciney","Rue de Ciney","-","","",
"2.159.844.065","BAET",,,"5630","Cerfontaine","Cerfontaine","Rue des Valizes(Cer)","Rue des Valizes(Cer)","41","","",
"2.159.844.164","BAET",,,"5660","Couvin","Couvin","Rue du Lion, Fra.","Rue du Lion, Fra.","-","","",
"2.159.844.263","BAET",,,"5680","Doische","Doische","Rue du Marais","Rue du Marais","-","","",
"2.159.844.362","BAET",,,"5620","Florennes","Florennes","Rue Fort-Jaco, Morialmé","Rue Fort-Jaco, Morialmé","-","","",
"2.159.844.461","BAET",,,"5640","Mettet","Mettet","Rue de Somtet","Rue de Somtet","-","","",
"2.159.844.560","BAET",,,"5600","Philippeville","Philippeville","Rue de Vodecée(VOD)","Rue de Vodecée(VOD)","-","","",
"2.159.844.758","BAET",,,"5670","Viroinval","Viroinval","Chemin du Paradis, Vierves","Chemin du Paradis, Vierves","-","","",
"2.159.844.857","BAET",,,"5650","Walcourt","Walcourt","Rue du Jardinet(Wal)","Rue du Jardinet(Wal)","-","","",
"2.159.845.055","BAET",,,"5570","Beauraing","Beauraing","rue de Rochefort","rue de Rochefort","223","","",
"2.159.845.748","BAET",,,"5575","Gedinne","Gedinne","Rue de Bouillon, Malv.","Rue de Bouillon, Malv.","-","","",
"2.159.847.134","BAET",,,"5100","Namur","Namur","Chemin de Malpaire(NN)","Chemin de Malpaire(NN)","*","","",
"2.159.847.332","BAET",,,"5590","Ciney","Ciney","Rue du Marché couvert","Rue du Marché couvert","-","","",
"2.159.848.916","BAET",,,"5575","Gedinne","Gedinne","Rue de Bouillon, Malv.","Rue de Bouillon, Malv.","*","","",
"2.159.850.795","BAET",,,"5575","Gedinne","Gedinne","Rue de Bouillon, Malv.","Rue de Bouillon, Malv.","/","","",
"2.159.851.884","BAET",,,"5060","Sambreville","Sambreville","Pré des Haz(TAM)","Pré des Haz(TAM)","-","","",
"2.159.859.408","BAET",,,"5333","Assesse","Assesse","Rue du Bouly","Rue du Bouly","-","","",
"2.159.859.903","BAET",,,"5600","Philippeville","Philippeville","Rue de Vodecée(VOD)","Rue de Vodecée(VOD)","*","","",
"2.164.983.877","BAET",,,"5555","Bièvre","Bièvre","Rue Grande, Oizy","Rue Grande, Oizy","-","","",
"2.176.963.278","BAET",,,"5350","Ohey","Ohey","Rue de Ciney","Rue de Ciney","*","","",
"2.189.517.355","BAET",,,"5150","Floreffe","Floreffe","Route de la Lache, Floriffoux","Route de la Lache, Floriffoux","4","","",
"2.160.466.548","BAET",,,"6001","Charleroi","Charleroi","Rue de la Vieille Place","Rue de la Vieille Place","51","","",
"2.160.466.746","BAET",,,"6010","Charleroi","Charleroi","Rue du Déversoir","Rue du Déversoir","1","","",
"2.160.467.043","BAET",,,"6250","Aiseau-Presles","Aiseau-Presles","Lieu dit Port de la Praye(PL)","Lieu dit Port de la Praye(PL)","1","","",
"2.160.467.340","BAET",,,"6150","Anderlues","Anderlues","Rue du Terril","Rue du Terril","99","","",
"2.160.467.538","BAET",,,"7160","Chapelle-lez-Herlaimont","Chapelle-lez-Herlaimont","Allée de la Valériane","Allée de la Valériane","26","","",
"2.160.467.835","BAET",,,"6010","Charleroi","Charleroi","Rue de Marcinelle","Rue de Marcinelle","26","","",
"2.160.468.033","BAET",,,"6043","Charleroi","Charleroi","Rue Jules Destrée","Rue Jules Destrée","-","","",
"2.160.468.231","BAET",,,"6200","Châtelet","Châtelet","Coron du Gouffre","Coron du Gouffre","67","","",
"2.160.468.627","BAET",,,"6180","Courcelles","Courcelles","Rue de Binche(CO)","Rue de Binche(CO)","152","","",
"2.160.469.023","BAET",,,"6240","Farciennes","Farciennes","Rue Sifride Demoulin(FAR)","Rue Sifride Demoulin(FAR)","65","","",
"2.160.469.320","BAET",,,"6220","Fleurus","Fleurus","Route de Mellet(FL)","Route de Mellet(FL)","171","","",
"2.160.469.716","BAET",,,"6140","Fontaine-l'Evêque","Fontaine-l'Evêque","Rue du Pétria(F-E)","Rue du Pétria(F-E)","93","","",
"2.160.470.013","BAET",,,"6280","Gerpinnes","Gerpinnes","Rue Jean Joseph Piret(JON)","Rue Jean Joseph Piret(JON)","100","","",
"2.160.470.211","BAET",,,"6120","Ham-sur-Heure-Nalinnes","Ham-sur-Heure-Nalinnes","Chemin de Hameau(HSH)","Chemin de Hameau(HSH)","-","","",
"2.160.470.508","BAET",,,"6111","Montigny-le-Tilleul","Montigny-le-Tilleul","Rue du Cerisier","Rue du Cerisier","-","","",
"2.160.470.607","BAET",,,"6210","Les Bons Villers","Les Bons Villers","Rue Cadeau(FLG)","Rue Cadeau(FLG)","3","","",
"2.160.470.805","BAET",,,"6230","Pont-à-Celles","Pont-à-Celles","Rue de Luttre(VIE)","Rue de Luttre(VIE)","10","","",
"2.160.507.625","BAET",,,"6000","Charleroi","Charleroi","Boulevard Pierre Mayence","Boulevard Pierre Mayence","1","","",
"2.160.508.120","BAET",,,"6060","Charleroi","Charleroi","Place Jules Destrée","Place Jules Destrée","-","","",
"2.160.521.481","BAET",,,"6460","Chimay","Chimay","Boulevard Louise(CH)","Boulevard Louise(CH)","18","","",
"2.160.521.778","BAET",,,"6460","Chimay","Chimay","Avenue du Châlon(CH)","Avenue du Châlon(CH)","-","","",
"2.160.520.590","BAET",,,"6470","Sivry-Rance","Sivry-Rance","Rue du Commerce","Rue du Commerce","4","","",
"2.160.609.969","BAET",,,"6460","Chimay","Chimay","Grand'Place(CH)","Grand'Place(CH)","-","","",
"2.159.184.564","BAET",,,"6000","Charleroi","Charleroi","Boulevard Pierre Mayence","Boulevard Pierre Mayence","1","","",
"2.159.186.643","BAET",,,"6041","Charleroi","Charleroi","Avenue Georges Lemaitre","Avenue Georges Lemaitre","21","","",
"2.159.187.237","BAET",,,"6000","Charleroi","Charleroi","Avenue Général Michel","Avenue Général Michel","1","E","",
"2.159.187.435","BAET",,,"6061","Charleroi","Charleroi","Chaussée de Charleroi","Chaussée de Charleroi","401","","",
"2.159.187.732","BAET",,,"6250","Aiseau-Presles","Aiseau-Presles","Rue de Farciennes(RO)","Rue de Farciennes(RO)","35","","",
"2.165.538.262","BAET",,,"6041","Charleroi","Charleroi","Rue des Frères Wright","Rue des Frères Wright","29","","",
"2.186.298.539","BAET",,,"6220","Fleurus","Fleurus","Avenue de l'Espérance(F)","Avenue de l'Espérance(F)","41/4","","",
"2.186.298.638","BAET",,,"6030","Charleroi","Charleroi","Rue Georges Tourneur","Rue Georges Tourneur","SN","","",
"2.216.804.346","BAET",,,"6230","Pont-à-Celles","Pont-à-Celles","Rue Ecluse(PAC)","Rue Ecluse(PAC)","-","","",
"2.161.391.513","BAET",,,"7330","Saint-Ghislain","Saint-Ghislain","11e Rue(SG)","11e Rue(SG)","3 +","","",
"2.159.522.678","BAET",,,"7340","Colfontaine","Colfontaine","Rue Grande","Rue Grande","17","","",
"2.161.392.206","BAET",,,"1210","Sint-Joost-ten-Node","Saint-Josse-ten-Noode","Queteletplein","Place Quetelet","3","","",
"2.003.444.334","BAET",,,"1210","Sint-Joost-ten-Node","Saint-Josse-ten-Noode","1 P.MADOU TOUR MADOU","1 P.MADOU TOUR MADOU","","","",
"2.102.964.255","BAET",,,"1030","Schaarbeek","Schaerbeek","Koning AlbertII laan","Boulevard du Roi Albert II","27","","",
"2.102.964.354","BAET","Onbepaald","Indéterminé","****","Commerce ambulant","Commerce ambulant","Marches publics","Marches publics","","","",
"2.102.964.651","BAET",,,"1070","Anderlecht","Anderlecht","Sylvain Dupuislaan","Boulevard Sylvain Dupuis","433","","",
"2.102.964.750","BAET",,,"1160","Oudergem","Auderghem","Vorstlaan","Boulevard du Souverain","240","","",
"2.102.965.047","BAET",,,"1500","Halle","Halle","Basiliekstraat","Basiliekstraat","120","","",
"2.102.965.146","BAET",,,"1050","Elsene","Ixelles","Boondaalse Steenweg","Chaussée de Boondael","423","","",
"2.102.965.245","BAET",,,"1090","Jette","Jette","Jetse Laan","Avenue de Jette","214","","",
"2.102.965.344","BAET",,,"1030","Schaarbeek","Schaerbeek","Olmstraat","Rue de l'Orme","14","","",
"2.102.965.443","BAET",,,"1060","Sint-Gillis (bij-Brussel)","Saint-Gilles","Gulden-Vlieslaan","Avenue de la Toison d'Or","40","","",
"2.102.965.542","BAET",,,"1190","Vorst","Forest","Rodenbachstraat","Rue Rodenbach","133","","",
"2.102.965.641","BAET",,,"1800","Vilvoorde","Vilvoorde","Portaelsplein","Portaelsplein","68","","",
"2.102.965.740","BAET",,,"1200","Sint-Lambrechts-Woluwe","Woluwe-Saint-Lambert","Sint-Lambertusstraat","Rue Saint-Lambert","202","","",
"2.102.965.839","BAET",,,"9300","Aalst","Aalst","Grote Markt","Grote Markt","25","","AALST BIZZ CORNER",
"2.102.965.938","BAET",,,"9400","Ninove","Ninove","Graanmarkt","Graanmarkt","38","","",
"2.102.966.037","BAET",,,"2600","Antwerpen","Antwerpen","Roderveldlaan","Roderveldlaan","2","","",
"2.102.966.235","BAET",,,"2000","Antwerpen","Antwerpen","Lange Nieuwstraat","Lange Nieuwstraat","106","","",
"2.102.966.532","BAET",,,"2100","Antwerpen","Antwerpen","Van den Hautelei","Van den Hautelei","171","","",
"2.102.966.631","BAET",,,"2950","Kapellen","Kapellen","Antwerpsesteenweg","Antwerpsesteenweg","19","","",
"2.102.966.928","BAET",,,"2610","Antwerpen","Antwerpen","Bist","Bist","36","","",
"2.102.967.027","BAET",,,"2110","Wijnegem","Wijnegem","Turnhoutsebaan","Turnhoutsebaan","5","","",
"2.102.967.225","BAET",,,"2640","Mortsel","Mortsel","Statielei","Statielei","70","","",
"2.102.967.423","BAET",,,"2850","Boom","Boom","Antwerpsestraat","Antwerpsestraat","11","","",
"2.102.967.522","BAET",,,"6700","Arlon","Arlon","Avenue Jean-Baptiste-Nothomb","Avenue Jean-Baptiste-Nothomb","40","","",
"2.102.967.621","BAET",,,"6700","Arlon","Arlon","Rue Pietro-Ferrero","Rue Pietro-Ferrero","1","","",
"2.102.968.017","BAET",,,"8200","Brugge","Brugge","Rijselstraat","Rijselstraat","1","","",
"2.102.968.215","BAET",,,"8300","Knokke-Heist","Knokke-Heist","Lippenslaan","Lippenslaan","176","","",
"2.102.968.314","BAET",,,"8700","Tielt","Tielt","Kortrijkstraat","Kortrijkstraat","29","","",
"2.102.968.413","BAET",,,"6000","Charleroi","Charleroi","Rue de la Montagne","Rue de la Montagne","56","","",
"2.102.968.710","BAET",,,"6001","Charleroi","Charleroi","Avenue Eugène Mascaux","Avenue Eugène Mascaux","223","","",
"2.102.969.007","BAET",,,"6200","Châtelet","Châtelet","Rue du Trieu-Kaisin","Rue du Trieu-Kaisin","11","","",
"2.102.969.205","BAET",,,"9200","Dendermonde","Dendermonde","Oude Vest (DEN)","Oude Vest (DEN)","5/7","","",
"2.102.969.403","BAET",,,"5500","Dinant","Dinant","Rue Saint-Jacques","Rue Saint-Jacques","337","","",
"2.102.969.502","BAET",,,"9000","Gent","Gent","Keizer Karelstraat","Keizer Karelstraat","1","","",
"2.102.969.601","BAET",,,"9800","Deinze","Deinze","Tolpoortstraat","Tolpoortstraat","73","","91DTOA",
"2.102.969.797","BAET",,,"9900","Eeklo","Eeklo","Stationsstraat","Stationsstraat","36","","",
"2.102.969.896","BAET",,,"9000","Gent","Gent","Kortrijksesteenweg","Kortrijksesteenweg","543","","",
"2.102.969.995","BAET",,,"9000","Gent","Gent","Kouter","Kouter","1","","",
"2.102.970.094","BAET",,,"3500","Hasselt","Hasselt","Demerstraat","Demerstraat","65","","",
"2.102.970.193","BAET",,,"3910","Neerpelt","Neerpelt","Kerkstraat","Kerkstraat","22","","",
"2.102.970.292","BAET",,,"3800","Sint-Truiden","Sint-Truiden","Luikerstraat","Luikerstraat","23","","11STLA",
"2.102.970.490","BAET",,,"4500","Huy","Huy","Grand'Place","Grand'Place","26","","",
"2.102.970.589","BAET",,,"8900","Ieper","Ieper","Menenstraat","Menenstraat","14","","",
"2.102.970.688","BAET",,,"8500","Kortrijk","Kortrijk","Steenpoort(Kor)","Steenpoort(Kor)","2","","",
"2.102.970.787","BAET",,,"8800","Roeselare","Roeselare","Ooststraat","Ooststraat","23","","",
"2.102.970.985","BAET",,,"8500","Kortrijk","Kortrijk","Ringlaan(Kor)","Ringlaan(Kor)","34","","",
"2.102.971.183","BAET",,,"8790","Waregem","Waregem","Markt","Markt","21","","",
"2.102.971.282","BAET",,,"3000","Leuven","Leuven","Vismarkt","Vismarkt","17","","",
"2.102.971.381","BAET",,,"3200","Aarschot","Aarschot","Grote Markt","Grote Markt","23","","",
"2.102.971.480","BAET",,,"3290","Diest","Diest","Sint-Jan Berchmansstraat","Sint-Jan Berchmansstraat","3","","",
"2.102.971.579","BAET",,,"3000","Leuven","Leuven","Bondgenotenlaan","Bondgenotenlaan","55","","",
"2.102.971.777","BAET",,,"4101","Seraing","Seraing","Rue des Rhieux","Rue des Rhieux","1","","",
"2.102.971.876","BAET",,,"4000","Liège","Liège","Rue de la Sirène","Rue de la Sirène","7","","",
"2.102.971.975","BAET",,,"4020","Liège","Liège","Rue du Nord-Belge","Rue du Nord-Belge","6","","",
"2.102.972.173","BAET",,,"4000","Liège","Liège","Chaussée de Tongres","Chaussée de Tongres","269","","",
"2.102.972.272","BAET",,,"4020","Liège","Liège","Quai des Vennes","Quai des Vennes","1","","",
"2.102.972.470","BAET",,,"4300","Waremme","Waremme","Avenue Reine Astrid","Avenue Reine Astrid","10","","",
"2.102.972.668","BAET",,,"6900","Marche-en-Famenne","Marche-en-Famenne","Marche, Rue de la Pirire","Marche, Rue de la Pirire","3","","",
"2.102.972.866","BAET",,,"2500","Lier","Lier","Grote Markt","Grote Markt","9","","",
"2.102.972.965","BAET",,,"2800","Mechelen","Mechelen","Stationsstraat","Stationsstraat","58","","",
"2.102.973.064","BAET",,,"2800","Mechelen","Mechelen","Bruul","Bruul","13","","",
"2.102.973.262","BAET",,,"7100","La Louvière","La Louvière","Rue de la Franco-Belge(L.L)","Rue de la Franco-Belge(L.L)","28","","",
"2.102.973.361","BAET",,,"7000","Mons","Mons","Avenue des Bassins","Avenue des Bassins","64","","",
"2.102.973.460","BAET",,,"7000","Mons","Mons","Rue des Fossés","Rue des Fossés","7","","",
"2.102.973.559","BAET",,,"5000","Namur","Namur","Rue Marie Henriette","Rue Marie Henriette","60","","",
"2.102.973.658","BAET",,,"5060","Sambreville","Sambreville","Rue Saint Jean-Baptiste(TAM)","Rue Saint Jean-Baptiste(TAM)","1","","",
"2.102.973.757","BAET",,,"5030","Gembloux","Gembloux","Grand'Rue","Grand'Rue","18","","",
"2.102.973.856","BAET",,,"5100","Namur","Namur","Rue du Pont des Ardennes(JB)","Rue du Pont des Ardennes(JB)","6","14","",
"2.102.973.955","BAET",,,"5000","Namur","Namur","Rue de l'Ange","Rue de l'Ange","74","","",
"2.102.974.252","BAET",,,"6800","Libramont-Chevigny","Libramont-Chevigny","Libramont,Rue des Alliés","Libramont,Rue des Alliés","1","","",
"2.102.974.351","BAET",,,"1400","Nivelles","Nivelles","Rue de Namur","Rue de Namur","55/A","","67NNAA",
"2.102.974.549","BAET",,,"1300","Wavre","Wavre","Rue de la Limite","Rue de la Limite","2","","",
"2.102.974.648","BAET",,,"1420","Braine-l'Alleud","Braine-l'Alleud","Avenue Albert 1er","Avenue Albert 1er","117","","",
"2.102.974.846","BAET",,,"1400","Nivelles","Nivelles","Rue de la Technique","Rue de la Technique","11","","",
"2.102.974.945","BAET",,,"1410","La Hulpe","La Hulpe","Chaussée de Bruxelles","Chaussée de Bruxelles","219A","","",
"2.102.975.143","BAET",,,"9700","Oudenaarde","Oudenaarde","Markt","Markt","13","","",
"2.102.975.242","BAET",,,"9100","Sint-Niklaas","Sint-Niklaas","Passtraat","Passtraat","1C","","",
"2.102.975.341","BAET",,,"9160","Lokeren","Lokeren","Markt","Markt","56","","",
"2.102.975.440","BAET",,,"9100","Sint-Niklaas","Sint-Niklaas","Stationsstraat","Stationsstraat","36","","",
"2.102.975.539","BAET",,,"3600","Genk","Genk","Europalaan","Europalaan","27","","",
"2.102.975.737","BAET",,,"3600","Genk","Genk","Sint-Martinusplein","Sint-Martinusplein","25","","",
"2.102.975.836","BAET",,,"3700","Tongeren","Tongeren","Maastrichterstraat","Maastrichterstraat","94","","",
"2.102.975.935","BAET",,,"7500","Tournai","Tournai","Boulevard des Nerviens(TOU)","Boulevard des Nerviens(TOU)","1","","",
"2.102.976.034","BAET",,,"7800","Ath","Ath","Rue aux Gâdes","Rue aux Gâdes","10","","",
"2.102.976.133","BAET",,,"7700","Mouscron","Mouscron","Pater Damiaanstraat","Rue Père Damien","8","03","",
"2.102.976.232","BAET",,,"7500","Tournai","Tournai","Boulevard Walter de Marvis(TOU)","Boulevard Walter de Marvis(TOU)","22","","",
"2.102.976.430","BAET",,,"2300","Turnhout","Turnhout","Parklaan","Parklaan","34","","",
"2.102.976.529","BAET",,,"2200","Herentals","Herentals","Zandstraat(HRT)","Zandstraat(HRT)","27","","",
"2.102.976.628","BAET",,,"2400","Mol","Mol","Statiestraat","Statiestraat","38 A","","",
"2.102.976.727","BAET",,,"2300","Turnhout","Turnhout","Victoriestraat","Victoriestraat","14","","",
"2.102.976.925","BAET",,,"4800","Verviers","Verviers","Crapaurue","Crapaurue","126","","",
"2.102.977.024","BAET",,,"4960","Malmedy","Malmedy","Place du Châtelet","Place du Châtelet","1","","",
"2.102.977.123","BAET",,,"8630","Veurne","Veurne","Pannestraat","Pannestraat","1","","",
"2.102.977.222","BAET",,,"4700","Eupen","Eupen","Rue de la Montagne","Rue de la Montagne","14","","",
"2.133.609.525","BAET",,,"1300","Wavre","Wavre","Place Cardinal Mercier","Place Cardinal Mercier","1","","",
"2.133.610.020","BAET",,,"7000","Mons","Mons","Rue de la Chaussée","Rue de la Chaussée","42","","",
"2.133.610.812","BAET",,,"8000","Brugge","Brugge","Noordzandstraat","Noordzandstraat","60","","",
"2.133.611.208","BAET",,,"9000","Gent","Gent","Veldstraat","Veldstraat","9-11","","",
"2.133.611.703","BAET",,,"9400","Ninove","Ninove","Vuurkruisersstraat","Vuurkruisersstraat","10","5","",
"2.133.612.196","BAET",,,"1040","Etterbeek","Etterbeek","Tongerenstraat","Rue des Tongres","63","65","",
"2.133.612.394","BAET",,,"1000","Brussel","Bruxelles","Munt","Place de la Monnaie","9","","",
"2.133.612.790","BAET",,,"1082","Sint-Agatha-Berchem","Berchem-Sainte-Agathe","Keizer Karellaan","Avenue Charles-Quint","420","","",
"2.133.613.087","BAET",,,"1180","Ukkel","Uccle","Xavier De Buestraat","Rue Xavier De Bue","52","","",
"2.134.034.246","BAET",,,"8400","Oostende","Oostende","Marie-Joséplein","Marie-Joséplein","12","","Res. Bouchery",
"2.153.240.048","BAET",,,"1070","Anderlecht","Anderlecht","Tweestationsstraat","Rue des Deux Gares","84","","",
"2.153.240.147","BAET",,,"1080","Sint-Jans-Molenbeek","Molenbeek-Saint-Jean","Birminghamstraat","Rue de Birmingham","66","","",
"2.153.240.642","BAET",,,"1140","Evere","Evere","Carlistraat","Rue Carli","4","","",
"2.153.240.741","BAET",,,"1500","Halle","Halle","Jacminstraat (Jean)","Jacminstraat (Jean)","14","","",
"2.153.240.840","BAET",,,"1050","Brussel","Bruxelles","Borrensstraat","Rue Borrens","16","","",
"2.153.240.939","BAET",,,"1800","Vilvoorde","Vilvoorde","Leuvensestraat","Leuvensestraat","7-9","","",
"2.153.241.137","BAET",,,"1000","Brussel","Bruxelles","Lebeaustraat","Rue Lebeau","2","","",
"2.153.241.434","BAET",,,"2600","Antwerpen","Antwerpen","Uitbreidingstraat","Uitbreidingstraat","325","","",
"2.153.241.533","BAET",,,"2500","Lier","Lier","Bollaarstraat","Bollaarstraat","8A+B","","",
"2.153.241.632","BAET",,,"2930","Brasschaat","Brasschaat","Leopoldslei","Leopoldslei","13","","",
"2.153.241.731","BAET",,,"2040","Antwerpen","Antwerpen","Antwerpsebaan","Antwerpsebaan","105","","",
"2.153.241.830","BAET",,,"2640","Mortsel","Mortsel","Hendrik Consciencelaan","Hendrik Consciencelaan","62","","",
"2.153.241.929","BAET",,,"3500","Hasselt","Hasselt","Paardsdemerstraat","Paardsdemerstraat","8-10","","",
"2.153.242.127","BAET",,,"3500","Hasselt","Hasselt","Hendrik van Veldekesingel","Hendrik van Veldekesingel","39","","",
"2.153.242.226","BAET",,,"3900","Overpelt","Overpelt","Koning Albertlaan","Koning Albertlaan","1","","",
"2.153.242.325","BAET",,,"3800","Sint-Truiden","Sint-Truiden","Rijschoolstraat","Rijschoolstraat","49","","",
"2.153.242.424","BAET",,,"3290","Diest","Diest","Ferdinand Allenstraat","Ferdinand Allenstraat","38","","",
"2.153.242.523","BAET",,,"2800","Mechelen","Mechelen","Dellingstraat","Dellingstraat","52","","",
"2.153.242.622","BAET",,,"2800","Mechelen","Mechelen","Oscar Van Kesbeeckstraat","Oscar Van Kesbeeckstraat","2","","",
"2.153.242.721","BAET",,,"3200","Aarschot","Aarschot","Nieuwlandlaan","Nieuwlandlaan","31","","",
"2.153.242.820","BAET",,,"3010","Leuven","Leuven","Lolanden","Lolanden","1","","",
"2.153.242.919","BAET",,,"4000","Liège","Liège","Impasse Jonckeu","Impasse Jonckeu","12","","",
"2.153.243.018","BAET",,,"4040","Herstal","Herstal","Rue Pépin de Herstal","Rue Pépin de Herstal","16","","",
"2.153.243.117","BAET",,,"8310","Brugge","Brugge","Matmeers","Matmeers","2","","",
"2.153.243.315","BAET",,,"8800","Roeselare","Roeselare","Beversesteenweg","Beversesteenweg","189","","",
"2.153.243.612","BAET",,,"8800","Roeselare","Roeselare","Hendrik Consciencestraat","Hendrik Consciencestraat","3-5","","",
"2.153.243.810","BAET",,,"9200","Dendermonde","Dendermonde","Noordlaan (DEN)","Noordlaan (DEN)","25","","",
"2.153.243.909","BAET",,,"9300","Aalst","Aalst","De Ridderstraat","De Ridderstraat","41","","",
"2.153.244.107","BAET",,,"1770","Liedekerke","Liedekerke","Ed. Schelfhoutstraat","Ed. Schelfhoutstraat","232","","",
"2.153.244.206","BAET",,,"9600","Ronse","Ronse","Politiekegevangenenstraat","Rue des Prisonniers-Politiques","14","","",
"2.153.244.305","BAET",,,"8500","Kortrijk","Kortrijk","Tuinstraat(Kor)","Tuinstraat(Kor)","6","","",
"2.153.244.602","BAET",,,"7700","Mouscron","Mouscron","Keizer Karelstraat","Rue Charles-Quint","90","","",
"2.153.245.293","BAET",,,"8900","Ieper","Ieper","Vooruitgangstraat","Vooruitgangstraat","1","","",
"2.153.245.392","BAET",,,"8470","Gistel","Gistel","Nieuwpoortse Steenweg","Nieuwpoortse Steenweg","15","","",
"2.153.245.491","BAET",,,"8400","Oostende","Oostende","Wittenonnenstraat","Wittenonnenstraat","44","","",
"2.153.245.590","BAET",,,"6700","Arlon","Arlon","Place Didier","Place Didier","39","1","",
"2.153.245.689","BAET",,,"7100","La Louvière","La Louvière","Rue Anatole France(L.L)","Rue Anatole France(L.L)","16","","",
"2.153.245.986","BAET",,,"1400","Nivelles","Nivelles","Place Albert-Ier","Place Albert-Ier","3-5","","",
"2.153.246.085","BAET",,,"7800","Ath","Ath","Rue Jean Jaurès","Rue Jean Jaurès","11","","",
"2.153.246.283","BAET",,,"6000","Charleroi","Charleroi","Rue de la Science","Rue de la Science","2","","",
"2.153.246.580","BAET",,,"6041","Charleroi","Charleroi","Rue du Carrosse","Rue du Carrosse","2","","",
"2.153.246.778","BAET",,,"4970","Stavelot","Stavelot","Cour de l'Hôtel de ville","Cour de l'Hôtel de ville","3","","",
"2.153.246.877","BAET",,,"5020","Namur","Namur","Rue Tir de Ronet(FW)","Rue Tir de Ronet(FW)","5","","",
"2.153.247.174","BAET",,,"5580","Rochefort","Rochefort","Rue Joseph-Wauters,Jemelle","Rue Joseph-Wauters,Jemelle","S/N","","",
"2.153.247.273","BAET",,,"6900","Marche-en-Famenne","Marche-en-Famenne","On, Rue Delvigne","On, Rue Delvigne","102","","",
"2.153.247.570","BAET",,,"5580","Rochefort","Rochefort","Rue de l'Antenne,Lessive","Rue de l'Antenne,Lessive","63","","",
"2.153.247.768","BAET",,,"4500","Huy","Huy","Rue du Vieux-Pont","Rue du Vieux-Pont","16","","",
"2.153.248.164","BAET",,,"4800","Verviers","Verviers","Rue Thil Lorrain","Rue Thil Lorrain","6","","",
"2.153.248.263","BAET",,,"9800","Deinze","Deinze","Ommegangstraat","Ommegangstraat","24","","",
"2.153.248.659","BAET",,,"9900","Eeklo","Eeklo","Euerardstraat","Euerardstraat","39","","",
"2.153.248.758","BAET",,,"9080","Lochristi","Lochristi","Dekenijstraat","Dekenijstraat","11","","",
"2.153.249.055","BAET",,,"9230","Wetteren","Wetteren","Stationsplein","Stationsplein","10","","",
"2.153.249.352","BAET",,,"4780","Sankt Vith","Sankt Vith","Malmedyer Strasse","Malmedyer Strasse","22","","",
"2.153.258.458","BAET",,,"2200","Herentals","Herentals","Molenvest(HRT)","Molenvest(HRT)","13","","",
"2.160.609.474","BAET",,,"4700","Eupen","Eupen","Klötzerbahn","Klötzerbahn","24","","",
"2.174.815.917","BAET",,,"3001","Leuven","Leuven","Geldenaaksebaan","Geldenaaksebaan","335","","",
"2.174.823.142","BAET",,,"7000","Mons","Mons","Place des Grands Prés","Place des Grands Prés","1","30","",
"2.174.824.528","BAET",,,"9000","Gent","Gent","Zwijnaardsesteenweg","Zwijnaardsesteenweg","314","","",
"2.177.924.667","BAET",,,"1070","Anderlecht","Anderlecht","Researchdreef","Allée de la Recherche","20","","",
"2.181.462.494","BAET",,,"8750","Wingene","Wingene","Rakestraat","Rakestraat","27A","","",
"2.186.642.096","BAET",,,"6600","Bastogne","Bastogne","Rue du Sablon","Rue du Sablon","125-127","","62GS1A",
"2.186.643.779","BAET",,,"6800","Libramont-Chevigny","Libramont-Chevigny","Libramont,Avenue de Bouillon","Libramont,Avenue de Bouillon","5","","61GS1A",
"2.187.794.913","BAET",,,"8800","Roeselare","Roeselare","Wijnendalestraat","Wijnendalestraat","160","","51ROWA",
"2.209.570.522","BAET",,,"8200","Brugge","Brugge","Koningin Astridlaan","Koningin Astridlaan","97","6","50BKOA",
"2.210.681.072","BAET",,,"6180","Courcelles","Courcelles","Rue de Liège(CO)","Rue de Liège(CO)","70","","71LOGA",
"2.210.681.864","BAET",,,"8630","Veurne","Veurne","Ooststraat","Ooststraat","19","","",
"2.210.722.050","BAET",,,"1030","Brussel","Bruxelles","Koning AlbertII laan","Boulevard du Roi Albert II","27 GLV","","",
"2.210.722.149","BAET",,,"1030","Brussel","Bruxelles","Koning AlbertII laan","Boulevard du Roi Albert II","27",".","Verdieping 28U",
"2.211.072.339","BAET",,,"8560","Wevelgem","Wevelgem","Oostlaan","Oostlaan","6","","56GOOA",
"2.039.108.957","BAET",,,"4800","Verviers","Verviers","Rue Peltzer de Clermont","Rue Peltzer de Clermont","60","","",
"2.006.580.404","BAET",,,"4720","Kelmis","Kelmis","Rue de l'Eglise","Rue de l'Eglise","31","","",
"2.004.189.254","BAET",,,"4031","Liège","Liège","Rue Canal-de-l'Ourthe","Rue Canal-de-l'Ourthe","8","","",
"2.182.180.987","BAET",,,"4180","Hamoir","Hamoir","Hameau de Rennes","Hameau de Rennes","1","","",
"2.182.181.284","BAET",,,"4500","Huy","Huy","Quai de Compiègne","Quai de Compiègne","14-15","","",
"2.182.181.680","BAET",,,"4032","Liège","Liège","Quai des Ardennes","Quai des Ardennes","127","","",
"2.206.355.763","BAET",,,"4000","Liège","Liège","Quai de Maestricht","Quai de Maestricht","14","","",
"2.001.171.663","BAET",,,"4850","PLOMBIERES","PLOMBIERES","Rue de la Clinique","Rue de la Clinique","24","","",
"2.159.816.549","BAET",,,"4850","Plombières","Plombières","Rue de la Clinique","Rue de la Clinique","24","-","",
"2.159.816.945","BAET",,,"4850","Plombières","Plombières","Rue du Calvaire","Rue du Calvaire","1","","",
"2.159.817.242","BAET",,,"4880","Aubel","Aubel","Rue de la Kan","Rue de la Kan","79","","",
"2.158.812.204","BAET",,,"7500","Tournai","Tournai","Rue du Viaduc(TOU)","Rue du Viaduc(TOU)","52","","",
"2.158.813.687","BAET",,,"7600","Péruwelz","Péruwelz","Rue de la Verte Chasse(PER)","Rue de la Verte Chasse(PER)","7","","",
"2.160.263.343","BAET",,,"5640","Mettet","Mettet","Rue de la Marchauderie, Biesme","Rue de la Marchauderie, Biesme","7","A","",
"2.160.263.541","BAET",,,"5070","Fosses-la-Ville","Fosses-la-Ville","Rue Sainte-Brigide","Rue Sainte-Brigide","43","","",
"2.166.131.744","BAET",,,"5060","Sambreville","Sambreville","Rue de l'Abattoir(TAM)","Rue de l'Abattoir(TAM)","9","","",
"2.160.519.996","BAET",,,"5640","Mettet","Mettet","Rue Estroit","Rue Estroit","39","","",
"2.164.080.886","BAET",,,"5020","Namur","Namur","Rue Fernand Marchand(FW)","Rue Fernand Marchand(FW)","44","","",
"2.172.249.969","BAET",,,"1040","Etterbeek","Etterbeek","Trierstraat","Rue de Trèves","82","","",
"2.159.997.483","BAET",,,"1000","Brussel","Bruxelles","Keizerinlaan","Boulevard de l'Impératrice","17-19","","",
"2.159.997.582","BAET",,,"1040","Brussel","Bruxelles","Linthoutstraat","Rue de Linthout","41","","",
"2.159.997.780","BAET",,,"1070","Brussel","Bruxelles","Birminghamstraat","Rue de Birmingham","120","","",
"2.159.997.978","BAET",,,"1180","Ukkel","Uccle","Sint-Jobsesteenweg","Chaussée de Saint-Job","516","","",
"2.159.998.176","BAET",,,"1180","Ukkel","Uccle","Waterloosesteenweg","Chaussée de Waterloo","764","","",
"2.159.998.572","BAET",,,"1420","Braine-l'Alleud","Braine-l'Alleud","Chemin des Eglantiers","Chemin des Eglantiers","3","","",
"2.159.998.968","BAET",,,"5170","Profondeville","Profondeville","Rue Rochers de Frène(LU)","Rue Rochers de Frène(LU)","*","","",
"2.159.999.166","BAET",,,"5003","Namur","Namur","Al'Tchôde Ewe(SM)","Al'Tchôde Ewe(SM)","15","","",
"2.159.999.562","BAET",,,"5140","Sombreffe","Sombreffe","Rue Emile Vandervelde","Rue Emile Vandervelde","2","","",
"2.159.999.661","BAET",,,"5530","Yvoir","Yvoir","Rue des Carrières, Spontin","Rue des Carrières, Spontin","7","","",
"2.160.299.767","BAET",,,"4500","Huy","Huy","Avenue de Beaufort","Avenue de Beaufort","7","","",
"2.160.300.361","BAET",,,"7021","Mons","Mons","Rue des Cheminots","Rue des Cheminots","22","","",
"2.160.301.450","BAET",,,"7190","Ecaussinnes","Ecaussinnes","Rue de l'Avedelle","Rue de l'Avedelle","2","","",
"2.160.301.945","BAET",,,"7190","Ecaussinnes","Ecaussinnes","Chemin du Long Spinois","Chemin du Long Spinois","1","","",
"2.160.302.242","BAET",,,"1180","Ukkel","Uccle","Wilderoselaarslaan","Avenue des Eglantiers","43","","",
"2.160.302.836","BAET",,,"1180","Ukkel","Uccle","Vergaarbakweg","Chemin du Réservoir","1","","",
"2.160.315.011","BAET",,,"5530","Yvoir","Yvoir","Avenue de Champalle","Avenue de Champalle","/","","",
"2.160.315.803","BAET",,,"1472","Genappe","Genappe","Moulin Tas","Moulin Tas","22","","",
"2.160.316.494","BAET",,,"1428","Braine-l'Alleud","Braine-l'Alleud","Ch.Maison du Roi","Ch.Maison du Roi","184","","",
"2.160.316.692","BAET",,,"7070","Le Roeulx","Le Roeulx","Rue des Ecaussinnes(R)","Rue des Ecaussinnes(R)","12","","",
"2.160.317.484","BAET",,,"5170","Profondeville","Profondeville","Rue Georges Marchal(B.V.)","Rue Georges Marchal(B.V.)","10","","",
"2.160.317.979","BAET",,,"5032","Gembloux","Gembloux","Chaussée de Nivelles, Bothey","Chaussée de Nivelles, Bothey","69","","",
"2.160.318.177","BAET",,,"5300","Andenne","Andenne","Beau Boing","Beau Boing","547","B","",
"2.160.318.573","BAET",,,"5020","Namur","Namur","Rue du Bas-Daussoulx(DX)","Rue du Bas-Daussoulx(DX)","/","","",
"2.160.318.771","BAET",,,"1050","Elsene","Ixelles","Kloosterstraat","Rue du Couvent","2","","",
"2.160.319.860","BAET",,,"1040","Etterbeek","Etterbeek","Generaal Lemanstraat","Rue Général Leman","44","","",
"2.160.320.553","BAET",,,"1020","Brussel","Bruxelles","Rode Kruislaan","Avenue de la Croix-Rouge","81","","",
"2.160.321.048","BAET",,,"5170","Profondeville","Profondeville","Chemin des Mésanges","Chemin des Mésanges","/","","",
"2.160.321.147","BAET",,,"1640","Sint-Genesius-Rode","Sint-Genesius-Rode","Brassinelaan","Avenue Brassine","/","","",
"2.160.321.444","BAET",,,"1640","Sint-Genesius-Rode","Sint-Genesius-Rode","Grote Hutsesteenweg","Chaussée de la Grande Espinette","/","","",
"2.160.322.335","BAET",,,"1070","Anderlecht","Anderlecht","Bollinckxstraat","Rue Bollinckx","319-325","","",
"2.160.322.731","BAET",,,"1200","Sint-Lambrechts-Woluwe","Woluwe-Saint-Lambert","Driesstraat","Rue Dries","34","","",
"2.160.323.424","BAET",,,"1190","Vorst","Forest","Lusambostraat","Rue de Lusambo","21-23","","",
"2.160.323.721","BAET",,,"1600","Sint-Pieters-Leeuw","Sint-Pieters-Leeuw","Alsembergsesteenweg","Alsembergsesteenweg","5-7","","",
"2.160.323.820","BAET",,,"1930","Zaventem","Zaventem","J.B. Devlemincklaan","J.B. Devlemincklaan","59","","",
"2.160.323.919","BAET",,,"7011","Mons","Mons","Rue de l'Aulnoye (G.)","Rue de l'Aulnoye (G.)","24","","",
"2.160.324.018","BAET",,,"1420","Braine-l'Alleud","Braine-l'Alleud","Av Alph Allard","Av Alph Allard","288","","",
"2.161.098.434","BAET",,,"4577","Modave","Modave","Rouche aux Corbeaux","Rouche aux Corbeaux","-","","",
"2.161.100.414","BAET",,,"1472","Genappe","Genappe","Rue du Jeune Piou","Rue du Jeune Piou","-","","",
"2.161.439.419","BAET",,,"5380","Fernelmont","Fernelmont","Rue de Bierwart, Forv.","Rue de Bierwart, Forv.","-","","",
"2.160.284.129","BAET",,,"1000","Brussel","Bruxelles","Maalbeeklaan","Avenue du Maelbeek","3","","",
"2.104.471.814","BAET",,,"1000","Brussel","Bruxelles","de Berlaimontlaan","Boulevard de Berlaimont","14","","",
"2.104.472.903","BAET",,,"3500","Hasselt","Hasselt","Eurostraat","Eurostraat","4","","",
"2.104.473.002","BAET",,,"8500","Kortrijk","Kortrijk","President Kennedypark(Kor)","President Kennedypark(Kor)","43","","",
"2.104.473.495","BAET",,,"4000","Liège","Liège","Place Saint-Paul","Place Saint-Paul","14","","",
"2.104.473.792","BAET",,,"7000","Mons","Mons","Avenue Frère Orban","Avenue Frère Orban","26","","",
"2.128.041.626","BAET",,,"1000","Brussel","Bruxelles","Bankstraat","Rue de la Banque","7","","",
"2.072.525.457","BAET",,,"1040","Brussel","Bruxelles","Wetstraat","Rue de la Loi","42","","",
"2.151.301.533","BAET",,,"1000","Brussel","Bruxelles","Montoyerstraat","Rue Montoyer","3","","",
"2.009.956.596","BAET",,,"1180","Ukkel","Uccle","Stillelaan","Avenue du Silence","61","","",
"2.143.271.418","BAET",,,"1000","Brussel","Bruxelles","Kantersteen","Cantersteen","10","","",
"2.143.272.111","BAET",,,"1000","Brussel","Bruxelles","Keizerinlaan","Boulevard de l'Impératrice","5","","",
"2.143.272.408","BAET",,,"1000","Brussel","Bruxelles","Koloniënstraat","Rue des Colonies","2","","",
"2.143.273.594","BAET",,,"1030","Schaarbeek","Schaerbeek","Prinses Elisabethplein","Place Princesse Elisabeth","5","","",
"2.143.273.693","BAET",,,"1030","Schaarbeek","Schaerbeek","Prinses Elisabethplein","Place Princesse Elisabeth","6","","",
"2.143.273.792","BAET",,,"1030","Schaarbeek","Schaerbeek","Prinses Elisabethplein","Place Princesse Elisabeth","7","","",
"2.143.273.891","BAET",,,"1030","Schaarbeek","Schaerbeek","Vooruitgangstraat","Rue du Progrès","76","","",
"2.143.273.990","BAET",,,"1030","Schaarbeek","Schaerbeek","Vooruitgangstraat","Rue du Progrès","86","","",
"2.143.274.584","BAET",,,"1060","Sint-Gillis (bij-Brussel)","Saint-Gilles","Fonsnylaan","Avenue Fonsny","47B","","",
"2.143.274.683","BAET",,,"1060","Sint-Gillis (bij-Brussel)","Saint-Gilles","Frankrijkstraat","Rue de France","40","","",
"2.143.274.782","BAET",,,"1060","Sint-Gillis (bij-Brussel)","Saint-Gilles","Frankrijkstraat","Rue de France","52-5","5-6","",
"2.143.274.980","BAET",,,"1060","Sint-Gillis (bij-Brussel)","Saint-Gilles","Frankrijkstraat","Rue de France","56-5","","",
"2.143.275.079","BAET",,,"1060","Sint-Gillis (bij-Brussel)","Saint-Gilles","Frankrijkstraat","Rue de France","85","","",
"2.143.275.178","BAET",,,"1060","Sint-Gillis (bij-Brussel)","Saint-Gilles","Frankrijkstraat","Rue de France","89","","",
"2.143.275.475","BAET",,,"1060","Sint-Gillis (bij-Brussel)","Saint-Gilles","Onderwijsstraat","Rue de l'Instruction","157","","",
"2.143.275.574","BAET",,,"1070","Anderlecht","Anderlecht","Barastraat","Rue Bara","110","Et.5","",
"2.143.275.772","BAET",,,"1070","Anderlecht","Anderlecht","Barastraat","Rue Bara","114","","",
"2.143.275.871","BAET",,,"1070","Anderlecht","Anderlecht","Barastraat","Rue Bara","134","","",
"2.143.276.069","BAET",,,"1070","Anderlecht","Anderlecht","Charles Parentéstraat","Rue Charles Parenté","28","","",
"2.143.276.366","BAET",,,"1070","Anderlecht","Anderlecht","Frankrijkstraat","Rue de France","97","","",
"2.143.276.564","BAET",,,"1070","Anderlecht","Anderlecht","Tweestationsstraat","Rue des Deux Gares","128","","",
"2.143.277.356","BAET",,,"1190","Vorst","Forest","Gerijstraat","Rue du Charroi","20","","",
"2.143.277.653","BAET",,,"1000","Brussel","Bruxelles","Havenlaan","Avenue du Port","100","","",
"2.143.278.049","BAET",,,"1340","Ottignies-Louvain-la-Neuve","Ottignies-Louvain-la-Neuve","Avenue des Combattants","Avenue des Combattants","s/n","","",
"2.143.280.722","BAET",,,"2000","Antwerpen","Antwerpen","Noorderplaats","Noorderplaats","2","","",
"2.143.280.821","BAET",,,"2018","Antwerpen","Antwerpen","Anneessensstraat","Anneessensstraat","1-3","","",
"2.143.281.118","BAET",,,"2018","Antwerpen","Antwerpen","Koningin Astridplein","Koningin Astridplein","27","","",
"2.143.281.712","BAET",,,"2030","Antwerpen","Antwerpen","Noorderlaan","Noorderlaan","630","","",
"2.143.284.581","BAET",,,"2800","Mechelen","Mechelen","Koning Albertplein","Koning Albertplein","2","","",
"2.143.284.680","BAET",,,"2800","Mechelen","Mechelen","Leuvensesteenweg","Leuvensesteenweg","1","","",
"2.143.284.779","BAET",,,"2800","Mechelen","Mechelen","Leuvensesteenweg","Leuvensesteenweg","30","","",
"2.143.286.165","BAET",,,"3000","Leuven","Leuven","Martelarenplein","Martelarenplein","16","","",
"2.143.286.264","BAET",,,"3000","Leuven","Leuven","Martelarenplein","Martelarenplein","20","","",
"2.143.286.363","BAET",,,"3010","Leuven","Leuven","Diestsesteenweg","Diestsesteenweg","3","","",
"2.143.286.660","BAET",,,"3200","Aarschot","Aarschot","Statiestraat","Statiestraat","2","","",
"2.143.286.957","BAET",,,"3300","Tienen","Tienen","Vierde Lansierslaan","Vierde Lansierslaan","z/n","","",
"2.143.287.155","BAET",,,"3500","Hasselt","Hasselt","de Schiervellaan","de Schiervellaan","26","","",
"2.143.287.254","BAET",,,"3500","Hasselt","Hasselt","Koningin Astridlaan","Koningin Astridlaan","68","","",
"2.143.287.452","BAET",,,"3500","Hasselt","Hasselt","Stationsplein","Stationsplein","2-6","","",
"2.143.287.551","BAET",,,"3511","Hasselt","Hasselt","Kuringersteenweg","Kuringersteenweg","324","","",
"2.143.288.937","BAET",,,"4000","Liège","Liège","Place des Guillemins","Place des Guillemins","2","","",
"2.143.289.333","BAET",,,"4000","Liège","Liège","Rue du Plan-Incliné","Rue du Plan-Incliné","145","","",
"2.143.289.432","BAET",,,"4000","Liège","Liège","Rue Varin","Rue Varin","2","","",
"2.143.289.531","BAET",,,"4020","Liège","Liège","Rue de la Lèche","Rue de la Lèche","33","","",
"2.143.290.026","BAET",,,"4031","Liège","Liège","Rue de Chênée","Rue de Chênée","3","","",
"2.143.291.907","BAET",,,"4800","Verviers","Verviers","Place de la Victoire","Place de la Victoire","1","","",
"2.143.292.204","BAET",,,"4800","Verviers","Verviers","Rue d' Ensival","Rue d' Ensival","1","","",
"2.143.293.390","BAET",,,"5000","Namur","Namur","Boulevard du Nord","Boulevard du Nord","60","","",
"2.143.293.489","BAET",,,"5000","Namur","Namur","Boulevard du Nord","Boulevard du Nord","62","","",
"2.143.293.588","BAET",,,"5000","Namur","Namur","Boulevard Ernest Mélot","Boulevard Ernest Mélot","23","","",
"2.143.293.687","BAET",,,"5000","Namur","Namur","Place de la Station","Place de la Station","s/n","","",
"2.143.293.984","BAET",,,"5000","Namur","Namur","Rue des Bas Prés","Rue des Bas Prés","s/n","","",
"2.143.294.083","BAET",,,"5020","Namur","Namur","Rue Jean-Joseph Gaillard(FW)","Rue Jean-Joseph Gaillard(FW)","2","","",
"2.143.296.558","BAET",,,"5580","Rochefort","Rochefort","Rue Joseph-Wauters,Jemelle","Rue Joseph-Wauters,Jemelle","s/n","","",
"2.143.297.251","BAET",,,"6000","Charleroi","Charleroi","Quai de la Gare du Sud","Quai de la Gare du Sud","s/n","","",
"2.143.297.548","BAET",,,"6000","Charleroi","Charleroi","Square des Martyrs","Square des Martyrs","s/n","","",
"2.143.297.647","BAET",,,"6001","Charleroi","Charleroi","Rue Cambier Dupret","Rue Cambier Dupret","61","","",
"2.143.298.340","BAET",,,"6200","Châtelet","Châtelet","Place de la Station","Place de la Station","1","","",
"2.143.299.528","BAET",,,"6700","Arlon","Arlon","Avenue de la Gare","Avenue de la Gare","32","","",
"2.143.299.627","BAET",,,"6700","Arlon","Arlon","Avenue de la Gare","Avenue de la Gare","61","","",
"2.143.299.825","BAET",,,"6700","Arlon","Arlon","Heinsch, route de Neufchâteau","Heinsch, route de Neufchâteau","s/n","","",
"2.143.300.617","BAET",,,"6800","Libramont-Chevigny","Libramont-Chevigny","Li.,Rue de la Gare(R. Chanteroy)","Li.,Rue de la Gare(R. Chanteroy)","s/n","","",
"2.143.301.508","BAET",,,"7000","Mons","Mons","Avenue Joseph Wauters (C.)","Avenue Joseph Wauters (C.)","124","","",
"2.143.301.607","BAET",,,"7000","Mons","Mons","Chemin de l'Inquiétude","Chemin de l'Inquiétude","1","1","",
"2.143.301.805","BAET",,,"7000","Mons","Mons","Place Léopold","Place Léopold","2","","",
"2.143.301.904","BAET",,,"7000","Mons","Mons","Place Léopold","Place Léopold","s/n","","",
"2.143.302.102","BAET",,,"7000","Mons","Mons","Square Franklin Delano Roosevelt","Square Franklin Delano Roosevelt","14","","",
"2.143.302.991","BAET",,,"7100","La Louvière","La Louvière","Boulevard du Roi Baudouin","Boulevard du Roi Baudouin","s/n","","",
"2.143.303.486","BAET",,,"7160","Chapelle-lez-Herlaimont","Chapelle-lez-Herlaimont","Rue d'Anderlues","Rue d'Anderlues","187","","",
"2.143.303.981","BAET",,,"7330","Saint-Ghislain","Saint-Ghislain","Place Albert-Elisabeth(SG)","Place Albert-Elisabeth(SG)","56","","",
"2.143.304.377","BAET",,,"7500","Tournai","Tournai","Place Crombez(TOU)","Place Crombez(TOU)","s/n","","",
"2.143.305.763","BAET",,,"8000","Brugge","Brugge","Stationsplein","Stationsplein","3","","",
"2.143.305.862","BAET",,,"8000","Brugge","Brugge","Stationsplein","Stationsplein","5","","",
"2.143.306.951","BAET",,,"8400","Oostende","Oostende","Mispelplein","Mispelplein","1","","",
"2.143.307.050","BAET",,,"8400","Oostende","Oostende","Sloepenstraat","Sloepenstraat","3","","",
"2.143.307.248","BAET",,,"8500","Kortrijk","Kortrijk","Marksesteenweg(Kor)","Marksesteenweg(Kor)","59A","","",
"2.143.307.446","BAET",,,"8500","Kortrijk","Kortrijk","Stationsplein(Kor)","Stationsplein(Kor)","8","","",
"2.143.308.337","BAET",,,"8730","Beernem","Beernem","Stationsplein","Stationsplein","3","","",
"2.143.309.822","BAET",,,"9000","Gent","Gent","Prinses Clementinalaan","Prinses Clementinalaan","31","","",
"2.143.310.020","BAET",,,"9000","Gent","Gent","Koningin Maria Hendrikaplein","Koningin Maria Hendrikaplein","2","","",
"2.143.310.119","BAET",,,"9000","Gent","Gent","Meersstraat","Meersstraat","138","C","",
"2.143.310.218","BAET",,,"9000","Gent","Gent","Meersstraat","Meersstraat","138","","",
"2.143.310.416","BAET",,,"9000","Gent","Gent","Noordveenakkerstraat","Noordveenakkerstraat","1","","",
"2.143.310.812","BAET",,,"9050","Gent","Gent","Brusselsesteenweg","Brusselsesteenweg","602","","",
"2.143.310.911","BAET",,,"9050","Gent","Gent","Gontrodestraat","Gontrodestraat","222","","",
"2.143.313.087","BAET",,,"9300","Aalst","Aalst","Statieplein","Statieplein","9","","",
"2.143.313.879","BAET",,,"9470","Denderleeuw","Denderleeuw","Stationsplein","Stationsplein","z/n","","",
"2.143.563.606","BAET",,,"7100","La Louvière","La Louvière","Rue de l'Esplanade","Rue de l'Esplanade","SN","","",
"2.143.609.136","BAET",,,"9200","Dendermonde","Dendermonde","Statieplein (DEN)","Statieplein (DEN)","ZN","","",
"2.182.832.669","BAET",,,"9620","Zottegem","Zottegem","Stationsplein","Stationsplein","12","","",
"2.182.832.768","BAET",,,"9100","Sint-Niklaas","Sint-Niklaas","Leopold II-laan","Leopold II-laan","2","","",
"2.182.832.966","BAET",,,"8400","Oostende","Oostende","Natiënkaai","Natiënkaai","1","","",
"2.182.833.164","BAET",,,"1400","Nivelles","Nivelles","Rue de Namur","Rue de Namur","185","","",
"2.182.833.461","BAET",,,"7800","Ath","Ath","Rue de la Station","Rue de la Station","1","","",
"2.182.833.956","BAET",,,"9000","Gent","Gent","Koningin Fabiolalaan","Koningin Fabiolalaan","S/N","","",
"2.182.834.550","BAET",,,"2018","Antwerpen","Antwerpen","De Keyserlei","De Keyserlei","56/60132","","",
"2.182.834.748","BAET",,,"1070","Anderlecht","Anderlecht","Tweestationsstraat","Rue des Deux Gares","82","","",
"2.182.834.847","BAET",,,"6001","Charleroi","Charleroi","Rue de la Villette","Rue de la Villette","51","","",
"2.182.835.045","BAET",,,"4000","Liège","Liège","Rue des Guillemins","Rue des Guillemins","26","","",
"2.182.835.243","BAET",,,"1070","Anderlecht","Anderlecht","Barastraat","Rue Bara","135","","",
"2.182.835.441","BAET",,,"1070","Anderlecht","Anderlecht","Tweestationsstraat","Rue des Deux Gares","80","","",
"2.183.961.136","BAET",,,"9000","Gent","Gent","Kortrijksesteenweg","Kortrijksesteenweg","398","","",
"2.183.961.235","BAET",,,"5030","Gembloux","Gembloux","Avenue de la Station","Avenue de la Station","1","","",
"2.183.961.334","BAET",,,"1800","Vilvoorde","Vilvoorde","Stationplein","Stationplein","9","","",
"2.184.437.822","BAET",,,"1060","Sint-Gillis (bij-Brussel)","Saint-Gilles","Hallepoortlaan","Avenue de la Porte de Hal","40","","",
"2.184.438.020","BAET",,,"8400","Oostende","Oostende","Konterdamkaai","Konterdamkaai","1","","",
"2.184.438.218","BAET",,,"9000","Gent","Gent","Kortrijksesteenweg","Kortrijksesteenweg","400","","",
"2.184.438.317","BAET",,,"2600","Antwerpen","Antwerpen","Burgemeester E. Ryckaertsplein","Burgemeester E. Ryckaertsplein","1","","",
"2.189.894.269","BAET",,,"4500","Huy","Huy","Place Zénobe Gramme","Place Zénobe Gramme","4","","",
"2.193.255.518","BAET",,,"1130","Brussel","Bruxelles","Ganzenweidestraat","Rue du Pré aux Oies","301","","",
"2.206.089.410","BAET",,,"5000","Namur","Namur","Rue Léanne","Rue Léanne","15","","",
"2.214.138.727","BAET",,,"4000","Liège","Liège","Rue Varin","Rue Varin","4","A","",
"2.214.208.112","BAET",,,"5000","Namur","Namur","Rue Léanne","Rue Léanne","1","","",
"2.158.896.831","BAET",,,"3210","Lubbeek","Lubbeek","Diestsesteenweg(LIN)","Diestsesteenweg(LIN)","126","","",
"2.117.423.787","BAET",,,"4020","Liège","Liège","MAIS.COM.A.BRESSOUX","MAIS.COM.A.BRESSOUX","","","",
"2.149.664.708","BAET",,,"4420","Saint-Nicolas","Saint-Nicolas","Rue de la Digue","Rue de la Digue","25","","",
"2.005.831.029","BAET",,,"4420","Saint-Nicolas","Saint-Nicolas","Rue Saint-Nicolas","Rue Saint-Nicolas","219","","",
"2.152.229.466","BAET",,,"4100","Seraing","Seraing","Rue Laplace","Rue Laplace","40","","",
"2.161.218.792","BAET",,,"4300","Waremme","Waremme","Avenue de la Résistance","Avenue de la Résistance","2","","",
"2.161.219.188","BAET",,,"4300","Waremme","Waremme","Avenue de la Résistance","Avenue de la Résistance","4","","",
"2.161.219.485","BAET",,,"4100","Seraing","Seraing","Rue Laplace","Rue Laplace","40.","","",
"2.161.219.881","BAET",,,"4100","Seraing","Seraing","Rue Laplace","Rue Laplace","40","*","",
"2.161.220.079","BAET",,,"4420","Saint-Nicolas","Saint-Nicolas","Rue Chantraine","Rue Chantraine","51","","",
"2.161.221.069","BAET",,,"4400","Flémalle","Flémalle","Grand'Route(FLG)","Grand'Route(FLG)","418","","",
"2.158.977.203","BAET",,,"4557","Tinlot","Tinlot","Rue de Dinant","Rue de Dinant","51","","",
"2.158.307.111","BAET",,,"2440","Geel","Geel","Antwerpseweg","Antwerpseweg","1","","",
"2.178.144.403","BAET",,,"2440","Geel","Geel","Lammerdries","Lammerdries","9A","","",
"2.194.140.097","BAET",,,"2440","Geel","Geel","Dr.-Van de Perrestraat","Dr.-Van de Perrestraat","218","A","",
"2.213.663.031","BAET",,,"2460","Kasterlee","Kasterlee","Ossengoor","Ossengoor","12","","",
"2.003.168.675","BAET",,,"4000","LIEGE","LIEGE","Rue Louvrex","Rue Louvrex","95","","",
"2.004.572.504","BAET",,,"4000","LIEGE","LIEGE","Rue Louvrex","Rue Louvrex","55","","",
"2.159.875.046","BAET",,,"4000","Liège","Liège","Rue Louvrex","Rue Louvrex","95","-","",
"2.159.875.244","BAET",,,"4040","Herstal","Herstal","Parc Ind. des Hauts Sarts, 2e av","Parc Ind. des Hauts Sarts, 2e av","30","","",
"2.159.875.343","BAET",,,"4100","Seraing","Seraing","Rue du Pont du Val","Rue du Pont du Val","2","","",
"2.159.875.739","BAET",,,"4400","Flémalle","Flémalle","Place de la Centrale(FLG)","Place de la Centrale(FLG)","11","","",
"2.159.876.036","BAET",,,"4430","Ans","Ans","Rue Jean Jaurès","Rue Jean Jaurès","46","","",
"2.160.459.422","BAET",,,"4000","Liège","Liège","Rue Sainte-Marie","Rue Sainte-Marie","11","","",
"2.160.459.818","BAET",,,"4020","Liège","Liège","Rue de Visé","Rue de Visé","23","","",
"2.160.460.016","BAET",,,"4100","Seraing","Seraing","Rue du Molinay","Rue du Molinay","60","","",
"2.160.460.412","BAET",,,"4040","Herstal","Herstal","Rue Ernest Solvay","Rue Ernest Solvay","31","","",
"2.160.460.610","BAET",,,"4700","Eupen","Eupen","Oestrasse","Oestrasse","3","","",
"2.160.460.907","BAET",,,"4820","Dison","Dison","Rue d'Andrimont","Rue d'Andrimont","52","","",
"2.186.085.337","BAET",,,"7110","La Louvière","La Louvière","Rue Grand Peuplier(H-A)","Rue Grand Peuplier(H-A)","20","","",
"2.186.087.119","BAET",,,"7000","Mons","Mons","Rue de Nimy","Rue de Nimy","53","","",
"2.186.087.713","BAET",,,"7100","La Louvière","La Louvière","Rue Hamoir(L.L)","Rue Hamoir(L.L)","30","","",
"2.186.088.208","BAET",,,"6041","Charleroi","Charleroi","Avenue Georges Lemaitre","Avenue Georges Lemaitre","21","","",
"2.186.088.901","BAET",,,"1348","Ottignies-Louvain-la-Neuve","Ottignies-Louvain-la-Neuve","Avenue Jean Monnet","Avenue Jean Monnet","2","","",
"2.186.089.196","BAET",,,"6900","Marche-en-Famenne","Marche-en-Famenne","Marche, Rue du Parc Industriel","Marche, Rue du Parc Industriel","6","","",
"2.186.089.988","BAET",,,"7500","Tournai","Tournai","Rue de la Lys(TOU)","Rue de la Lys(TOU)","10","","",
"2.186.090.285","BAET",,,"6700","Arlon","Arlon","Avenue du Général-Patton","Avenue du Général-Patton","237","","",
"2.186.090.582","BAET",,,"4800","Verviers","Verviers","Rue Jean Koch","Rue Jean Koch","12","","",
"2.186.090.681","BAET",,,"6041","Charleroi","Charleroi","Rue Clément Ader","Rue Clément Ader","12","","",
"2.186.090.978","BAET",,,"6240","Farciennes","Farciennes","Rue de Lambusart(FAR)","Rue de Lambusart(FAR)","56","","",
"2.186.091.077","BAET",,,"5060","Sambreville","Sambreville","Rue du Bosquet(AUV)","Rue du Bosquet(AUV)","16","","",
"2.197.070.685","BAET",,,"4041","Herstal","Herstal","Rue des Alouettes","Rue des Alouettes","96","","",
"2.158.810.719","BAET",,,"4000","Liège","Liège","Rue du Vertbois","Rue du Vertbois","11","","",
"2.161.386.365","BAET",,,"4020","Liège","Liège","Quai Godefroid-Kurth","Quai Godefroid-Kurth","100","","",
"2.182.384.984","BAET",,,"4800","Verviers","Verviers","Rue Jean Koch","Rue Jean Koch","6","","",
"2.004.188.660","BAET",,,"6700","Arlon","Arlon","Schoppach,drève de l'Arc-en-Ciel","Schoppach,drève de l'Arc-en-Ciel","98","","",
"2.160.541.970","BAET",,,"6600","Bastogne","Bastogne","Rue de Clervaux","Rue de Clervaux","100","","",
"2.160.542.861","BAET",,,"6700","Arlon","Arlon","Rue de Neufchâteau","Rue de Neufchâteau","324","","",
"2.160.543.158","BAET",,,"6800","Libramont-Chevigny","Libramont-Chevigny","Libramont,Rue du Serpont","Libramont,Rue du Serpont","-","","",
"2.160.543.257","BAET",,,"6840","Neufchâteau","Neufchâteau","La Plate des Prés,WARM","La Plate des Prés,WARM","18","","",
"2.160.544.148","BAET",,,"6880","Bertrix","Bertrix","Rue des Munos","Rue des Munos","-","","",
"2.160.544.445","BAET",,,"6900","Marche-en-Famenne","Marche-en-Famenne","Marche, Chaussée de Liège","Marche, Chaussée de Liège","100","","",
"2.160.544.742","BAET",,,"6920","Wellin","Wellin","Rue Fond-des-Vaulx","Rue Fond-des-Vaulx","-","","",
"2.182.299.070","BAET",,,"4780","Sankt Vith","Sankt Vith","John-Cockerill-Straße","John-Cockerill-Straße","5-7","","",
"2.182.300.951","BAET",,,"6720","Habay","Habay","Les Coeuvins","Les Coeuvins","C","","",
"2.182.301.149","BAET",,,"4760","Büllingen","Büllingen","Merlscheid","Merlscheid","17","b","",
"2.182.301.743","BAET",,,"4791","Burg-Reuland","Burg-Reuland","Oudler","Oudler","SN","","",
"2.182.302.337","BAET",,,"4950","Waimes","Waimes","Rue du Château","Rue du Château","12","","",
"2.182.302.733","BAET",,,"4950","Waimes","Waimes","Rue de Bosfagne,Sourbrodt","Rue de Bosfagne,Sourbrodt","SN","","",
"2.182.303.426","BAET",,,"4960","Malmedy","Malmedy","Avenue de Norvège","Avenue de Norvège","SN","","",
"2.182.303.723","BAET",,,"4970","Stavelot","Stavelot","Rue Saint Laurent","Rue Saint Laurent","SN","","",
"2.182.304.119","BAET",,,"4980","Trois-Ponts","Trois-Ponts","Place de la Gare","Place de la Gare","SN","","",
"2.182.304.614","BAET",,,"4987","Stoumont","Stoumont","Gare de la Gleize","Gare de la Gleize","SN","","",
"2.182.305.010","BAET",,,"6690","Vielsalm","Vielsalm","Ville-du-Bois","Ville-du-Bois","174","","",
"2.182.305.604","BAET",,,"6671","Gouvy","Gouvy","Courtil","Courtil","SN","","",
"2.182.306.097","BAET",,,"4750","Bütgenbach","Bütgenbach","Auf dem Mühlenberg","Auf dem Mühlenberg","SN","","",
"2.182.306.196","BAET",,,"4770","Amel","Amel","Medell,Auf der Leu","Medell,Auf der Leu","SN","","",
"2.182.306.592","BAET",,,"4780","Sankt Vith","Sankt Vith","Zoning Industriel","Zoning Industriel","2","","",
"2.182.306.889","BAET",,,"6660","Houffalize","Houffalize","Route de Liège","Route de Liège","6","c","",
"2.182.307.087","BAET",,,"6960","Manhay","Manhay","Route de Lierneux, Vx-Ch.","Route de Lierneux, Vx-Ch.","SN","","",
"2.182.307.285","BAET",,,"6600","Bastogne","Bastogne","Zoning Industriel","Zoning Industriel","SN","","",
"2.182.307.780","BAET",,,"6600","Bastogne","Bastogne","Cobru","Cobru","12","","",
"2.182.308.077","BAET",,,"6680","Sainte-Ode","Sainte-Ode","Barrière-Hinck","Barrière-Hinck","SN","","",
"2.182.308.572","BAET",,,"6941","Durbuy","Durbuy","Rue de Tohogne","Rue de Tohogne","SN","","",
"2.182.308.770","BAET",,,"6997","Erezée","Erezée","Rue du Pont-d'Erezée, Fisenne","Rue du Pont-d'Erezée, Fisenne","SN","","",
"2.182.318.371","BAET",,,"6990","Hotton","Hotton","Rue de Barvaux, Hotton","Rue de Barvaux, Hotton","SN","","",
"2.182.318.569","BAET",,,"6983","La Roche-en-Ardenne","La Roche-en-Ardenne","Roupage","Roupage","632","","",
"2.182.319.361","BAET",,,"6890","Libin","Libin","Rue de Villance","Rue de Villance","SN","","",
"2.182.319.757","BAET",,,"6800","Libramont-Chevigny","Libramont-Chevigny","Route de Libramont","Route de Libramont","SN","","",
"2.182.323.717","BAET",,,"6900","Marche-en-Famenne","Marche-en-Famenne","Waha, Rue Saint-Etienne","Waha, Rue Saint-Etienne","SN","","",
"2.183.209.286","BAET",,,"6900","Marche-en-Famenne","Marche-en-Famenne","Marloie, Rue du Carmel","Marloie, Rue du Carmel","SN","","",
"2.183.209.682","BAET",,,"6950","Nassogne","Nassogne","Rue de Lahaut","Rue de Lahaut","SN","","",
"2.183.210.177","BAET",,,"6870","Saint-Hubert","Saint-Hubert","Route de Grupont","Route de Grupont","SN","","",
"2.183.210.771","BAET",,,"6927","Tellin","Tellin","Rue de Tellin,Bure","Rue de Tellin,Bure","SN","","",
"2.183.210.870","BAET",,,"6970","Tenneville","Tenneville","Au-Gris-Han","Au-Gris-Han","13","","",
"2.183.211.068","BAET",,,"6640","Vaux-sur-Sûre","Vaux-sur-Sûre","Route de Vaux-sur-Sûre","Route de Vaux-sur-Sûre","SN","","",
"2.183.211.662","BAET",,,"6790","Aubange","Aubange","ZONING INDUSTRIEL AUBANGE","ZONING INDUSTRIEL AUBANGE","SN","","",
"2.183.211.860","BAET",,,"6810","Chiny","Chiny","Route de Bertrix,Moyen","Route de Bertrix,Moyen","SN","","",
"2.183.212.553","BAET",,,"6637","Fauvillers","Fauvillers","Warnach","Warnach","SN","","",
"2.183.217.404","BAET",,,"6720","Habay","Habay","Les Coeuvins","Les Coeuvins","SN","","",
"2.183.217.996","BAET",,,"6860","Léglise","Léglise","Rue du Léry,Wittimont","Rue du Léry,Wittimont","1","","",
"2.183.218.194","BAET",,,"6780","Messancy","Messancy","Rue de Krebling","Rue de Krebling","15","","",
"2.183.218.293","BAET",,,"6750","Musson","Musson","Rue Marcel-Niessen, Baranzy","Rue Marcel-Niessen, Baranzy","SN","","",
"2.183.218.392","BAET",,,"6767","Rouvroy","Rouvroy","Rue Sainte-Anne,Dampicourt","Rue Sainte-Anne,Dampicourt","SN","","",
"2.183.218.590","BAET",,,"6747","Saint-Léger (Lux.)","Saint-Léger (Lux.)","Voie des Mines","Voie des Mines","SN","","",
"2.183.218.788","BAET",,,"6730","Tintigny","Tintigny","Haut-des-Fagots,Breuvanne","Haut-des-Fagots,Breuvanne","SN","","",
"2.183.219.085","BAET",,,"6880","Bertrix","Bertrix","Route de Recogne","Route de Recogne","SN","","",
"2.183.219.481","BAET",,,"6830","Bouillon","Bouillon","Route de Bellevaux","Route de Bellevaux","SN","","",
"2.183.219.976","BAET",,,"6929","Daverdisse","Daverdisse","La Briqueterie","La Briqueterie","SN","","",
"2.183.220.372","BAET",,,"6887","Herbeumont","Herbeumont","Le Bois-Chaban, St-Médard","Le Bois-Chaban, St-Médard","1","","",
"2.183.220.570","BAET",,,"6840","Neufchâteau","Neufchâteau","Blanc Caillou,NEU","Blanc Caillou,NEU","SN","","",
"2.183.220.867","BAET",,,"6850","Paliseul","Paliseul","Rue d'Opont","Rue d'Opont","SN","","",
"2.183.221.164","BAET",,,"6920","Wellin","Wellin","Rue Paul-Dubois","Rue Paul-Dubois","SN","","",
"2.183.221.461","BAET",,,"6971","Tenneville","Tenneville","Route de Beausaint, Champlon","Route de Beausaint, Champlon","SN","","",
"2.183.222.451","BAET",,,"6960","Manhay","Manhay","Parc Industriel, Dochamps","Parc Industriel, Dochamps","SN","","",
"2.183.265.706","BAET",,,"6820","Florenville","Florenville","Chemin du Clument","Chemin du Clument","SN","","",
"2.183.265.805","BAET",,,"6987","Rendeux","Rendeux","Rue de La-Roche, Rendeux","Rue de La-Roche, Rendeux","16A","","",
"2.183.266.102","BAET",,,"6717","Attert","Attert","Schadeck","Schadeck","SN","","",
"2.183.295.103","BAET",,,"6767","Rouvroy","Rouvroy","Rue de l'Usine,Dampicourt","Rue de l'Usine,Dampicourt","SN","","",
"2.183.435.059","BAET",,,"6720","Habay","Habay","Les Coeuvins","Les Coeuvins","A","","",
"2.183.435.257","BAET",,,"6720","Habay","Habay","Les Coeuvins","Les Coeuvins","B","","",
"2.183.435.554","BAET",,,"6971","Tenneville","Tenneville","Route de Beausaint, Champlon","Route de Beausaint, Champlon","A","","",
"2.183.435.950","BAET",,,"6880","Bertrix","Bertrix","Route de Recogne","Route de Recogne","A","","",
"2.185.704.463","BAET",,,"6791","Aubange","Aubange","Rue de Rodange - ATHUS","Rue de Rodange - ATHUS","90","","",
"2.185.704.760","BAET",,,"6880","Bertrix","Bertrix","Rue Al-Paul","Rue Al-Paul","2","","",
"2.185.725.546","BAET",,,"6660","Houffalize","Houffalize","Rue de La-Roche","Rue de La-Roche","57","","",
"2.185.726.338","BAET",,,"6830","Bouillon","Bouillon","Cordemois","Cordemois","3","","",
"2.200.119.356","BAET",,,"6700","Arlon","Arlon","Heinsch, route de Neufchâteau","Heinsch, route de Neufchâteau","258","","",
"2.222.740.449","BAET",,,"6838","Bouillon","Bouillon","Rue du Tambour,Corbion","Rue du Tambour,Corbion","SN","","",
